lon,lat,name,address,pname,cityname,adname,business_area,type,typecode,id,type1,type2,type3,type4
113.55332620845977,22.19238386523782,澳门雅辰酒店,友谊大马路956-1110号,澳门特别行政区,澳门特别行政区,大堂区,,住宿服务;宾馆酒店;五星级宾馆,100102,B0GKYNED9V,住宿服务,宾馆酒店,五星级宾馆,
113.55342445957491,22.191814830295264,澳门文化酒店,新马路金碧文化中心后边,澳门特别行政区,澳门特别行政区,大堂区,,住宿服务;宾馆酒店;宾馆酒店,100100,B0FFF6WIDZ,住宿服务,宾馆酒店,宾馆酒店,
113.55364187095807,22.192809559647266,澳门雅辰酒店大堂,友谊大马路与友谊大马路辅路交叉口东40米,澳门特别行政区,澳门特别行政区,大堂区,,住宿服务;宾馆酒店;五星级宾馆,100102,B0JRYA3KU2,住宿服务,宾馆酒店,五星级宾馆,
113.55298740849358,22.1932575919368,澳门华都酒店,澳门澳门半岛澳门友谊大马路1071号,澳门特别行政区,澳门特别行政区,大堂区,,住宿服务;宾馆酒店;三星级宾馆,100104,B073D00G46,住宿服务,宾馆酒店,三星级宾馆,
113.55486657949896,22.191666214876864,澳门金沙,蒙地卡罗前地203号,澳门特别行政区,澳门特别行政区,大堂区,,住宿服务;宾馆酒店;五星级宾馆,100102,B073D00BLQ,住宿服务,宾馆酒店,五星级宾馆,
113.5519701518112,22.19314576514204,澳门城悦酒店,厦门街59号,澳门特别行政区,澳门特别行政区,大堂区,,住宿服务;宾馆酒店;宾馆酒店,100100,B0KUCAYMRV,住宿服务,宾馆酒店,宾馆酒店,
113.55197817534888,22.19305874826685,Million Dragon Hotel Macau,口岸厦门街59号(澳门特别行政区大堂区高美士街230号),澳门特别行政区,澳门特别行政区,大堂区,,住宿服务;宾馆酒店;宾馆酒店,100100,B0HR7AOEKO,住宿服务,宾馆酒店,宾馆酒店,
113.5561533465071,22.190643952261684,澳门励庭海景酒店,澳门半岛孙逸仙大马路渔人码头,澳门特别行政区,澳门特别行政区,大堂区,,住宿服务;宾馆酒店;宾馆酒店,100100,B0FFFONIXO,住宿服务,宾馆酒店,宾馆酒店,
113.54988841042025,22.192809862943772,利澳酒店,新口岸高美士街33号,澳门特别行政区,澳门特别行政区,大堂区,,住宿服务;宾馆酒店;四星级宾馆,100103,B073D00KYD,住宿服务,宾馆酒店,四星级宾馆,
113.5502361794058,22.19341972451315,澳门御龙酒店,果亚街61-77,澳门特别行政区,澳门特别行政区,大堂区,,住宿服务;住宿服务相关;住宿服务相关,100000,B0FFIR57S0,住宿服务,住宿服务相关,住宿服务相关,
113.5558727657147,22.190604484817683,澳门励庭海景酒店大堂,冼星海大马路与罗马街交叉口东240米,澳门特别行政区,澳门特别行政区,大堂区,,住宿服务;宾馆酒店;宾馆酒店,100100,B0JRYS5ASA,住宿服务,宾馆酒店,宾馆酒店,
113.55450758070653,22.19533492679296,金龙酒店,马六甲街,澳门特别行政区,澳门特别行政区,大堂区,,住宿服务;宾馆酒店;四星级宾馆,100103,B073D00BFE,住宿服务,宾馆酒店,四星级宾馆,
113.54985334140515,22.192609726143864,利澳酒店大堂,高美士街与宋玉生广场交叉口东北40米,澳门特别行政区,澳门特别行政区,大堂区,,住宿服务;宾馆酒店;四星级宾馆,100103,B0JRA5PYL0,住宿服务,宾馆酒店,四星级宾馆,
113.54873980981651,22.19122113536872,澳门新东方置地酒店,"友谊大马路555号,近上海街宋玉生广场对面",澳门特别行政区,澳门特别行政区,大堂区,,住宿服务;住宿服务相关;住宿服务相关,100000,B0FFJYJOHK,住宿服务,住宿服务相关,住宿服务相关,
113.54873179090322,22.191219119404664,澳门置地广场酒店,新口岸友谊大马路555号置地广场,澳门特别行政区,澳门特别行政区,大堂区,,住宿服务;宾馆酒店;五星级宾馆,100102,B073D00ARJ,住宿服务,宾馆酒店,五星级宾馆,
113.55625424301665,22.195574878230957,澳门励宫酒店,友谊大马路1315-1339号,澳门特别行政区,澳门特别行政区,大堂区,,住宿服务;宾馆酒店;宾馆酒店,100100,B0FFHQ96H9,住宿服务,宾馆酒店,宾馆酒店,
113.54829869523327,22.192220652215095,澳门维景酒店,澳门半岛新口岸北京街199号,澳门特别行政区,澳门特别行政区,大堂区,,住宿服务;宾馆酒店;四星级宾馆,100103,B073D00ARG,住宿服务,宾馆酒店,四星级宾馆,
113.54879995966601,22.191109209376286,澳门置地广场酒店大堂,友谊大马路与宋玉生广场辅路交叉口西60米,澳门特别行政区,澳门特别行政区,大堂区,,住宿服务;宾馆酒店;五星级宾馆,100102,B0JRYCCRZR,住宿服务,宾馆酒店,五星级宾馆,
113.5536756972684,22.19671100738443,皇家金堡酒店,澳门半岛罗理基博士大马路1118号,澳门特别行政区,澳门特别行政区,大堂区,,住宿服务;宾馆酒店;四星级宾馆,100103,B073D00BF8,住宿服务,宾馆酒店,四星级宾馆,
113.5561560397915,22.1955727195967,澳门励宫酒店大堂,友谊大马路与海港街交叉口东南80米,澳门特别行政区,澳门特别行政区,大堂区,,住宿服务;宾馆酒店;宾馆酒店,100100,B0JRAUTDA5,住宿服务,宾馆酒店,宾馆酒店,
113.54836887184626,22.192080736474626,澳门维景酒店大堂,北京街与上海街交叉口东北60米,澳门特别行政区,澳门特别行政区,大堂区,,住宿服务;宾馆酒店;四星级宾馆,100103,B0JRGAYP5F,住宿服务,宾馆酒店,四星级宾馆,
113.5491185393599,22.193851794704155,新竹公寓,"576-600 Avdo DrRodrigo Rodrigues,Macao",澳门特别行政区,澳门特别行政区,大堂区,,住宿服务;旅馆招待所;旅馆招待所|商务住宅;商务住宅相关;商务住宅相关,100200|120000,B0KDY1WR43,住宿服务,旅馆招待所,旅馆招待所|商务住宅,商务住宅相关
113.55806728277256,22.18990969375489,澳门莱斯酒店,孙逸仙大马路澳门渔人码头(东南角),澳门特别行政区,澳门特别行政区,大堂区,,住宿服务;宾馆酒店;三星级宾馆,100104,B073D00M70,住宿服务,宾馆酒店,三星级宾馆,
113.54783556914659,22.192446841523864,澳门新口岸智选假日酒店,罗理基博士大马路338-362B,澳门特别行政区,澳门特别行政区,大堂区,,住宿服务;宾馆酒店;宾馆酒店,100100,B0FFLNVGE4,住宿服务,宾馆酒店,宾馆酒店,
113.5479890281875,22.191032630321274,澳门帝濠酒店,澳门澳门半岛上海街51号,澳门特别行政区,澳门特别行政区,大堂区,,住宿服务;宾馆酒店;三星级宾馆,100104,B073D00BMI,住宿服务,宾馆酒店,三星级宾馆,
113.54891530884743,22.18991399781245,Dynasty Garden,"no.392-438 AvSir Anders Ljungstedt,Macao",澳门特别行政区,澳门特别行政区,大堂区,,住宿服务;住宿服务相关;住宿服务相关,100000,B0KDY1T22Z,住宿服务,住宿服务相关,住宿服务相关,
113.55432712173165,22.196467025853565,Macau Homestay's Feeling,马六甲街与高美士街交叉口东北60米,澳门特别行政区,澳门特别行政区,大堂区,,住宿服务;住宿服务相关;住宿服务相关,100000,B0KU77B5Q0,住宿服务,住宿服务相关,住宿服务相关,
113.54806730035827,22.189706303534788,星际酒店,友谊大马路星际娱乐场,澳门特别行政区,澳门特别行政区,大堂区,,住宿服务;宾馆酒店;五星级宾馆,100102,B073D00ARM,住宿服务,宾馆酒店,五星级宾馆,
113.5580001566685,22.18978854719848,澳门莱斯酒店大堂,冼星海大马路与马徳里街交叉口东400米,澳门特别行政区,澳门特别行政区,大堂区,,住宿服务;宾馆酒店;三星级宾馆,100104,B0JRAUP5X5,住宿服务,宾馆酒店,三星级宾馆,
113.55061138493039,22.188066487557858,??驿,宋玉生广场与波尔图街交叉口西北20米,澳门特别行政区,澳门特别行政区,大堂区,,住宿服务;住宿服务相关;住宿服务相关,100000,B0JK1CJZKW,住宿服务,住宿服务相关,住宿服务相关,
113.54742965912232,22.191325651105373,澳门假日酒店,澳门半岛新口岸北京街82-86号,澳门特别行政区,澳门特别行政区,大堂区,,住宿服务;宾馆酒店;四星级宾馆,100103,B073D00BMP,住宿服务,宾馆酒店,四星级宾馆,
113.5480330596378,22.192204135787787,Edificio Marina Plaza,"北京街183号,Edificio Marina Plaza",澳门特别行政区,澳门特别行政区,大堂区,,住宿服务;住宿服务相关;住宿服务相关,100000,B0K279UE9R,住宿服务,住宿服务相关,住宿服务相关,
113.54774435118168,22.192415653764975,澳门新口岸智选假日酒店大堂,上海街与罗理基博士大马路辅路交叉口东南20米,澳门特别行政区,澳门特别行政区,大堂区,,住宿服务;宾馆酒店;宾馆酒店,100100,B0JRPHJXBJ,住宿服务,宾馆酒店,宾馆酒店,
113.54857759120718,22.188587877305647,澳门凯旋门酒店,城市日大马路278号,澳门特别行政区,澳门特别行政区,大堂区,,住宿服务;宾馆酒店;五星级宾馆,100102,B073D0M35M,住宿服务,宾馆酒店,五星级宾馆,
113.54875094071105,22.189574563625,마카오에어비앤비住宿,宋玉生广场431号,澳门特别行政区,澳门特别行政区,大堂区,,住宿服务;住宿服务相关;住宿服务相关,100000,B0KKDPUQ4R,住宿服务,住宿服务相关,住宿服务相关,
113.54858715052883,22.195891513647492,东望洋酒店,澳门澳门半岛松山马路1-5号,澳门特别行政区,澳门特别行政区,望德堂区,,住宿服务;宾馆酒店;三星级宾馆,100104,B073D00DFN,住宿服务,宾馆酒店,三星级宾馆,
113.54800414067859,22.189832227256456,星际酒店大堂,仙德丽街与伦斯泰特大马路交叉口西南40米,澳门特别行政区,澳门特别行政区,大堂区,,住宿服务;宾馆酒店;五星级宾馆,100102,B0JRPCVQTX,住宿服务,宾馆酒店,五星级宾馆,
113.54747175742654,22.19138475436425,澳门假日酒店大堂,北京街与上海街交叉口西南60米,澳门特别行政区,澳门特别行政区,大堂区,,住宿服务;宾馆酒店;四星级宾馆,100103,B0JRYH36JT,住宿服务,宾馆酒店,四星级宾馆,
113.54765413506348,22.192388469074846,Holiday Inn Express Macau City Centre,"Avenida Do DrRodrigo Rodrigues NoS 338-362-B,Macao",澳门特别行政区,澳门特别行政区,大堂区,,住宿服务;宾馆酒店;宾馆酒店,100100,B0IRHRW6IV,住宿服务,宾馆酒店,宾馆酒店,
113.55477200700183,22.19752214456189,澳门回力酒店,友谊大马路回力球综合大楼,澳门特别行政区,澳门特别行政区,大堂区,,住宿服务;宾馆酒店;宾馆酒店,100100,B073D0M2Y3,住宿服务,宾馆酒店,宾馆酒店,
113.54694354140915,22.190291327115478,澳门总统酒店,"友谊大马路355号,近广州街",澳门特别行政区,澳门特别行政区,大堂区,,住宿服务;宾馆酒店;四星级宾馆,100103,B073D00BGB,住宿服务,宾馆酒店,四星级宾馆,
113.54839717460449,22.188374455544178,澳门凯旋门酒店大堂,城市日大马路与科英布拉街交叉口北60米,澳门特别行政区,澳门特别行政区,大堂区,,住宿服务;宾馆酒店;五星级宾馆,100102,B0JRGC0K1U,住宿服务,宾馆酒店,五星级宾馆,
113.55141531057227,22.186661435939314,The Carat双钻,孙逸仙大马路1561号,澳门特别行政区,澳门特别行政区,大堂区,,住宿服务;住宿服务相关;住宿服务相关,100000,B0K279XE4K,住宿服务,住宿服务相关,住宿服务相关,
113.54927735191353,22.186942605947138,澳门雅诗阁,新口岸皇朝区柏嘉街,澳门特别行政区,澳门特别行政区,大堂区,,住宿服务;住宿服务相关;住宿服务相关,100000,B0FFKC8O82,住宿服务,住宿服务相关,住宿服务相关,
113.54794010181007,22.18801844830492,万利酒店大堂,城市日大马路与科英布拉街交叉口西北60米,澳门特别行政区,澳门特别行政区,大堂区,,住宿服务;宾馆酒店;宾馆酒店,100100,B0JRGAUT69,住宿服务,宾馆酒店,宾馆酒店,
113.54606135952906,22.190471642377936,财神酒店,广州街63号,澳门特别行政区,澳门特别行政区,大堂区,,住宿服务;宾馆酒店;四星级宾馆,100103,B073D00BG8,住宿服务,宾馆酒店,四星级宾馆,
113.54722886774479,22.196109967834513,皇都酒店,得胜马路2-4号,澳门特别行政区,澳门特别行政区,望德堂区,,住宿服务;宾馆酒店;五星级宾馆,100102,B073D00B92,住宿服务,宾馆酒店,五星级宾馆,
113.54822026459742,22.19604886771613,得胜斜路,得胜斜路与东望洋斜巷交叉口西北20米,澳门特别行政区,澳门特别行政区,望德堂区,,住宿服务;宾馆酒店;宾馆酒店|商务住宅;商务住宅相关;商务住宅相关,100100|120000,B0KDY9Z9HZ,住宿服务,宾馆酒店,宾馆酒店|商务住宅,商务住宅相关
113.54574854664021,22.191042220424464,富豪酒店,罗理基博士大马路70-106号,澳门特别行政区,澳门特别行政区,大堂区,,住宿服务;宾馆酒店;四星级宾馆,100103,B073D00BT0,住宿服务,宾馆酒店,四星级宾馆,
113.54777571046125,22.18794610428211,万利酒店,城市日大马路与科英布拉街交叉口西80米,澳门特别行政区,澳门特别行政区,大堂区,,住宿服务;宾馆酒店;宾馆酒店,100100,B073D00LW7,住宿服务,宾馆酒店,宾馆酒店,
113.5493826125283,22.18673572850194,Ascott Macau,"339号RCidade de Braga,Macao",澳门特别行政区,澳门特别行政区,大堂区,,住宿服务;宾馆酒店;宾馆酒店,100100,B0IRHRW6IW,住宿服务,宾馆酒店,宾馆酒店,
113.54651162683038,22.18801665252053,永利澳门酒店,外港填海区仙德丽街(近友谊大马路葡京酒店对面),澳门特别行政区,澳门特别行政区,大堂区,,住宿服务;宾馆酒店;五星级宾馆,100102,B073D00BG0,住宿服务,宾馆酒店,五星级宾馆,
113.54711258301938,22.196134748856334,皇都酒店大堂,得胜马路与东望洋斜巷交叉口东北40米,澳门特别行政区,澳门特别行政区,望德堂区,,住宿服务;宾馆酒店;五星级宾馆,100102,B0JRYCBZ2A,住宿服务,宾馆酒店,五星级宾馆,
113.54563626061955,22.191142030290628,富豪酒店大堂,罗理基博士大马路与佛山街交叉口东40米,澳门特别行政区,澳门特别行政区,大堂区,,住宿服务;宾馆酒店;四星级宾馆,100103,B0JRGC3GLE,住宿服务,宾馆酒店,四星级宾馆,
113.55281969147143,22.198725242061194,Warm 2 bedroom 2 bathroom 1 hall,"Edificio Lun On7 Rdo Monte,China",澳门特别行政区,澳门特别行政区,望德堂区,,住宿服务;宾馆酒店;宾馆酒店,100100,B0KU773Q25,住宿服务,宾馆酒店,宾馆酒店,
113.54580067205265,22.191109349321707,Fortuna,罗理基博士大马路70号,澳门特别行政区,澳门特别行政区,大堂区,,住宿服务;宾馆酒店;宾馆酒店,100100,B0K2RAF0OY,住宿服务,宾馆酒店,宾馆酒店,
113.55290987507237,22.19897248628519,Romantic Double Room with Private Bath,"Edificio Lun On7 Rdo Monte,China",澳门特别行政区,澳门特别行政区,望德堂区,,住宿服务;宾馆酒店;宾馆酒店,100100,B0KU77D35W,住宿服务,宾馆酒店,宾馆酒店,
113.54790114269873,22.18589660274397,澳门美高梅酒店,"澳门外港新填海区孙逸仙大马路,近城市日大马路",澳门特别行政区,澳门特别行政区,大堂区,,住宿服务;宾馆酒店;五星级宾馆,100102,B0FFH887YL,住宿服务,宾馆酒店,五星级宾馆,
113.54611723365994,22.194633244739357,祥顺楼,"东望洋新街153-155号,Edificio Cheong Son",澳门特别行政区,澳门特别行政区,大堂区,,住宿服务;住宿服务相关;住宿服务相关,100000,B0KKGG4M74,住宿服务,住宿服务相关,住宿服务相关,
113.54789412466504,22.185914595734708,澳门美高梅金殿,外港新填海区孙逸仙大马路,澳门特别行政区,澳门特别行政区,大堂区,,住宿服务;宾馆酒店;五星级宾馆,100102,B073D00BFW,住宿服务,宾馆酒店,五星级宾馆,
113.5485165848944,22.186396966536396,澳门美丽居旅馆,澳门澳门半岛外港新填海区B区B2街,澳门特别行政区,澳门特别行政区,大堂区,,住宿服务;旅馆招待所;旅馆招待所,100200,B0FFHRKBGB,住宿服务,旅馆招待所,旅馆招待所,
113.54947007631672,22.198424078726994,广胜汇,得胜马路28B号,澳门特别行政区,澳门特别行政区,望德堂区,,住宿服务;住宿服务相关;住宿服务相关,100000,B0KKGG80YB,住宿服务,住宿服务相关,住宿服务相关,
113.54562304474275,22.19402303557531,Edf.Peak Garden(Bloco I),"Edificio Peak Garden(bloco I)243 RNova a Guia,Macao",澳门特别行政区,澳门特别行政区,大堂区,,住宿服务;住宿服务相关;住宿服务相关,100000,B0KDY1YELP,住宿服务,住宿服务相关,住宿服务相关,
113.54443733461547,22.18973208110534,葡京酒店,葡京路2-4号,澳门特别行政区,澳门特别行政区,大堂区,,住宿服务;宾馆酒店;五星级宾馆,100102,B073D00BG2,住宿服务,宾馆酒店,五星级宾馆,
113.54508289969937,22.190759772355786,金湾宾馆,贾罗布大马路与罗理基博士大马路交叉口东20米,澳门特别行政区,澳门特别行政区,大堂区,,住宿服务;住宿服务相关;住宿服务相关,100000,B0FFFY3NIO,住宿服务,住宿服务相关,住宿服务相关,
113.54456030217926,22.19515127559423,濠江精品宾馆,"邻近罗宪新街及水坑尾街,胡椒厨房澳门水坑尾店旁",澳门特别行政区,澳门特别行政区,大堂区,,住宿服务;住宿服务相关;住宿服务相关,100000,B0K35CMI73,住宿服务,住宿服务相关,住宿服务相关,
113.54380257699813,22.191930558520898,澳门铧龙酒店,澳门南湾大马路936-944号,澳门特别行政区,澳门特别行政区,大堂区,,住宿服务;宾馆酒店;宾馆酒店,100100,B0JUVOIO3E,住宿服务,宾馆酒店,宾馆酒店,
113.54809965294885,22.185372794715235,澳门美高梅金殿大堂,孙逸仙大马路与城市日大马路交叉口西120米,澳门特别行政区,澳门特别行政区,大堂区,,住宿服务;宾馆酒店;五星级宾馆,100102,B0JRAAI5KH,住宿服务,宾馆酒店,五星级宾馆,
113.54338958731178,22.190814295352215,澳门新葡京酒店,澳门半岛葡京路,澳门特别行政区,澳门特别行政区,大堂区,,住宿服务;宾馆酒店;五星级宾馆,100102,B073D00B8Y,住宿服务,宾馆酒店,五星级宾馆,
113.54607898462389,22.197064031989868,秋田发研舍,肥利喇亚美打大马路与若翰亚美打街交叉口东北80米,澳门特别行政区,澳门特别行政区,望德堂区,,住宿服务;住宿服务相关;住宿服务相关,100000,B0JK1CH15M,住宿服务,住宿服务相关,住宿服务相关,
113.5442609084581,22.189384592110052,葡京酒店大堂,殷皇子大马路与仙德丽街交叉口北40米,澳门特别行政区,澳门特别行政区,大堂区,,住宿服务;宾馆酒店;五星级宾馆,100102,B0JRA5OU4B,住宿服务,宾馆酒店,五星级宾馆,
113.54347783599025,22.190475358110415,澳门新葡京酒店大堂,葡京路与罗理基博士大马路交叉口西北40米,澳门特别行政区,澳门特别行政区,大堂区,,住宿服务;宾馆酒店;五星级宾馆,100102,B0JRYUDCTY,住宿服务,宾馆酒店,五星级宾馆,
113.54473974342552,22.195350714468958,祥辉楼,"水坑尾街326-328号,Edificio Cheong Fai",澳门特别行政区,澳门特别行政区,大堂区,,住宿服务;住宿服务相关;住宿服务相关,100000,B0KKGG58SO,住宿服务,住宿服务相关,住宿服务相关,
113.54762251837005,22.185143788841188,大宴会厅THE GRAND BALLROOM,孙逸仙大马路1101号,澳门特别行政区,澳门特别行政区,大堂区,,住宿服务;宾馆酒店;宾馆酒店,100100,B0K279AC02,住宿服务,宾馆酒店,宾馆酒店,
113.54383369535411,22.191321404543498,晶晶宾馆,南湾大马路998号,澳门特别行政区,澳门特别行政区,大堂区,,住宿服务;宾馆酒店;宾馆酒店,100100,B073D00LO3,住宿服务,宾馆酒店,宾馆酒店,
113.54718349743335,22.18444867901163,澳门文华东方酒店,澳门外港新填海区孙逸仙大马路,澳门特别行政区,澳门特别行政区,大堂区,,住宿服务;宾馆酒店;五星级宾馆,100102,B073D00LW5,住宿服务,宾馆酒店,五星级宾馆,
113.56028710117731,22.197741786934635,the pavillion shenzhen,"Largo do Terminal Maritimo,Macao",澳门特别行政区,澳门特别行政区,花地玛堂区,,住宿服务;宾馆酒店;宾馆酒店,100100,B0KU3YKSJT,住宿服务,宾馆酒店,宾馆酒店,
113.54671329360173,22.185315070202176,芬迪澳门壹号广场店,"Shop G11-12,G/F,One Central,澳门",澳门特别行政区,澳门特别行政区,大堂区,,购物服务;服装鞋帽皮具店;服装鞋帽皮具店|住宿服务;宾馆酒店;宾馆酒店,061100|100100,B0KUKLC27E,购物服务,服装鞋帽皮具店,服装鞋帽皮具店|住宿服务,宾馆酒店
113.54303357541804,22.192273071173158,澳门遇莲客栈,"约翰四世大马路8-10号,近南湾巷口",澳门特别行政区,澳门特别行政区,大堂区,,住宿服务;住宿服务相关;住宿服务相关,100000,B0FFH3S0CM,住宿服务,住宿服务相关,住宿服务相关,
113.54691278246328,22.18530846118114,澳门百达翡丽,波尔图街与城市日前地交叉口东南140米,澳门特别行政区,澳门特别行政区,大堂区,,住宿服务;宾馆酒店;宾馆酒店,100100,B0JK1CJZEW,住宿服务,宾馆酒店,宾馆酒店,
113.54269570120371,22.19223534366103,澳门家逸酒店,南湾巷4号,澳门特别行政区,澳门特别行政区,大堂区,,住宿服务;宾馆酒店;宾馆酒店,100100,B0FFLO3RTT,住宿服务,宾馆酒店,宾馆酒店,
113.5433394590543,22.190800185220507,Grand Lisboa Macau,葡京路,澳门特别行政区,澳门特别行政区,大堂区,,住宿服务;宾馆酒店;宾馆酒店,100100,B0IRHRWEBK,住宿服务,宾馆酒店,宾馆酒店,
113.54648774731349,22.185192579022246,The Waterside Macau,"沙格斯大马路Tower Six,One Central Residences",澳门特别行政区,澳门特别行政区,大堂区,,住宿服务;宾馆酒店;宾馆酒店,100100,B0KDY9VEJ2,住宿服务,宾馆酒店,宾馆酒店,
113.54718450203693,22.1844146685581,澳门文华东方酒店大堂,城市日前地与波尔图街交叉口南240米,澳门特别行政区,澳门特别行政区,大堂区,,住宿服务;宾馆酒店;五星级宾馆,100102,B0JRGC0JL9,住宿服务,宾馆酒店,五星级宾馆,
113.54805663570727,22.184017217141587,YOHO金银岛,孙逸仙大马路945号,澳门特别行政区,澳门特别行政区,大堂区,,住宿服务;住宿服务相关;住宿服务相关,100000,B0KKGGBMIT,住宿服务,住宿服务相关,住宿服务相关,
113.54304861497626,22.19226309928756,新南滨宾馆,约翰四世大马路10号3层,澳门特别行政区,澳门特别行政区,大堂区,,住宿服务;宾馆酒店;宾馆酒店,100100,B073D00AXW,住宿服务,宾馆酒店,宾馆酒店,
113.54982975670791,22.20095864170355,CooLiving Macau,"文第士街13号,Nantong Quarters",澳门特别行政区,澳门特别行政区,望德堂区,,住宿服务;住宿服务相关;住宿服务相关,100000,B0KKSP3830,住宿服务,住宿服务相关,住宿服务相关,
113.54291627767148,22.19217678923527,pensao lotus,约翰四世大马路与买那韶巷交叉口西北20米,澳门特别行政区,澳门特别行政区,大堂区,,住宿服务;宾馆酒店;宾馆酒店,100100,B0IRHRVR5M,住宿服务,宾馆酒店,宾馆酒店,
113.54697700100853,22.184337233131092,澳门文华东方酒店大堂酒廊,孙逸仙大马路路凼城澳门特别行政区,澳门特别行政区,澳门特别行政区,大堂区,,住宿服务;宾馆酒店;宾馆酒店|体育休闲服务;娱乐场所;酒吧,100100|080304,B073D0MEF4,住宿服务,宾馆酒店,宾馆酒店|体育休闲服务,娱乐场所
113.54364079961059,22.19763925521042,澳门假期酒店,镜湖马路,澳门特别行政区,澳门特别行政区,望德堂区,,住宿服务;宾馆酒店;宾馆酒店,100100,B0FFGCCFTB,住宿服务,宾馆酒店,宾馆酒店,
113.54283322295589,22.189646703832757,cross hotel osaka,苏亚利斯博士大马路与亚马喇前地交叉口西北20米,澳门特别行政区,澳门特别行政区,大堂区,,住宿服务;宾馆酒店;宾馆酒店,100100,B0FFI7OWVR,住宿服务,宾馆酒店,宾馆酒店,
113.54276621080764,22.187098640082827,YOHO金银岛酒店,亚马喇前地附近,澳门特别行政区,澳门特别行政区,大堂区,,住宿服务;宾馆酒店;宾馆酒店,100100,B0J1RMNSVW,住宿服务,宾馆酒店,宾馆酒店,
113.54250721462141,22.19216891982039,南苑宾馆,南湾巷3号,澳门特别行政区,澳门特别行政区,大堂区,,住宿服务;宾馆酒店;宾馆酒店,100100,B0FFJRRQNE,住宿服务,宾馆酒店,宾馆酒店,
113.54568884197616,22.199798214617466,澳门天丽宾馆,澳门半岛贾伯乐提督街77-A号1-4楼,澳门特别行政区,澳门特别行政区,望德堂区,,住宿服务;宾馆酒店;宾馆酒店,100100,B0FFF6YK1H,住宿服务,宾馆酒店,宾馆酒店,
113.54982070277633,22.201475806144156,右近橘次郎之家,"雅廉访大马路12号,Edificio Nga Nang Bloco Ii,右近橘次郎之家地下C座",澳门特别行政区,澳门特别行政区,望德堂区,,住宿服务;住宿服务相关;住宿服务相关,100000,B0FFH4ZWPF,住宿服务,住宿服务相关,住宿服务相关,
113.54639960741677,22.19972961204586,The Arch,罗德礼将军街与沙嘉都喇贾罢丽街交叉口东20米,澳门特别行政区,澳门特别行政区,望德堂区,,住宿服务;宾馆酒店;宾馆酒店,100100,B0KU59OP6H,住宿服务,宾馆酒店,宾馆酒店,
113.54240395143864,22.19207066490997,大利迎宾馆,"MacaoRdo CmteMata e Oliveira,12号,Edificio Wong Kam,20号",澳门特别行政区,澳门特别行政区,大堂区,,住宿服务;宾馆酒店;宾馆酒店,100100,B0KU59Q74N,住宿服务,宾馆酒店,宾馆酒店,
113.54217215994571,22.19498721271376,澳门镇兴宾馆,哪咤庙斜巷4-8号刘陈秀琼商业中心,澳门特别行政区,澳门特别行政区,大堂区,,住宿服务;宾馆酒店;宾馆酒店,100100,B0FFFEGLXB,住宿服务,宾馆酒店,宾馆酒店,
113.5414354719717,22.19103521496493,澳门新丽华酒店,约翰四世大马路58-62号,澳门特别行政区,澳门特别行政区,大堂区,,住宿服务;宾馆酒店;三星级宾馆,100104,B073D00BTM,住宿服务,宾馆酒店,三星级宾馆,
113.5422043622566,22.193130618914214,金利来别墅,南湾大马路715号永利大厦2层,澳门特别行政区,澳门特别行政区,大堂区,,住宿服务;旅馆招待所;旅馆招待所,100200,B073D0M2VY,住宿服务,旅馆招待所,旅馆招待所,
113.54250721462141,22.19216891982039,南苑宾馆,南湾巷3号,澳门特别行政区,澳门特别行政区,大堂区,,住宿服务;宾馆酒店;宾馆酒店,100100,B0FFJRRQNE,住宿服务,宾馆酒店,宾馆酒店,
113.54568884197616,22.199798214617466,澳门天丽宾馆,澳门半岛贾伯乐提督街77-A号1-4楼,澳门特别行政区,澳门特别行政区,望德堂区,,住宿服务;宾馆酒店;宾馆酒店,100100,B0FFF6YK1H,住宿服务,宾馆酒店,宾馆酒店,
113.54982070277633,22.201475806144156,右近橘次郎之家,"雅廉访大马路12号,Edificio Nga Nang Bloco Ii,右近橘次郎之家地下C座",澳门特别行政区,澳门特别行政区,望德堂区,,住宿服务;住宿服务相关;住宿服务相关,100000,B0FFH4ZWPF,住宿服务,住宿服务相关,住宿服务相关,
113.54639960741677,22.19972961204586,The Arch,罗德礼将军街与沙嘉都喇贾罢丽街交叉口东20米,澳门特别行政区,澳门特别行政区,望德堂区,,住宿服务;宾馆酒店;宾馆酒店,100100,B0KU59OP6H,住宿服务,宾馆酒店,宾馆酒店,
113.54240395143864,22.19207066490997,大利迎宾馆,"MacaoRdo CmteMata e Oliveira,12号,Edificio Wong Kam,20号",澳门特别行政区,澳门特别行政区,大堂区,,住宿服务;宾馆酒店;宾馆酒店,100100,B0KU59Q74N,住宿服务,宾馆酒店,宾馆酒店,
113.54217215994571,22.19498721271376,澳门镇兴宾馆,哪咤庙斜巷4-8号刘陈秀琼商业中心,澳门特别行政区,澳门特别行政区,大堂区,,住宿服务;宾馆酒店;宾馆酒店,100100,B0FFFEGLXB,住宿服务,宾馆酒店,宾馆酒店,
113.5414354719717,22.19103521496493,澳门新丽华酒店,约翰四世大马路58-62号,澳门特别行政区,澳门特别行政区,大堂区,,住宿服务;宾馆酒店;三星级宾馆,100104,B073D00BTM,住宿服务,宾馆酒店,三星级宾馆,
113.5422043622566,22.193130618914214,金利来别墅,南湾大马路715号永利大厦2层,澳门特别行政区,澳门特别行政区,大堂区,,住宿服务;旅馆招待所;旅馆招待所,100200,B073D0M2VY,住宿服务,旅馆招待所,旅馆招待所,
113.54214329487507,22.191673966427985,威利别墅,约翰四世大马路38号,澳门特别行政区,澳门特别行政区,大堂区,,住宿服务;宾馆酒店;宾馆酒店,100100,B073D00H1S,住宿服务,宾馆酒店,宾馆酒店,
113.54927842025958,22.201665858818938,尚寓,荷兰园正街109A号,澳门特别行政区,澳门特别行政区,望德堂区,,住宿服务;旅馆招待所;旅馆招待所,100200,B0FFM4F1WI,住宿服务,旅馆招待所,旅馆招待所,
113.5413841949603,22.19325890138362,澳门家亿宾馆,龙眼围5-7号,澳门特别行政区,澳门特别行政区,大堂区,,住宿服务;住宿服务相关;住宿服务相关,100000,B0FFKN24VK,住宿服务,住宿服务相关,住宿服务相关,
113.54192367945177,22.192289716913354,南龙宾馆,罗保博士街30号2-3层C,澳门特别行政区,澳门特别行政区,大堂区,,住宿服务;宾馆酒店;宾馆酒店,100100,B073D00AY1,住宿服务,宾馆酒店,宾馆酒店,
113.54177931726599,22.192013307695756,天天宾馆,罗保博士街与马统领街交叉口西南40米,澳门特别行政区,澳门特别行政区,大堂区,,住宿服务;宾馆酒店;宾馆酒店,100100,B0FFFPU7OQ,住宿服务,宾馆酒店,宾馆酒店,
113.55157267051518,22.202374319117002,Edf.Jade Garden,"38G,Edificio Jade Garden,Rde Silva Mendes,Macao",澳门特别行政区,澳门特别行政区,望德堂区,,住宿服务;住宿服务相关;住宿服务相关,100000,B0KDY9ZF3V,住宿服务,住宿服务相关,住宿服务相关,
113.54174899645682,22.19580459604657,多米精品酒店,史山斜巷12号码,澳门特别行政区,澳门特别行政区,大堂区,,住宿服务;宾馆酒店;宾馆酒店,100100,B0JRCY6334,住宿服务,宾馆酒店,宾馆酒店,
113.54152170354979,22.190978380862823,澳门新丽华酒店大堂,约翰四世大马路与苏亚利斯博士大马路交叉口北20米,澳门特别行政区,澳门特别行政区,大堂区,,住宿服务;宾馆酒店;三星级宾馆,100104,B0JRPUMXFH,住宿服务,宾馆酒店,三星级宾馆,
113.54232854730132,22.195330668754856,智选假日酒店,哪咤庙斜巷与大炮台下街交叉口东20米,澳门特别行政区,澳门特别行政区,大堂区,,住宿服务;宾馆酒店;宾馆酒店,100100,B0JD07T8UO,住宿服务,宾馆酒店,宾馆酒店,
113.54174522219819,22.192096264103466,明明宾馆,罗保博士街与马统领街交叉口西南40米,澳门特别行政区,澳门特别行政区,大堂区,,住宿服务;宾馆酒店;宾馆酒店,100100,B0FFH4ZWVL,住宿服务,宾馆酒店,宾馆酒店,
113.54365380807782,22.198031420993797,Hospitality,新胜街与贾伯乐提督圆形地交叉口东南20米,澳门特别行政区,澳门特别行政区,望德堂区,,住宿服务;宾馆酒店;宾馆酒店,100100,B0K2RAE5WZ,住宿服务,宾馆酒店,宾馆酒店,
113.54172918076446,22.192083224905748,Augusters,"24 Rdo DrPedro Jose Lobo,Macao",澳门特别行政区,澳门特别行政区,大堂区,,住宿服务;旅馆招待所;旅馆招待所,100200,B0KUUZLYCL,住宿服务,旅馆招待所,旅馆招待所,
113.54090309147686,22.190520873948024,英皇娱乐酒店,澳门半岛商业大马路288号,澳门特别行政区,澳门特别行政区,大堂区,,住宿服务;宾馆酒店;五星级宾馆,100102,B073D00BT4,住宿服务,宾馆酒店,五星级宾馆,
113.5414413530591,22.193150986426296,嘉华宾馆(大堂斜巷店),南湾大堂斜巷5号(全座)时代商业中心后面,澳门特别行政区,澳门特别行政区,大堂区,,住宿服务;宾馆酒店;宾馆酒店,100100,B073D00IHL,住宿服务,宾馆酒店,宾馆酒店,
113.54155670005376,22.192487998256798,华发宾馆,南湾大马路622号万胜大厦2层,澳门特别行政区,澳门特别行政区,大堂区,,住宿服务;宾馆酒店;宾馆酒店,100100,B073D0M6IJ,住宿服务,宾馆酒店,宾馆酒店,
113.5514333296003,22.202773208384336,玉珠公寓,美副将大马路7号,澳门特别行政区,澳门特别行政区,望德堂区,,住宿服务;旅馆招待所;旅馆招待所,100200,B073D00C5Q,住宿服务,旅馆招待所,旅馆招待所,
113.54155571244986,22.192251911518344,澳门八月者旅店,半岛罗保博士街24号金来大厦第4座4楼3J,澳门特别行政区,澳门特别行政区,大堂区,,住宿服务;旅馆招待所;旅馆招待所,100200,B073D0MP2X,住宿服务,旅馆招待所,旅馆招待所,
113.54365380807782,22.198031420993797,Hospitality,新胜街与贾伯乐提督圆形地交叉口东南20米,澳门特别行政区,澳门特别行政区,望德堂区,,住宿服务;宾馆酒店;宾馆酒店,100100,B0K2RAE5WZ,住宿服务,宾馆酒店,宾馆酒店,
113.54172918076446,22.192083224905748,Augusters,"24 Rdo DrPedro Jose Lobo,Macao",澳门特别行政区,澳门特别行政区,大堂区,,住宿服务;旅馆招待所;旅馆招待所,100200,B0KUUZLYCL,住宿服务,旅馆招待所,旅馆招待所,
113.54090309147686,22.190520873948024,英皇娱乐酒店,澳门半岛商业大马路288号,澳门特别行政区,澳门特别行政区,大堂区,,住宿服务;宾馆酒店;五星级宾馆,100102,B073D00BT4,住宿服务,宾馆酒店,五星级宾馆,
113.5414413530591,22.193150986426296,嘉华宾馆(大堂斜巷店),南湾大堂斜巷5号(全座)时代商业中心后面,澳门特别行政区,澳门特别行政区,大堂区,,住宿服务;宾馆酒店;宾馆酒店,100100,B073D00IHL,住宿服务,宾馆酒店,宾馆酒店,
113.54155670005376,22.192487998256798,华发宾馆,南湾大马路622号万胜大厦2层,澳门特别行政区,澳门特别行政区,大堂区,,住宿服务;宾馆酒店;宾馆酒店,100100,B073D0M6IJ,住宿服务,宾馆酒店,宾馆酒店,
113.5514333296003,22.202773208384336,玉珠公寓,美副将大马路7号,澳门特别行政区,澳门特别行政区,望德堂区,,住宿服务;旅馆招待所;旅馆招待所,100200,B073D00C5Q,住宿服务,旅馆招待所,旅馆招待所,
113.54155571244986,22.192251911518344,澳门八月者旅店,半岛罗保博士街24号金来大厦第4座4楼3J,澳门特别行政区,澳门特别行政区,大堂区,,住宿服务;旅馆招待所;旅馆招待所,100200,B073D0MP2X,住宿服务,旅馆招待所,旅馆招待所,
113.54144236004589,22.193082964270673,Billion Family Inn,大堂斜巷与美丽街交叉口西20米,澳门特别行政区,澳门特别行政区,大堂区,,住宿服务;宾馆酒店;宾馆酒店,100100,B0IRHRTVWL,住宿服务,宾馆酒店,宾馆酒店,
113.55125592431588,22.202809901733414,悦子公寓,"7A Avdo CelMesquita,Macao",澳门特别行政区,澳门特别行政区,望德堂区,,住宿服务;旅馆招待所;旅馆招待所,100200,B0KU59PJYJ,住宿服务,旅馆招待所,旅馆招待所,
113.54755128008564,22.20193865124887,澳门高士德别墅,高士德大马路11-D号高运大厦2层D,澳门特别行政区,澳门特别行政区,花王堂区,,住宿服务;旅馆招待所;旅馆招待所,100200,B073D00F49,住宿服务,旅馆招待所,旅馆招待所,
113.54390640823841,22.198769207160407,Aparente Mae an,"5GXV+GH2,Macao",澳门特别行政区,澳门特别行政区,花王堂区,,住宿服务;宾馆酒店;宾馆酒店,100100,B0KU19Q6ET,住宿服务,宾馆酒店,宾馆酒店,
113.54681947407443,22.2023233527363,澳门富华酒店,澳门澳门半岛俾利喇街98-102号,澳门特别行政区,澳门特别行政区,花王堂区,,住宿服务;宾馆酒店;三星级宾馆,100104,B073D00DXO,住宿服务,宾馆酒店,三星级宾馆,
113.55129801412556,22.20290301013441,胜利别墅,美副将大马路7-A,澳门特别行政区,澳门特别行政区,望德堂区,,住宿服务;旅馆招待所;旅馆招待所,100200,B073D00C5P,住宿服务,旅馆招待所,旅馆招待所,
113.54102432340217,22.191948651116874,澳门半岛,殷皇子大马路与罗保博士街交叉口西40米,澳门特别行政区,澳门特别行政区,大堂区,,住宿服务;宾馆酒店;宾馆酒店,100100,B0JULRPMCT,住宿服务,宾馆酒店,宾馆酒店,
113.54028031515705,22.19226213508222,京都酒店,南湾大马路493-501号,澳门特别行政区,澳门特别行政区,风顺堂区,,住宿服务;宾馆酒店;三星级宾馆,100104,B073D00CXJ,住宿服务,宾馆酒店,三星级宾馆,
113.54593537233998,22.201099166678976,澳门别墅酒店,澳门凼仔岛路52号,澳门特别行政区,澳门特别行政区,花王堂区,,住宿服务;宾馆酒店;宾馆酒店,100100,B0FFHQQA8Z,住宿服务,宾馆酒店,宾馆酒店,
113.5458692024515,22.201187064810302,珠海海洋王国度假酒店,澳门半岛横琴,澳门特别行政区,澳门特别行政区,花王堂区,,住宿服务;宾馆酒店;宾馆酒店,100100,B0FFFHVSAN,住宿服务,宾馆酒店,宾馆酒店,
113.54106342660371,22.191960740526007,澳门半岛·卓悦,殷皇子大马路与罗保博士街交叉口西北40米,澳门特别行政区,澳门特别行政区,大堂区,,住宿服务;宾馆酒店;宾馆酒店|商务住宅;商务住宅相关;商务住宅相关,100100|120000,B0JK1CIIY8,住宿服务,宾馆酒店,宾馆酒店|商务住宅,商务住宅相关
113.5407536999744,22.19041350919408,英皇娱乐酒店大堂,苏亚利斯博士大马路与约翰四世大马路交叉口西南80米,澳门特别行政区,澳门特别行政区,大堂区,,住宿服务;宾馆酒店;五星级宾馆,100102,B0JRPSD9MY,住宿服务,宾馆酒店,五星级宾馆,
113.54751919542242,22.20204862730659,高士德宾馆,高地乌街与高士德大马路交叉口南40米,澳门特别行政区,澳门特别行政区,花王堂区,,住宿服务;宾馆酒店;宾馆酒店,100100,B0JK1CJGPE,住宿服务,宾馆酒店,宾馆酒店,
113.54683150104029,22.20236239009112,澳门富华酒店大堂,俾利喇街与飞能便度街交叉口东北40米,澳门特别行政区,澳门特别行政区,花王堂区,,住宿服务;宾馆酒店;三星级宾馆,100104,B0JRY78CET,住宿服务,宾馆酒店,三星级宾馆,
113.54678041233089,22.201789088823492,Marissa macao,"Edificio Seng Ip,28 Rde Pedro Coutinho,Macao",澳门特别行政区,澳门特别行政区,花王堂区,,住宿服务;住宿服务相关;住宿服务相关,100000,B0KDY1RCDK,住宿服务,住宿服务相关,住宿服务相关,
113.54586218221532,22.201231066147642,Edf.Mei On,"76 Rde Francisco Xavier Pereira,Macao",澳门特别行政区,澳门特别行政区,花王堂区,,住宿服务;住宿服务相关;住宿服务相关,100000,B0KDY9ZMS2,住宿服务,住宿服务相关,住宿服务相关,
113.54608371370291,22.201514609144613,俾利𠶜街,俾利喇街,澳门特别行政区,澳门特别行政区,花王堂区,,住宿服务;住宿服务相关;住宿服务相关,100000,B0KKGG21PV,住宿服务,住宿服务相关,住宿服务相关,
113.54032744631536,22.192189212648298,京都酒店大堂,南湾大马路与傅礼士神父街交叉口北20米,澳门特别行政区,澳门特别行政区,风顺堂区,,住宿服务;宾馆酒店;三星级宾馆,100104,B0JRAUQMOY,住宿服务,宾馆酒店,三星级宾馆,
113.54608371370291,22.201514609144613,俾利𠶜街,俾利喇街,澳门特别行政区,澳门特别行政区,花王堂区,,住宿服务;住宿服务相关;住宿服务相关,100000,B0KKGG21PV,住宿服务,住宿服务相关,住宿服务相关,
113.54032744631536,22.192189212648298,京都酒店大堂,南湾大马路与傅礼士神父街交叉口北20米,澳门特别行政区,澳门特别行政区,风顺堂区,,住宿服务;宾馆酒店;三星级宾馆,100104,B0JRAUQMOY,住宿服务,宾馆酒店,三星级宾馆,
113.54114842196073,22.195586220073913,澳门驿站Macau Relay Station,澳门刀里(升发围)4号德兴大厦地下AB座,澳门特别行政区,澳门特别行政区,花王堂区,,住宿服务;住宿服务相关;住宿服务相关,100000,B0J3HSBZXR,住宿服务,住宿服务相关,住宿服务相关,
113.54395145358599,22.199867687583378,Avenida Olympica,"Chuang Fu court,Ka Yin Court tower 3,635 avenida olimpica,澳门",澳门特别行政区,澳门特别行政区,花王堂区,,住宿服务;住宿服务相关;住宿服务相关,100000,B0K279635O,住宿服务,住宿服务相关,住宿服务相关,
113.53973182010441,22.192530018719914,澳门家颖宾馆,龙嵩正街4A号,澳门特别行政区,澳门特别行政区,风顺堂区,,住宿服务;宾馆酒店;宾馆酒店,100100,B0G255UPNU,住宿服务,宾馆酒店,宾馆酒店,
113.54099403190514,22.195266770704666,辉锝大厦,草地围5号,澳门特别行政区,澳门特别行政区,大堂区,,住宿服务;住宿服务相关;住宿服务相关,100000,B0K2796IC4,住宿服务,住宿服务相关,住宿服务相关,
113.54491480244012,22.20137519937047,南宁大厦(亚利鸦架街),亚利鸦架街38号,澳门特别行政区,澳门特别行政区,花王堂区,,商务住宅;楼宇;商务写字楼|住宿服务;宾馆酒店;宾馆酒店,120201|100100,B073D0M4UD,商务住宅,楼宇,商务写字楼|住宿服务,宾馆酒店
113.56509677074082,22.196731858184844,Mcity Internet Cafe,"Avenida da Amizade no.1137,La Oceania N,China",澳门特别行政区,澳门特别行政区,花地玛堂区,,住宿服务;宾馆酒店;宾馆酒店,100100,B0KUORTIUL,住宿服务,宾馆酒店,宾馆酒店,
113.54104814982607,22.195676034038165,宜尚酒店,西河街道嘉福大厦5楼,澳门特别行政区,澳门特别行政区,花王堂区,,住宿服务;宾馆酒店;宾馆酒店,100100,B0K6UKOO1Q,住宿服务,宾馆酒店,宾馆酒店,
113.5447504179151,22.200899696699476,My home,"Andar A,Rua de Sacadura Cabral,No.76,EdfVang Cheong,1,Macao",澳门特别行政区,澳门特别行政区,花王堂区,,住宿服务;住宿服务相关;住宿服务相关,100000,B0KU59L2Q5,住宿服务,住宿服务相关,住宿服务相关,
113.54405969008181,22.200495132494286,马可菠萝酒店,亚丰素雅布基街与连胜马路交叉口南20米,澳门特别行政区,澳门特别行政区,花王堂区,,住宿服务;宾馆酒店;宾馆酒店,100100,B0FFGBITSI,住宿服务,宾馆酒店,宾馆酒店,
113.54879617420659,22.203344534278614,崔宅,雅廉访大马路50号,澳门特别行政区,澳门特别行政区,花王堂区,,住宿服务;住宿服务相关;住宿服务相关,100000,B0KKAP8YBJ,住宿服务,住宿服务相关,住宿服务相关,
113.54335992720105,22.200001501013617,新生代青年文化会,镜湖马路与连胜马路交叉口东南20米,澳门特别行政区,澳门特别行政区,花王堂区,,住宿服务;住宿服务相关;住宿服务相关,100000,B0FFIGTDN5,住宿服务,住宿服务相关,住宿服务相关,
113.54538793933443,22.202181443138194,茶客栈,罗利老马路与亚利鸦架街交叉口西北20米,澳门特别行政区,澳门特别行政区,花王堂区,,住宿服务;旅馆招待所;旅馆招待所,100200,B0FFG9EL9I,住宿服务,旅馆招待所,旅馆招待所,
113.54599442594196,22.202561796834335,金门大厦,飞能便度街26号,澳门特别行政区,澳门特别行政区,花王堂区,,住宿服务;住宿服务相关;住宿服务相关,100000,B0KKSP3FQI,住宿服务,住宿服务相关,住宿服务相关,
113.5397648446934,22.19354745602645,Senado Square,"Largo do Senado,Macao",澳门特别行政区,澳门特别行政区,大堂区,,住宿服务;宾馆酒店;宾馆酒店|公司企业;公司;公司,100100|170200,B0K1VRKEIL,住宿服务,宾馆酒店,宾馆酒店|公司企业,公司
113.53915013408718,22.194218325698667,新中央酒店,亚美打利庇卢大马路264-270号,澳门特别行政区,澳门特别行政区,大堂区,,住宿服务;宾馆酒店;宾馆酒店,100100,B073D00JRS,住宿服务,宾馆酒店,宾馆酒店,
113.54515334940929,22.202210977706873,新乐大厦七贤小食,罗利老马路no.25号25A,澳门特别行政区,澳门特别行政区,花王堂区,,住宿服务;住宿服务相关;住宿服务相关,100000,B0KKGG8GCA,住宿服务,住宿服务相关,住宿服务相关,
113.54058484227342,22.19680842448961,Kerjaanku,大三巴右街与大三巴巷交叉口西北20米,澳门特别行政区,澳门特别行政区,花王堂区,,住宿服务;住宿服务相关;住宿服务相关,100000,B0KRNZCQUE,住宿服务,住宿服务相关,住宿服务相关,
113.53980376762358,22.1964135629172,澳门莲居宾馆,澳门特别行政区花王堂区关前正街32及36号,澳门特别行政区,澳门特别行政区,花王堂区,,住宿服务;宾馆酒店;宾馆酒店,100100,B0JBN12FS6,住宿服务,宾馆酒店,宾馆酒店,
113.53927034259729,22.1960842587043,澳门家欣宾馆(庇山耶街店),庇山耶街11号-13号及陈家里2号,澳门特别行政区,澳门特别行政区,大堂区,,住宿服务;宾馆酒店;宾馆酒店,100100,B0JAXM2FVK,住宿服务,宾馆酒店,宾馆酒店,
113.53935988006141,22.191459807055214,1home一家,"南湾大马路371号,Keng Ou Edf,23楼",澳门特别行政区,澳门特别行政区,风顺堂区,,住宿服务;住宿服务相关;住宿服务相关,100000,B0KA2CD6KU,住宿服务,住宿服务相关,住宿服务相关,
113.54049959212026,22.197154360152307,恋爱七号旅馆Love Lane 7 Inn,恋爱巷与花王堂街交叉口东北20米,澳门特别行政区,澳门特别行政区,花王堂区,,住宿服务;住宿服务相关;住宿服务相关,100000,B0FFI7JBHW,住宿服务,住宿服务相关,住宿服务相关,
113.54121240410534,22.198538404757205,唐庭宾馆,大庆路938号志明楼,澳门特别行政区,澳门特别行政区,花王堂区,,住宿服务;宾馆酒店;宾馆酒店,100100,B0K67N1S18,住宿服务,宾馆酒店,宾馆酒店,
113.54045647153698,22.197234293826256,恋爱七号旅馆,恋爱巷7号,澳门特别行政区,澳门特别行政区,花王堂区,,住宿服务;旅馆招待所;旅馆招待所,100200,B0FFJ9J3HM,住宿服务,旅馆招待所,旅馆招待所,
113.5397648446934,22.19354745602645,Senado Square,"Largo do Senado,Macao",澳门特别行政区,澳门特别行政区,大堂区,,住宿服务;宾馆酒店;宾馆酒店|公司企业;公司;公司,100100|170200,B0K1VRKEIL,住宿服务,宾馆酒店,宾馆酒店|公司企业,公司
113.53915013408718,22.194218325698667,新中央酒店,亚美打利庇卢大马路264-270号,澳门特别行政区,澳门特别行政区,大堂区,,住宿服务;宾馆酒店;宾馆酒店,100100,B073D00JRS,住宿服务,宾馆酒店,宾馆酒店,
113.54515334940929,22.202210977706873,新乐大厦七贤小食,罗利老马路no.25号25A,澳门特别行政区,澳门特别行政区,花王堂区,,住宿服务;住宿服务相关;住宿服务相关,100000,B0KKGG8GCA,住宿服务,住宿服务相关,住宿服务相关,
113.54058484227342,22.19680842448961,Kerjaanku,大三巴右街与大三巴巷交叉口西北20米,澳门特别行政区,澳门特别行政区,花王堂区,,住宿服务;住宿服务相关;住宿服务相关,100000,B0KRNZCQUE,住宿服务,住宿服务相关,住宿服务相关,
113.53980376762358,22.1964135629172,澳门莲居宾馆,澳门特别行政区花王堂区关前正街32及36号,澳门特别行政区,澳门特别行政区,花王堂区,,住宿服务;宾馆酒店;宾馆酒店,100100,B0JBN12FS6,住宿服务,宾馆酒店,宾馆酒店,
113.53927034259729,22.1960842587043,澳门家欣宾馆(庇山耶街店),庇山耶街11号-13号及陈家里2号,澳门特别行政区,澳门特别行政区,大堂区,,住宿服务;宾馆酒店;宾馆酒店,100100,B0JAXM2FVK,住宿服务,宾馆酒店,宾馆酒店,
113.53935988006141,22.191459807055214,1home一家,"南湾大马路371号,Keng Ou Edf,23楼",澳门特别行政区,澳门特别行政区,风顺堂区,,住宿服务;住宿服务相关;住宿服务相关,100000,B0KA2CD6KU,住宿服务,住宿服务相关,住宿服务相关,
113.54049959212026,22.197154360152307,恋爱七号旅馆Love Lane 7 Inn,恋爱巷与花王堂街交叉口东北20米,澳门特别行政区,澳门特别行政区,花王堂区,,住宿服务;住宿服务相关;住宿服务相关,100000,B0FFI7JBHW,住宿服务,住宿服务相关,住宿服务相关,
113.54121240410534,22.198538404757205,唐庭宾馆,大庆路938号志明楼,澳门特别行政区,澳门特别行政区,花王堂区,,住宿服务;宾馆酒店;宾馆酒店,100100,B0K67N1S18,住宿服务,宾馆酒店,宾馆酒店,
113.54045647153698,22.197234293826256,恋爱七号旅馆,恋爱巷7号,澳门特别行政区,澳门特别行政区,花王堂区,,住宿服务;旅馆招待所;旅馆招待所,100200,B0FFJ9J3HM,住宿服务,旅馆招待所,旅馆招待所,
113.53884125889692,22.194725813640797,澳门富都宾馆,澳门半岛澳门新马路平线里2号,澳门特别行政区,澳门特别行政区,大堂区,,住宿服务;宾馆酒店;宾馆酒店,100100,B0FFH52VRX,住宿服务,宾馆酒店,宾馆酒店,
113.53973457597525,22.196486435291067,莲居House of Lotus,关前正街,澳门特别行政区,澳门特别行政区,花王堂区,,住宿服务;宾馆酒店;宾馆酒店,100100,B0K2796AT3,住宿服务,宾馆酒店,宾馆酒店,
113.54098176733278,22.198915036265625,安记大厦,罗白沙街19-21号富群楼,澳门特别行政区,澳门特别行政区,花王堂区,,住宿服务;住宿服务相关;住宿服务相关,100000,B0KKGG7LMZ,住宿服务,住宿服务相关,住宿服务相关,
113.5445658360276,22.202709951886284,窝蜂渡船店,光复街与墨山巷交叉口西北40米,澳门特别行政区,澳门特别行政区,花王堂区,,餐饮服务;中餐厅;中餐厅|住宿服务;住宿服务相关;住宿服务相关,050100|100000,B0JK1CEZ2O,餐饮服务,中餐厅,中餐厅|住宿服务,住宿服务相关
113.53890733678902,22.196340536346,澳门家欣宾馆(草堆街店),草堆街46-50号·手肘里1号,澳门特别行政区,澳门特别行政区,大堂区,,住宿服务;宾馆酒店;宾馆酒店,100100,B0J32SBD8Y,住宿服务,宾馆酒店,宾馆酒店,
113.54812949010731,22.204822774777323,Fu Hong Garden,"Fu Hong Garden,Keng I Garden,11布巷澳门",澳门特别行政区,澳门特别行政区,花王堂区,,住宿服务;住宿服务相关;住宿服务相关,100000,B0FFHWRIHK,住宿服务,住宿服务相关,住宿服务相关,
113.5387329625521,22.194726570200025,澳门富都宾馆大堂,亚美打利庇卢大马路与营地大街交叉口北60米,澳门特别行政区,澳门特别行政区,大堂区,,住宿服务;宾馆酒店;宾馆酒店,100100,B0JRYHCBPO,住宿服务,宾馆酒店,宾馆酒店,
113.54698973429737,22.204781544367115,新金门宾馆,雅廉访大马路76号金门大厦,澳门特别行政区,澳门特别行政区,花王堂区,,住宿服务;宾馆酒店;宾馆酒店,100100,B073D00DWP,住宿服务,宾馆酒店,宾馆酒店,
113.54063881835799,22.19945447752805,沙梨头大厦,沙梨头街与凉水街交叉口西南20米,澳门特别行政区,澳门特别行政区,花王堂区,,住宿服务;住宿服务相关;住宿服务相关,100000,B0K27958K3,住宿服务,住宿服务相关,住宿服务相关,
113.54810541527644,22.205091821861835,忠贤阁,"永安息巷9号,Edificio Chong In Court",澳门特别行政区,澳门特别行政区,花王堂区,,住宿服务;住宿服务相关;住宿服务相关,100000,B0K279Y0MU,住宿服务,住宿服务相关,住宿服务相关,
113.53742633098189,22.19513474529698,澳门澳莱大三元酒店,白眼塘横街(福隆下街)43-45号,澳门特别行政区,澳门特别行政区,风顺堂区,,住宿服务;宾馆酒店;三星级宾馆|餐饮服务;中餐厅;中餐厅,100104|050100,B073D00D8D,住宿服务,宾馆酒店,三星级宾馆|餐饮服务,中餐厅
113.53769418974196,22.193326713648457,红窗门街,红窗门街,澳门特别行政区,澳门特别行政区,风顺堂区,,住宿服务;住宿服务相关;住宿服务相关,100000,B0JUFDOZ60,住宿服务,住宿服务相关,住宿服务相关,
113.53884413460332,22.196803558522127,Check mate,玫瑰里Edificio Si Leong,澳门特别行政区,澳门特别行政区,花王堂区,,住宿服务;住宿服务相关;住宿服务相关,100000,B0K2797C62,住宿服务,住宿服务相关,住宿服务相关,
113.53757571324309,22.195650271028107,新东方商务宾馆(南座),亚美打利庇卢大马路(新马路)488号新东方商务宾馆南座,澳门特别行政区,澳门特别行政区,大堂区,,住宿服务;宾馆酒店;宾馆酒店,100100,B0FFIR2PVX,住宿服务,宾馆酒店,宾馆酒店,
113.53738624079512,22.194799533931388,澳门高华酒店,福隆新街71号3楼,澳门特别行政区,澳门特别行政区,风顺堂区,,住宿服务;宾馆酒店;宾馆酒店,100100,B073D0M4VU,住宿服务,宾馆酒店,宾馆酒店,
113.55183486793302,22.14547153110386,澳门百老汇酒店,",澳门路氹城莲花海滨大马路",澳门特别行政区,澳门特别行政区,路氹填海区,,住宿服务;住宿服务相关;住宿服务相关,100000,B0FFG6YHY1,住宿服务,住宿服务相关,住宿服务相关,
113.55419303938558,22.1458397693949,Fengyu International Apartment,莲花海滨大马路与西堤圆形地交叉口东北300米,澳门特别行政区,澳门特别行政区,路氹填海区,,住宿服务;宾馆酒店;宾馆酒店,100100,B0KDY9RJU5,住宿服务,宾馆酒店,宾馆酒店,
113.55491756124707,22.146285158613928,澳门丽思卡尔顿酒店,路氹城大马路与莲花海滨大马路交界,澳门特别行政区,澳门特别行政区,路氹填海区,,住宿服务;宾馆酒店;宾馆酒店,100100,B0FFFYHAP9,住宿服务,宾馆酒店,宾馆酒店,
113.55656105276066,22.145386476171932,澳门安达仕酒店,莲花海滨大马路e1010铺,澳门特别行政区,澳门特别行政区,路氹填海区,,住宿服务;宾馆酒店;宾馆酒店,100100,B0JUYDMOKC,住宿服务,宾馆酒店,宾馆酒店,
113.5551550480901,22.146545654620144,澳门JW万豪酒店(望德圣母湾大马路),澳门路凼城澳门银河综合度假城,澳门特别行政区,澳门特别行政区,路氹填海区,,住宿服务;宾馆酒店;五星级宾馆,100102,B0FFGHG8X5,住宿服务,宾馆酒店,五星级宾馆,
113.55490152768922,22.146277128822344,澳门丽思卡尔顿酒店大堂,莲花海滨大马路与西堤圆形地交叉口东北380米,澳门特别行政区,澳门特别行政区,路氹填海区,,住宿服务;宾馆酒店;宾馆酒店,100100,B0JRPSAXGI,住宿服务,宾馆酒店,宾馆酒店,
113.5588939742025,22.141545554645205,澳门新濠影汇W酒店,中国澳门路氹城大马路,澳门特别行政区,澳门特别行政区,路氹填海区,,住宿服务;宾馆酒店;宾馆酒店,100100,B0IKTSDG7P,住宿服务,宾馆酒店,宾馆酒店,
113.55877176210907,22.14111519966547,新濠影汇-映星汇,路氹连贯公路,澳门特别行政区,澳门特别行政区,路氹填海区,,住宿服务;宾馆酒店;宾馆酒店,100100,B0JAUDRFY8,住宿服务,宾馆酒店,宾馆酒店,
113.55497166123419,22.146520341318812,The Ritz-Carlton Macau,莲花海滨大马路与西堤圆形地交叉口东北420米,澳门特别行政区,澳门特别行政区,路氹填海区,,住宿服务;宾馆酒店;宾馆酒店,100100,B0IRHRU3EB,住宿服务,宾馆酒店,宾馆酒店,
113.55189091328288,22.14674713545917,Broadway Macau,"AvMarginal Flor de Lotus,Macao",澳门特别行政区,澳门特别行政区,路氹填海区,,住宿服务;宾馆酒店;宾馆酒店,100100,B0IRHRW6IU,住宿服务,宾馆酒店,宾馆酒店,
113.55555688755044,22.146653357029333,澳门JW万豪酒店望德圣母湾大马路大堂,新城大马路与望德圣母湾大马路交叉口西南440米,澳门特别行政区,澳门特别行政区,路氹填海区,,住宿服务;宾馆酒店;五星级宾馆,100102,B0JRYZ35LZ,住宿服务,宾馆酒店,五星级宾馆,
113.55117924635636,22.147638210867107,Star Prestige,"4HX2+3F3,Macao",澳门特别行政区,澳门特别行政区,路氹填海区,,住宿服务;住宿服务相关;住宿服务相关,100000,B0K1VRTE57,住宿服务,住宿服务相关,住宿服务相关,
113.55282489166994,22.14839242952551,澳门悦榕SPA,"4HX3+944,Macao",澳门特别行政区,澳门特别行政区,路氹填海区,,住宿服务;宾馆酒店;宾馆酒店,100100,B0KDY9U4I8,住宿服务,宾馆酒店,宾馆酒店,
113.55243600268388,22.148805911508962,澳门悦榕庄,银河度假城路凼城莲花海滨大马路,澳门特别行政区,澳门特别行政区,路氹填海区,,住宿服务;宾馆酒店;五星级宾馆,100102,B073D0M3IB,住宿服务,宾馆酒店,五星级宾馆,
113.5536867406604,22.149042172810354,澳门银河酒店,澳门银河综合度假城,澳门特别行政区,澳门特别行政区,路氹填海区,,住宿服务;宾馆酒店;五星级宾馆,100102,B073D0M3I9,住宿服务,宾馆酒店,五星级宾馆,
113.5511501596455,22.147961285672494,Yinxin Holiday Apartment,望德圣母湾大马路与学院路交叉口西南440米,澳门特别行政区,澳门特别行政区,路氹填海区,,住宿服务;宾馆酒店;宾馆酒店,100100,B0KDY1Y77Q,住宿服务,宾馆酒店,宾馆酒店,
113.55227662344038,22.149182779042707,澳门大仓酒店,澳门银河综合度假城,澳门特别行政区,澳门特别行政区,路氹填海区,,住宿服务;宾馆酒店;五星级宾馆,100102,B073D0M3IA,住宿服务,宾馆酒店,五星级宾馆,
113.55421690165284,22.148828989336202,澳门银河莱佛士Raffles At Galaxy Macau,澳门银河综合度假城澳门路氹城,澳门特别行政区,澳门特别行政区,路氹填海区,,住宿服务;宾馆酒店;宾馆酒店,100100,B0JUYHLUBR,住宿服务,宾馆酒店,宾馆酒店,
113.56060117079842,22.142786544039737,御匾峰酒店,路凼城大马路与路凼连贯公路交叉口西240米,澳门特别行政区,澳门特别行政区,路氹填海区,,住宿服务;宾馆酒店;宾馆酒店,100100,B0I3L5YSPU,住宿服务,宾馆酒店,宾馆酒店,
113.55279580157588,22.148799539088007,Banyan Tree Macau,"AvMarginal Flor de Lotus,Macao",澳门特别行政区,澳门特别行政区,路氹填海区,,住宿服务;宾馆酒店;宾馆酒店,100100,B0IRHRQAIG,住宿服务,宾馆酒店,宾馆酒店,
113.55019990966757,22.149015965171966,英伦游艇会酒店,氹仔莲花海滨大马路,澳门特别行政区,澳门特别行政区,路氹填海区,,住宿服务;住宿服务相关;住宿服务相关,100000,B0J6LYS6UI,住宿服务,住宿服务相关,住宿服务相关,
113.55248811980606,22.14878799604161,澳门悦榕庄大堂,望德圣母湾大马路与学院路交叉口南320米,澳门特别行政区,澳门特别行政区,路氹填海区,,住宿服务;宾馆酒店;五星级宾馆,100102,B0JRYZD51O,住宿服务,宾馆酒店,五星级宾馆,
113.56154304394506,22.140875106199047,新濠影汇,路凼连贯公路,澳门特别行政区,澳门特别行政区,路氹填海区,,住宿服务;宾馆酒店;五星级宾馆,100102,B0FFGBDY91,住宿服务,宾馆酒店,五星级宾馆,
113.56049389801419,22.14390583581347,御匾会(澳门巴黎人购物中心),路凼城大马路与路凼连贯公路交叉口西北200米澳门巴黎人购物中心L3层,澳门特别行政区,澳门特别行政区,路氹填海区,,住宿服务;宾馆酒店;宾馆酒店,100100,B0K2XLBE7R,住宿服务,宾馆酒店,宾馆酒店,
113.56167912151939,22.14360338113529,澳门巴黎人,"路氹填海区澳门路凼金光大道连贯公路,近路凼城大马路",澳门特别行政区,澳门特别行政区,路氹填海区,,住宿服务;宾馆酒店;宾馆酒店,100100,B0FFGTH885,住宿服务,宾馆酒店,宾馆酒店,
113.55072510835426,22.149212005961076,君乐皇府公寓式酒店,黄牛P图新增百老汇旁,澳门特别行政区,澳门特别行政区,路氹填海区,,住宿服务;住宿服务相关;住宿服务相关,100000,B0JRM6LO6X,住宿服务,住宿服务相关,住宿服务相关,
113.5534412017587,22.149097773881465,espa at the ritz-carlton macau,"Macao,3F The Ritz-Carlton",澳门特别行政区,澳门特别行政区,路氹填海区,,住宿服务;宾馆酒店;宾馆酒店,100100,B0KU9K035S,住宿服务,宾馆酒店,宾馆酒店,
113.55226459417027,22.14922077275536,澳门大仓酒店大堂,望德圣母湾大马路与学院路交叉口南280米,澳门特别行政区,澳门特别行政区,路氹填海区,,住宿服务;宾馆酒店;五星级宾馆,100102,B0JRGH024V,住宿服务,宾馆酒店,五星级宾馆,
113.55059377798428,22.149662943238095,澳门皇庭海景酒店,氹仔南部路填海区莲花海滨路,澳门特别行政区,澳门特别行政区,路氹填海区,,住宿服务;宾馆酒店;四星级宾馆,100103,B073D00IIL,住宿服务,宾馆酒店,四星级宾馆,
113.55226754370214,22.1501221321178,澳门银河酒店大堂,学院路与望德圣母湾大马路交叉口西南180米,澳门特别行政区,澳门特别行政区,路氹填海区,,住宿服务;宾馆酒店;五星级宾馆,100102,B0JRGAPW2Y,住宿服务,宾馆酒店,五星级宾馆,
113.55357446648178,22.149511165103497,澳门银河酒店影舞银光,排角路与巴波沙总督街交叉口西南240米,澳门特别行政区,澳门特别行政区,路氹填海区,,住宿服务;住宿服务相关;住宿服务相关,100000,B0FFIPK3GT,住宿服务,住宿服务相关,住宿服务相关,
113.55056073335756,22.14916668766822,君乐皇府公寓式酒店高级公寓式客房(城景),莲花海滨大马路与奥林匹克游泳馆圆形地交叉口南320米,澳门特别行政区,澳门特别行政区,路氹填海区,,住宿服务;宾馆酒店;宾馆酒店,100100,B0JUFAMLA5,住宿服务,宾馆酒店,宾馆酒店,
113.56190469097191,22.141119702281408,澳门新濠影汇酒店大堂,路凼连贯公路与路凼城大马路交叉口西南220米,澳门特别行政区,澳门特别行政区,路氹填海区,,住宿服务;宾馆酒店;五星级宾馆,100102,B0JRAANI39,住宿服务,宾馆酒店,五星级宾馆,
113.5506098125888,22.14969898673588,澳门皇庭海景酒店,氹仔南部路填海区莲花海滨路,澳门特别行政区,澳门特别行政区,路氹填海区,,住宿服务;住宿服务相关;住宿服务相关,100000,B0KUCUQPFK,住宿服务,住宿服务相关,住宿服务相关,
113.56178018284893,22.145562297360875,澳门四季酒店,望德圣母湾大马路以南地段1第7区,澳门特别行政区,澳门特别行政区,路氹填海区,,住宿服务;宾馆酒店;五星级宾馆,100102,B073D00JLI,住宿服务,宾馆酒店,五星级宾馆,
113.55071505702911,22.149658162998826,澳门皇庭海景酒店大堂,莲花海滨大马路与奥林匹克游泳馆圆形地交叉口南280米,澳门特别行政区,澳门特别行政区,路氹填海区,,住宿服务;宾馆酒店;四星级宾馆,100103,B0JRYZD4TL,住宿服务,宾馆酒店,四星级宾馆,
113.56199187667137,22.140694651899658,新濠影汇-巨星汇,路凼连贯公路,澳门特别行政区,澳门特别行政区,路氹填海区,,住宿服务;宾馆酒店;宾馆酒店,100100,B0FFL4ZKDJ,住宿服务,宾馆酒店,宾馆酒店,
113.55350326970691,22.15016630034534,点睛品澳门澳门银河综合渡假城店,"Macao,MO澳门路氹(澳门银河)综合渡假城第一期G016号",澳门特别行政区,澳门特别行政区,路氹填海区,,住宿服务;宾馆酒店;宾馆酒店,100100,B0KDY1URM3,住宿服务,宾馆酒店,宾馆酒店,
113.55055167398741,22.149774910150047,Pousada Marina Infante,"4HX2+W63,Avenida Marginal Flor de Lotus,Macao",澳门特别行政区,澳门特别行政区,路氹填海区,,住宿服务;宾馆酒店;宾馆酒店,100100,B0IRHRT9DM,住宿服务,宾馆酒店,宾馆酒店,
113.56191843552425,22.14555948605545,澳门四季酒店大堂,路氹城大马路与路氹连贯公路交叉口西北360米,澳门特别行政区,澳门特别行政区,路氹填海区,,住宿服务;宾馆酒店;五星级宾馆,100102,B0JRGC3OAW,住宿服务,宾馆酒店,五星级宾馆,
113.55439920668819,22.15020183592815,Zhuhai Xiyangyang Apartment,"101,Building 1,Yinxin Garden,China",澳门特别行政区,澳门特别行政区,路氹填海区,,住宿服务;宾馆酒店;宾馆酒店|住宿服务;旅馆招待所;旅馆招待所,100100|100200,B0KDY9SGSK,住宿服务,宾馆酒店,宾馆酒店|住宿服务,旅馆招待所
113.56245364186954,22.14181072388205,Celebrity Tower,"MacaoEstrdo Istmo,Celebrity Tower,Studio City",澳门特别行政区,澳门特别行政区,路氹填海区,,住宿服务;宾馆酒店;宾馆酒店,100100,B0KU59U87H,住宿服务,宾馆酒店,宾馆酒店,
113.55939749625605,22.148776168026778,酒店西翼大堂,望德圣母湾大马路与望德圣母湾街交叉口东南160米,澳门特别行政区,澳门特别行政区,路氹填海区,,住宿服务;宾馆酒店;宾馆酒店,100100,B0KR1HLBUR,住宿服务,宾馆酒店,宾馆酒店,
113.56253988391774,22.14043329014251,Star Tower,路凼连贯公路与莲花圆形地交叉口西北120米,澳门特别行政区,澳门特别行政区,路氹填海区,,住宿服务;住宿服务相关;住宿服务相关,100000,B0FFHWPHHQ,住宿服务,住宿服务相关,住宿服务相关,
113.56182924200837,22.146045556052087,The Grand Suites at Four Seasons,望德圣母湾大马路,澳门特别行政区,澳门特别行政区,路氹填海区,,住宿服务;宾馆酒店;宾馆酒店,100100,B0KDZAPLKR,住宿服务,宾馆酒店,宾馆酒店,
113.5616137039094,22.148312153669234,澳门威尼斯人,路氹金光大道连贯公路,澳门特别行政区,澳门特别行政区,路氹填海区,,住宿服务;宾馆酒店;五星级宾馆,100102,B073D0M4FP,住宿服务,宾馆酒店,五星级宾馆,
113.54420545679254,22.147000439645836,梧桐树酒店(珠海横琴口岸店),琴海东路501号35-40层酒店,广东省,珠海市,香洲区,,住宿服务;住宿服务相关;住宿服务相关,100000,B0FFL7T089,住宿服务,住宿服务相关,住宿服务相关,
113.54278707646448,22.142800808685056,枫雨酒店(珠海橫琴口岸励骏庞都广场店),横琴新区福临道258号中冶盛世国际广场D座2536房,广东省,珠海市,香洲区,横琴,住宿服务;宾馆酒店;宾馆酒店,100100,B0G1L57DDO,住宿服务,宾馆酒店,宾馆酒店,
113.5431168962844,22.143346721825164,维拉国际公寓(横琴口岸店),福临道258号中冶盛世国际广场D座24楼2435房,广东省,珠海市,香洲区,横琴,住宿服务;住宿服务相关;住宿服务相关,100000,B0JAX6Y5SR,住宿服务,住宿服务相关,住宿服务相关,
113.54312790538854,22.143651866274126,东方美居公寓(福临道分店),福临道中冶盛世国际广场,广东省,珠海市,香洲区,横琴,住宿服务;住宿服务相关;住宿服务相关,100000,B0IBSBFM20,住宿服务,住宿服务相关,住宿服务相关,
113.54314200035739,22.142728528732047,珠海壹间公寓,横琴新区福临道258号中冶盛世国际广场3234房,广东省,珠海市,香洲区,横琴,住宿服务;住宿服务相关;住宿服务相关,100000,B0G03NGCY4,住宿服务,住宿服务相关,住宿服务相关,
113.54297055999564,22.142679147921626,珠海壹栈国际公寓,横琴新区福临道中冶盛世国际广场D座29楼2914室,广东省,珠海市,香洲区,横琴,住宿服务;旅馆招待所;旅馆招待所,100200,B0JKV5PAZ3,住宿服务,旅馆招待所,旅馆招待所,
113.54281615658368,22.142727841162255,壹柒Together雅居(横琴口岸店),福临道258号中冶盛世国际广场D座3217号,广东省,珠海市,香洲区,横琴,住宿服务;住宿服务相关;住宿服务相关,100000,B0JGZYC2ZZ,住宿服务,住宿服务相关,住宿服务相关,
113.54275198666767,22.14277972602482,Dreamer雲享公寓,福临道258号中冶盛世国际广场D座2315室,广东省,珠海市,香洲区,横琴,住宿服务;住宿服务相关;住宿服务相关,100000,B0H2ZN9JN0,住宿服务,住宿服务相关,住宿服务相关,
113.56314380595106,22.142877068180933,新濠影涯,路凼城大马路与路凼连贯公路交叉口西北40米,澳门特别行政区,澳门特别行政区,路氹填海区,,住宿服务;宾馆酒店;宾馆酒店,100100,B0FFG9BM6O,住宿服务,宾馆酒店,宾馆酒店,
113.54264266708017,22.143337716325686,安顿雅舍(横琴口岸店),横琴新区中冶盛世国际广场D座2714房,广东省,珠海市,香洲区,横琴,住宿服务;旅馆招待所;旅馆招待所|商务住宅;商务住宅相关;商务住宅相关,100200|120000,B0HK1XD53K,住宿服务,旅馆招待所,旅馆招待所|商务住宅,商务住宅相关
113.54284922309859,22.143032032117198,凯宾尚寓(横琴口岸店),港澳大道与都会道交叉口南160米,广东省,珠海市,香洲区,横琴,住宿服务;住宿服务相关;住宿服务相关,100000,B0JUSKET10,住宿服务,住宿服务相关,住宿服务相关,
113.5429685541665,22.142689147670488,壹栈国际酒店公寓,横琴新区福临道中冶盛世国际广场D座2914室,广东省,珠海市,香洲区,横琴,住宿服务;宾馆酒店;宾馆酒店,100100,B0HD4YHT1S,住宿服务,宾馆酒店,宾馆酒店,
113.54313993698507,22.143643888417195,珠海横琴悦怡酒店,横琴新区福临道258号中冶盛世国际广场D座2914室,广东省,珠海市,香洲区,横琴,住宿服务;宾馆酒店;宾馆酒店,100100,B0G23XH1QV,住宿服务,宾馆酒店,宾馆酒店,
113.55476992800062,22.15132989848014,太阳饭店Sun Chinese Restaurant,"地堡街No.21号,Chun Fok Village(wai Heng Kok)",澳门特别行政区,澳门特别行政区,嘉模堂区,,住宿服务;宾馆酒店;宾馆酒店|餐饮服务;餐饮相关场所;餐饮相关,100100|050000,B0KDY1VEPF,住宿服务,宾馆酒店,宾馆酒店|餐饮服务,餐饮相关场所
113.54270487287037,22.142643572044825,铂琳顿公寓(珠海横琴口岸店),横琴新区福临道258号中冶盛世广场D座4115房,广东省,珠海市,香洲区,横琴,住宿服务;住宿服务相关;住宿服务相关,100000,B0JKPMOKJS,住宿服务,住宿服务相关,住宿服务相关,
113.54270186308018,22.142674578009956,巴里岛度假酒店公寓(珠海横琴口岸店),福临道258号(中冶盛世国际广场)D座37楼3736房,广东省,珠海市,香洲区,横琴,住宿服务;住宿服务相关;住宿服务相关,100000,B0K1RS0VBT,住宿服务,住宿服务相关,住宿服务相关,
113.5427620242221,22.142598675207875,铂丽公寓(珠海横琴口岸店),褔临道258号中冶盛世国际广场D座2436室,广东省,珠海市,香洲区,横琴,住宿服务;旅馆招待所;旅馆招待所,100200,B0KG4MJJ2U,住宿服务,旅馆招待所,旅馆招待所,
113.54251033645768,22.143117347722807,珠海美美国际公寓(横琴店),横琴福临道258号中冶盛世国际广场D座2515室,广东省,珠海市,香洲区,横琴,住宿服务;住宿服务相关;住宿服务相关,100000,B0J2XUUG21,住宿服务,住宿服务相关,住宿服务相关,
113.54268883460263,22.14258951653893,美途国际公寓(横琴口岸店),横琴新区福临道258号中冶口岸大厦D座2315室,广东省,珠海市,香洲区,横琴,住宿服务;住宿服务相关;住宿服务相关,100000,B0H19BKLM2,住宿服务,住宿服务相关,住宿服务相关,
113.54260159947967,22.14271838282187,珠海横琴壹笙智慧公寓,横琴福临路中冶盛世国际广场D座2336,广东省,珠海市,香洲区,横琴,住宿服务;住宿服务相关;住宿服务相关,100000,B0H39KRW3N,住宿服务,住宿服务相关,住宿服务相关,
113.54264771923889,22.142722482300755,珠海柒禧云国际公寓(横琴口岸店),福临道258号中冶盛世国际广场D栋2630,广东省,珠海市,香洲区,横琴,住宿服务;住宿服务相关;住宿服务相关,100000,B0JDYYP79A,住宿服务,住宿服务相关,住宿服务相关,
113.54307982512283,22.142957488983583,中冶盛世广场民宿,港澳大道与都会道交叉口南160米,广东省,珠海市,香洲区,横琴,住宿服务;旅馆招待所;旅馆招待所,100200,B0KKGC2HMD,住宿服务,旅馆招待所,旅馆招待所,
113.54271188697804,22.14270861279534,卡斯顿酒店公寓(横琴口岸北门店),中冶盛世国际广场D座2815房,广东省,珠海市,香洲区,横琴,住宿服务;住宿服务相关;住宿服务相关,100000,B0JGJ92XCA,住宿服务,住宿服务相关,住宿服务相关,
113.56365882762465,22.141032005858424,EPIC TOWER映星汇,"Studio City,Epic Tower,Estrdo Istmo,Macao",澳门特别行政区,澳门特别行政区,路氹填海区,,住宿服务;宾馆酒店;宾馆酒店,100100,B0KU59TL7F,住宿服务,宾馆酒店,宾馆酒店,
113.54266974283551,22.143253740350204,横琴Smile公寓,福临道258号中冶盛世国际广场D座2509,广东省,珠海市,香洲区,横琴,住宿服务;旅馆招待所;旅馆招待所,100200,B0H37BD5KK,住宿服务,旅馆招待所,旅馆招待所,
113.5428131459151,22.142772852709346,SHANGSHE公寓珠海海洋王国店,横琴镇福临道258号中冶盛世国际广场D座2714房,广东省,珠海市,香洲区,横琴,住宿服务;旅馆招待所;旅馆招待所,100200,B0JBFNZ2YJ,住宿服务,旅馆招待所,旅馆招待所,
113.54265273316972,22.142708487363457,壹柒Together民宿,福临道与港澳大道交叉口东南180米,广东省,珠海市,香洲区,横琴,住宿服务;旅馆招待所;旅馆招待所,100200,B0KBR5OOAW,住宿服务,旅馆招待所,旅馆招待所,
113.5426286698681,22.1427194406841,珠海柒禧公寓(横琴口岸店),福临道与港澳大道交叉口东南180米,广东省,珠海市,香洲区,横琴,住宿服务;旅馆招待所;旅馆招待所,100200,B0K6U7SDSV,住宿服务,旅馆招待所,旅馆招待所,
113.54261964778631,22.142697412774982,E艾思国际公寓,福临道258号D座2610房,广东省,珠海市,香洲区,横琴,住宿服务;住宿服务相关;住宿服务相关,100000,B0IRPZ59NK,住宿服务,住宿服务相关,住宿服务相关,
113.54259357592852,22.142760382507948,珠海泊琳国际公寓,福临道258号2610,广东省,珠海市,香洲区,横琴,住宿服务;宾馆酒店;宾馆酒店,100100,B0IRX506EM,住宿服务,宾馆酒店,宾馆酒店,
113.56182513322885,22.147648183406385,凤凰殿(威尼斯人购物中心),望德圣母湾大马路威尼斯人购物中心L1层,澳门特别行政区,澳门特别行政区,路氹填海区,,住宿服务;宾馆酒店;宾馆酒店,100100,B0K22CG3HH,住宿服务,宾馆酒店,宾馆酒店,
113.54250228120291,22.143657545351036,筑晨行政公寓,福临道与港澳大道交叉口东南80米,广东省,珠海市,香洲区,横琴,住宿服务;住宿服务相关;住宿服务相关|商务住宅;商务住宅相关;商务住宅相关,100000|120000,B0KB75ISOA,住宿服务,住宿服务相关,住宿服务相关|商务住宅,商务住宅相关
113.54124512724825,22.1412758973387,珠海雅辰悦居酒店,福临道119号,广东省,珠海市,香洲区,横琴,住宿服务;宾馆酒店;宾馆酒店,100100,B0JBAUDHG2,住宿服务,宾馆酒店,宾馆酒店,
113.562700705067,22.147826440365844,澳门威尼斯人大堂,路凼连贯公路与路凼连贯公路圆形地交叉口南320米,澳门特别行政区,澳门特别行政区,路氹填海区,,住宿服务;宾馆酒店;五星级宾馆,100102,B0JRG716ZC,住宿服务,宾馆酒店,五星级宾馆,
113.54175655455589,22.140076522966307,珠海威尔曼国际公寓(横琴口岸店),福临路99号灝怡财富中心B座4303房,广东省,珠海市,香洲区,横琴,住宿服务;住宿服务相关;住宿服务相关,100000,B0J17AEPQ5,住宿服务,住宿服务相关,住宿服务相关,
113.5428078586287,22.147086551561152,珠海名钻国际酒店公寓,祥澳路108号横琴国贸大厦F16层,广东省,珠海市,香洲区,,住宿服务;住宿服务相关;住宿服务相关,100000,B0FFKOSH28,住宿服务,住宿服务相关,住宿服务相关,
113.54161621585622,22.139585024051375,珠海泊程酒店(横琴店),福临道99号灏怡财富中心B座36层,广东省,珠海市,香洲区,横琴,住宿服务;住宿服务相关;住宿服务相关,100000,B0K6ACIMSK,住宿服务,住宿服务相关,住宿服务相关,
113.54157009867166,22.139513896102976,珠海碧海蓝天公寓(横琴口岸店),福临道99号灏怡财富中心B座2903室,广东省,珠海市,香洲区,横琴,住宿服务;住宿服务相关;住宿服务相关,100000,B0J2ZGCNXM,住宿服务,住宿服务相关,住宿服务相关,
113.54281386966277,22.147158592718373,珠海四季莲城国际公寓,横琴镇祥澳路108号国贸大厦,广东省,珠海市,香洲区,,住宿服务;住宿服务相关;住宿服务相关,100000,B0FFK9HQCM,住宿服务,住宿服务相关,住宿服务相关,
113.54276774712186,22.147202512469786,珠海幸福莲城公寓,横琴祥澳路108号国贸大厦,广东省,珠海市,香洲区,,住宿服务;住宿服务相关;住宿服务相关,100000,B0FFKKL81G,住宿服务,住宿服务相关,住宿服务相关,
113.55337213999907,22.147687099486905,澳门银河嘉佩乐酒店(建设中),排角路与地堡街交叉口西南420米,澳门特别行政区,澳门特别行政区,路氹填海区,,住宿服务;宾馆酒店;宾馆酒店,100100,B0KDYCW8K5,住宿服务,宾馆酒店,宾馆酒店,
113.54275270640511,22.147228490885333,朵尔曼国际公寓(横琴口岸店),祥澳路108号横琴国贸大厦F1层,广东省,珠海市,香洲区,,住宿服务;住宿服务相关;住宿服务相关,100000,B0FFKGWB2R,住宿服务,住宿服务相关,住宿服务相关,
113.54274168112543,22.1471754466014,莲印国际公寓(横琴口岸店),祥澳路108号横琴国贸大厦F1层,广东省,珠海市,香洲区,,住宿服务;宾馆酒店;经济型连锁酒店,100105,B0FFKTDMO1,住宿服务,宾馆酒店,经济型连锁酒店,
113.54282490521912,22.147049573012275,枫度国际公寓酒店,祥澳路108号横琴国贸大厦F26层,广东省,珠海市,香洲区,,住宿服务;住宿服务相关;住宿服务相关,100000,B0JAJYRIDZ,住宿服务,住宿服务相关,住宿服务相关,
113.54137546987708,22.141317196225227,珠海雅辰悦居酒店大堂,福临道119号珠海雅辰悦居酒店,广东省,珠海市,香洲区,横琴,住宿服务;宾馆酒店;宾馆酒店,100100,B0KR47CVY7,住宿服务,宾馆酒店,宾馆酒店,
113.56268968370804,22.14785243588005,港澳跨境直通巴士侯车区,澳门威尼斯人,澳门特别行政区,澳门特别行政区,路氹填海区,,住宿服务;宾馆酒店;宾馆酒店,100100,B0K279632B,住宿服务,宾馆酒店,宾馆酒店,
113.56487657912017,22.146438699462976,澳门伦敦人大酒店,路凼连贯公路澳门伦敦人购物中心L1层,澳门特别行政区,澳门特别行政区,路氹填海区,,住宿服务;宾馆酒店;宾馆酒店,100100,B0GKNA7ZG4,住宿服务,宾馆酒店,宾馆酒店,
113.54327807635089,22.14706953561236,都市星联酒店(珠海横琴国贸大厦店),祥澳路108号横琴国贸大厦F27层,广东省,珠海市,香洲区,,住宿服务;宾馆酒店;宾馆酒店,100100,B0JDJMESLA,住宿服务,宾馆酒店,宾馆酒店,
113.54280886116754,22.147087554077572,坤之语国际公寓(祥澳路分店),横琴祥澳路108号横琴国贸大厦2208,广东省,珠海市,香洲区,,住宿服务;住宿服务相关;住宿服务相关,100000,B0I64NSMZ0,住宿服务,住宿服务相关,住宿服务相关,
113.54280886135838,22.147084552892974,旅游之家公寓(横琴口岸店),祥澳路108号2417房,广东省,珠海市,香洲区,,住宿服务;旅馆招待所;旅馆招待所,100200,B0J2ZM3S51,住宿服务,旅馆招待所,旅馆招待所,
113.54161621267546,22.139635044065134,如梦国际公寓(珠海横琴口岸店),福临道灝怡财富中心B座3418房,广东省,珠海市,香洲区,横琴,住宿服务;住宿服务相关;住宿服务相关,100000,B0KBMC1MBJ,住宿服务,住宿服务相关,住宿服务相关,
113.55690228425354,22.152775923955854,澳门亚洲精品旅馆,告利雅施利华街21号(澳门告利雅施利华街146号),澳门特别行政区,澳门特别行政区,嘉模堂区,,住宿服务;住宿服务相关;住宿服务相关,100000,B0FFFT3DU3,住宿服务,住宿服务相关,住宿服务相关,
113.54275270640511,22.147228490885333,集至公寓(珠海横琴口岸店),祥澳路108号横琴国贸大厦F23层,广东省,珠海市,香洲区,,住宿服务;住宿服务相关;住宿服务相关,100000,B0JDRNDWJM,住宿服务,住宿服务相关,住宿服务相关,
113.54166938747309,22.13908994040012,珠海蔓蕾精品公寓(横琴口岸店),灏怡财富中心B栋一楼,广东省,珠海市,香洲区,横琴,住宿服务;住宿服务相关;住宿服务相关,100000,B0JRCM9VER,住宿服务,住宿服务相关,住宿服务相关,
113.54275472586339,22.147004406687277,悦巢精品公寓(珠海横琴口岸店),祥澳路108号莲城印1618房,广东省,珠海市,香洲区,,住宿服务;住宿服务相关;住宿服务相关,100000,B0FFK2I0AD,住宿服务,住宿服务相关,住宿服务相关,
113.54274968542342,22.14743556621448,梦寓国际度假公寓(横琴口岸店),祥澳路108号横琴国贸大厦1611室,广东省,珠海市,香洲区,,住宿服务;住宿服务相关;住宿服务相关,100000,B0IK4PM33Q,住宿服务,住宿服务相关,住宿服务相关,
113.54271761713544,22.147198404698425,珠海横琴坤之语公寓,都会道76号国贸大厦,广东省,珠海市,香洲区,,住宿服务;住宿服务相关;住宿服务相关,100000,B0KR6ZE4P8,住宿服务,住宿服务相关,住宿服务相关,
113.5425983003108,22.147300191873693,莲城之星度假公寓,横琴国贸大厦7楼728,广东省,珠海市,香洲区,,住宿服务;宾馆酒店;宾馆酒店,100100,B0JDJHEUJY,住宿服务,宾馆酒店,宾馆酒店,
113.5427757663617,22.14722753932171,珠海淳派国际公寓,祥澳路108号横琴国贸大厦F1层,广东省,珠海市,香洲区,,住宿服务;宾馆酒店;宾馆酒店,100100,B0FFLIP3OR,住宿服务,宾馆酒店,宾馆酒店,
113.54187189251506,22.139532553233852,佰斯漫·Baisim国际公寓,福临道与安临路交叉口西北140米,广东省,珠海市,香洲区,横琴,住宿服务;住宿服务相关;住宿服务相关,100000,B0JK695I4O,住宿服务,住宿服务相关,住宿服务相关,
113.54278278484065,22.147223552600632,珠海皮皮熊公寓(4号店),琴海东路(横琴国贸大厦莲城印),广东省,珠海市,香洲区,,住宿服务;住宿服务相关;住宿服务相关,100000,B0FFKRYS7H,住宿服务,住宿服务相关,住宿服务相关,
113.54162422613581,22.139756109792483,枫屿酒店公寓(灏怡财富中心B栋店),福临道灏怡财富中心B栋,广东省,珠海市,香洲区,横琴,住宿服务;宾馆酒店;宾馆酒店,100100,B0J36N5QCL,住宿服务,宾馆酒店,宾馆酒店,
113.54293418638028,22.14708481781141,珠海横琴名钻公寓,祥澳路108号横琴国贸大厦F1层,广东省,珠海市,香洲区,,住宿服务;住宿服务相关;住宿服务相关,100000,B0GUBNN5J4,住宿服务,住宿服务相关,住宿服务相关,
113.54171051151758,22.138842929990997,琴澳湾国际度假公寓(横琴口岸店),环岛东路灏怡财富中心A1024商铺,广东省,珠海市,香洲区,横琴,住宿服务;住宿服务相关;住宿服务相关,100000,B0JR2RKGG5,住宿服务,住宿服务相关,住宿服务相关,
113.54281285541931,22.147341662835384,横琴国贸大厦(横琴口岸长隆海洋王国店)公寓(都会道分店),祥澳路108号横琴国贸大厦F1层,广东省,珠海市,香洲区,,住宿服务;住宿服务相关;住宿服务相关,100000,B0G14PDBT5,住宿服务,住宿服务相关,住宿服务相关,
113.54278178115584,22.147240557189065,珠海皮皮熊公寓(7号店),详澳路横琴国贸大厦,广东省,珠海市,香洲区,,住宿服务;住宿服务相关;住宿服务相关,100000,B0HK6B1FN7,住宿服务,住宿服务相关,住宿服务相关,
113.54262637604879,22.147258234890078,琬缨公寓(祥澳路分店),祥澳路横琴国贸大厦莲城·印,广东省,珠海市,香洲区,,住宿服务;住宿服务相关;住宿服务相关,100000,B0I0C4ETMS,住宿服务,住宿服务相关,住宿服务相关,
113.54280685691678,22.147072543911374,维尔纳国际度假公寓,祥澳路108号横琴国贸大厦F1层,广东省,珠海市,香洲区,,住宿服务;住宿服务相关;住宿服务相关,100000,B0HAXZN9R3,住宿服务,住宿服务相关,住宿服务相关,
113.54114200121927,22.13894974327712,花盛酒店(珠海横琴口岸店),横琴新区环岛东路灏怡财富中心B座A1024商铺,广东省,珠海市,香洲区,横琴,住宿服务;住宿服务相关;住宿服务相关,100000,B0K16APREX,住宿服务,住宿服务相关,住宿服务相关,
113.54260731979156,22.147363235897302,珠海鑫涞莲城公寓,祥澳路108号1420室,广东省,珠海市,香洲区,,住宿服务;住宿服务相关;住宿服务相关,100000,B0HA342BXI,住宿服务,住宿服务相关,住宿服务相关,
113.54280986376995,22.14708755619909,思橙电影主题公寓(横琴长隆口岸店),祥澳路108号国贸大厦2124,广东省,珠海市,香洲区,,住宿服务;住宿服务相关;住宿服务相关,100000,B0H39NSYYY,住宿服务,住宿服务相关,住宿服务相关,
113.56470240833222,22.144467701789804,宏地楼,路氹连贯公路与路氹城大马路交叉口东北240米,澳门特别行政区,澳门特别行政区,路氹填海区,,住宿服务;住宿服务相关;住宿服务相关,100000,B0KACZVZ26,住宿服务,住宿服务相关,住宿服务相关,
113.54277276058627,22.14719552032072,珠海海洋王国横琴口岸公寓,祥澳路108号横琴国贸大厦,广东省,珠海市,香洲区,,住宿服务;住宿服务相关;住宿服务相关,100000,B0GKXBAV4D,住宿服务,住宿服务相关,住宿服务相关,
113.54113994417057,22.139763064489202,梦·公寓(珠海横琴口岸店),横琴灏怡财富中心B座A008号铺安临路北入口,广东省,珠海市,香洲区,横琴,住宿服务;宾馆酒店;宾馆酒店,100100,B0JR6MH3EH,住宿服务,宾馆酒店,宾馆酒店,
113.54096332647667,22.142100613681095,赛维国际度假公寓(珠海横琴口岸店),横琴环岛东路2050号1栋2楼,广东省,珠海市,香洲区,横琴,住宿服务;住宿服务相关;住宿服务相关,100000,B0H046407D,住宿服务,住宿服务相关,住宿服务相关,
113.541636301635,22.139067860254272,你好酒店公寓,横琴镇灏怡财富中心停车场入口处商铺,广东省,珠海市,香洲区,横琴,住宿服务;宾馆酒店;宾馆酒店|住宿服务;旅馆招待所;旅馆招待所,100100|100200,B0JKMKCQX6,住宿服务,宾馆酒店,宾馆酒店|住宿服务,旅馆招待所
113.54170949036494,22.139134044440002,星途国际公寓,福临道99号灏怡财富中心B座3418室,广东省,珠海市,香洲区,横琴,住宿服务;住宿服务相关;住宿服务相关,100000,B0J1BRQGOL,住宿服务,住宿服务相关,住宿服务相关,
113.56463624981929,22.145195907640257,御匾会(澳门伦敦人购物中心),路凼连贯公路澳门伦敦人购物中心L3层,澳门特别行政区,澳门特别行政区,路氹填海区,,住宿服务;住宿服务相关;住宿服务相关,100000,B0K2XLACHQ,住宿服务,住宿服务相关,住宿服务相关,
113.5651690665898,22.146523094586243,澳门康莱德酒店,路凼连贯公路澳门伦敦人购物中心L1层,澳门特别行政区,澳门特别行政区,路氹填海区,,住宿服务;宾馆酒店;五星级宾馆,100102,B073D0M5NX,住宿服务,宾馆酒店,五星级宾馆,
113.5651690665898,22.146523094586243,澳门康莱德酒店,路凼连贯公路澳门伦敦人购物中心L1层,澳门特别行政区,澳门特别行政区,路氹填海区,,住宿服务;宾馆酒店;五星级宾馆,100102,B073D0M5NX,住宿服务,宾馆酒店,五星级宾馆,
113.5412463114208,22.138421758017575,琴澳波斯顿酒店,福临道55号3302室,广东省,珠海市,香洲区,横琴,住宿服务;住宿服务相关;住宿服务相关,100000,B0JKVRNUSV,住宿服务,住宿服务相关,住宿服务相关,
113.55679106328323,22.152676709305567,Asia Boutique Inn.,"告利雅施利华街21号,Edificio Yu Cheong",澳门特别行政区,澳门特别行政区,嘉模堂区,,住宿服务;宾馆酒店;宾馆酒店,100100,B0JA91BJCM,住宿服务,宾馆酒店,宾馆酒店,
113.54089916196247,22.142001434313038,途游公寓酒店(吉临路分店),信德街18号,广东省,珠海市,香洲区,横琴,住宿服务;宾馆酒店;宾馆酒店,100100,B0HKJHZN4K,住宿服务,宾馆酒店,宾馆酒店,
113.54099459616799,22.139160507136236,云景瑞都国际公寓(横琴口岸店),灏怡财富中心B栋4313房,广东省,珠海市,香洲区,横琴,住宿服务;住宿服务相关;住宿服务相关,100000,B0J3OMQSY2,住宿服务,住宿服务相关,住宿服务相关,
113.54097154010535,22.139077423643137,珠海慢云泊悦国际智慧公寓(横琴口岸广场店),横琴镇福临道99号灏怡财富中心B座3903,广东省,珠海市,香洲区,横琴,住宿服务;住宿服务相关;住宿服务相关,100000,B0JRGMZQC8,住宿服务,住宿服务相关,住宿服务相关,
113.56462115385243,22.14630832897433,Conrad Macao,"金光大道,伦敦人,Macao",澳门特别行政区,澳门特别行政区,路氹填海区,,住宿服务;宾馆酒店;宾馆酒店,100100,B0IRHRRCAQ,住宿服务,宾馆酒店,宾馆酒店,
113.54096953292512,22.139106430892127,Seeu公寓(安临路分店),安临路灏怡财富中心,广东省,珠海市,香洲区,横琴,住宿服务;住宿服务相关;住宿服务相关,100000,B0JR5NPZS3,住宿服务,住宿服务相关,住宿服务相关,
113.54060365421806,22.137576017759322,珠海横琴希尔顿逸林酒店,中葡商贸广场,广东省,珠海市,香洲区,横琴,住宿服务;宾馆酒店;宾馆酒店,100100,B0JGH6OX0Q,住宿服务,宾馆酒店,宾馆酒店,
113.56544747127722,22.14748581562531,澳门瑞吉酒店,澳门路氹连贯公路澳门伦敦人,澳门特别行政区,澳门特别行政区,路氹填海区,,住宿服务;住宿服务相关;住宿服务相关,100000,B0FFJXNOAV,住宿服务,住宿服务相关,住宿服务相关,
113.54051530622385,22.1393365301953,横琴天一阁度假公寓(安临路分店),安临路灏怡财富中心,广东省,珠海市,香洲区,横琴,住宿服务;住宿服务相关;住宿服务相关,100000,B0J1LNPMA4,住宿服务,住宿服务相关,住宿服务相关,
113.54051530622385,22.1393365301953,mini妈妈公寓(安临路分店),安临路灏怡财富中心,广东省,珠海市,香洲区,横琴,住宿服务;住宿服务相关;住宿服务相关,100000,B0J11N6OIV,住宿服务,住宿服务相关,住宿服务相关,
113.54051630903452,22.139334531594553,朵尔曼悦享公寓(横琴口岸店),环岛东路灏怡财富中心B座1楼,广东省,珠海市,香洲区,横琴,住宿服务;旅馆招待所;旅馆招待所,100200,B0J2NABIK9,住宿服务,旅馆招待所,旅馆招待所,
113.54099221063032,22.145137883524825,珠海琴洁公寓,港澳大道与福临道交叉口西北140米,广东省,珠海市,香洲区,,住宿服务;旅馆招待所;旅馆招待所,100200,B0FFKTUHE2,住宿服务,旅馆招待所,旅馆招待所,
113.54046527038717,22.13778980016925,珠海万象悦湾度假公寓(横琴口岸店),横琴濠江路258号中葡商贸广场大堂,广东省,珠海市,香洲区,横琴,住宿服务;宾馆酒店;宾馆酒店,100100,B0K0G53OB4,住宿服务,宾馆酒店,宾馆酒店,
113.54009885152571,22.144649731390622,银鑫度假公寓,南山嘴路156号10-12层,广东省,珠海市,香洲区,,住宿服务;旅馆招待所;旅馆招待所,100200,B0FFKLGF6T,住宿服务,旅馆招待所,旅馆招待所,
113.53989831940852,22.14452123711032,柏菁酒店(珠海横琴口岸店),横琴南山嘴路156号,广东省,珠海市,香洲区,,住宿服务;住宿服务相关;住宿服务相关,100000,B0I1UBWAXT,住宿服务,住宿服务相关,住宿服务相关,
113.54050440244104,22.137359713279782,珠海横琴希尔顿逸林酒店大堂,濠江路辅路与环岛东路辅路交叉口东80米,广东省,珠海市,香洲区,横琴,住宿服务;宾馆酒店;宾馆酒店,100100,B0K1X7AIJY,住宿服务,宾馆酒店,宾馆酒店,
113.53973287112575,22.144544879735168,半岛居舍(珠海横琴口岸店),南山嘴路银鑫花园156号1楼大堂,广东省,珠海市,香洲区,,住宿服务;旅馆招待所;旅馆招待所,100200,B0K6AMOG6T,住宿服务,旅馆招待所,旅馆招待所,
113.56515600612369,22.147133319538078,添好运-伦敦人,路凼连贯公路与路凼连贯公路圆形地交叉口南400米,澳门特别行政区,澳门特别行政区,路氹填海区,,住宿服务;住宿服务相关;住宿服务相关,100000,B0JK1CJKMV,住宿服务,住宿服务相关,住宿服务相关,
113.56560372524191,22.147577041472235,澳门瑞吉酒店大堂,路凼连贯公路与路凼连贯公路圆形地交叉口东南360米,澳门特别行政区,澳门特别行政区,路氹填海区,,住宿服务;住宿服务相关;住宿服务相关,100000,B0JRAUP1YZ,住宿服务,住宿服务相关,住宿服务相关,
113.5397860220517,22.14442995205783,珠海澳琴民宿,横琴银鑫花园南山嘴路156号3栋1楼,广东省,珠海市,香洲区,,住宿服务;旅馆招待所;旅馆招待所,100200,B0KB75FU8H,住宿服务,旅馆招待所,旅馆招待所,
113.56550255987132,22.147534902046974,The St.Regis Macao,"Estrdo Istmo,Macao",澳门特别行政区,澳门特别行政区,路氹填海区,,住宿服务;宾馆酒店;宾馆酒店|公司企业;公司;公司|生活服务;生活服务场所;生活服务场所,100100|170200|070000,B0IRHRVBVP,住宿服务,宾馆酒店,宾馆酒店|公司企业,公司
113.56558872050599,22.147257897369126,雅舍,路凼连贯公路与路凼连贯公路圆形地交叉口东南400米,澳门特别行政区,澳门特别行政区,路氹填海区,,住宿服务;住宿服务相关;住宿服务相关,100000,B0JK1CF62Y,住宿服务,住宿服务相关,住宿服务相关,
113.55835214068235,22.153687526163857,新兴花园,"1C,新兴花园鸡毛围澳门",澳门特别行政区,澳门特别行政区,嘉模堂区,,住宿服务;住宿服务相关;住宿服务相关,100000,B0K279ZAFL,住宿服务,住宿服务相关,住宿服务相关,
113.56558872050599,22.147257897369126,雅舍,路凼连贯公路与路凼连贯公路圆形地交叉口东南400米,澳门特别行政区,澳门特别行政区,路氹填海区,,住宿服务;住宿服务相关;住宿服务相关,100000,B0JK1CF62Y,住宿服务,住宿服务相关,住宿服务相关,
113.55835214068235,22.153687526163857,新兴花园,"1C,新兴花园鸡毛围澳门",澳门特别行政区,澳门特别行政区,嘉模堂区,,住宿服务;住宿服务相关;住宿服务相关,100000,B0K279ZAFL,住宿服务,住宿服务相关,住宿服务相关,
113.55914517296351,22.130326410498334,擎天汇T8座,莲花海滨大马路580号,澳门特别行政区,澳门特别行政区,圣方济各堂区,,住宿服务;住宿服务相关;住宿服务相关,100000,B0J1XUNITX,住宿服务,住宿服务相关,住宿服务相关,
113.55580089567432,22.154595869476534,望厦之家,黑桥街与松树尾交叉口西南60米,澳门特别行政区,澳门特别行政区,嘉模堂区,,住宿服务;住宿服务相关;住宿服务相关,100000,B0FFHWPSIJ,住宿服务,住宿服务相关,住宿服务相关,
113.56592119132394,22.148498787205504,City of Dreams·The Countdown Hotel,澳门路氹连贯公路新濠天地,澳门特别行政区,澳门特别行政区,路氹填海区,,住宿服务;宾馆酒店;四星级宾馆,100103,B0FFLNR3I9,住宿服务,宾馆酒店,四星级宾馆,
113.56524798733462,22.14987251113701,新濠天地-澳门颐居,路凼连贯公路,澳门特别行政区,澳门特别行政区,路氹填海区,,住宿服务;住宿服务相关;住宿服务相关,100000,B0FFIBO55Z,住宿服务,住宿服务相关,住宿服务相关,
113.56019415047619,22.13093219324495,擎天汇第1座,"擎天汇,澳门",澳门特别行政区,澳门特别行政区,圣方济各堂区,,住宿服务;住宿服务相关;住宿服务相关,100000,B0KKMP6LAM,住宿服务,住宿服务相关,住宿服务相关,
113.56624277550277,22.147584810001348,伦敦人御园大堂,体育馆大马路与科技大学圆形地交叉口西南340米,澳门特别行政区,澳门特别行政区,路氹填海区,,住宿服务;住宿服务相关;住宿服务相关,100000,B0JRPHFN7D,住宿服务,住宿服务相关,住宿服务相关,
113.5662497854094,22.14760882777237,Londoner Court,澳门路氹连贯公路,澳门特别行政区,澳门特别行政区,路氹填海区,,住宿服务;住宿服务相关;住宿服务相关,100000,B0IGUMVL8U,住宿服务,住宿服务相关,住宿服务相关,
113.56789551869404,22.145817008719682,澳门美狮美高梅酒店,体育馆大马路,澳门特别行政区,澳门特别行政区,路氹填海区,,住宿服务;宾馆酒店;宾馆酒店,100100,B0FFHD0ADQ,住宿服务,宾馆酒店,宾馆酒店,
113.56556259930237,22.148490351531567,THE COUNT DOWN,路氹填海区路凼连贯公路新濠天地,澳门特别行政区,澳门特别行政区,路氹填海区,,住宿服务;住宿服务相关;住宿服务相关,100000,B0FFJFG33S,住宿服务,住宿服务相关,住宿服务相关,
113.55829856285948,22.129510805054647,澳门十三酒店大堂,石排湾马路与和谐大马路交叉口西40米,澳门特别行政区,澳门特别行政区,圣方济各堂区,,住宿服务;宾馆酒店;五星级宾馆,100102,B0JRA5J1IL,住宿服务,宾馆酒店,五星级宾馆,
113.56579299007541,22.14834157136273,City of Dreams·The Countdown Hotel大堂,霍英东博士大马路与路凼连贯公路圆形地交叉口东南300米,澳门特别行政区,澳门特别行政区,路氹填海区,,住宿服务;宾馆酒店;四星级宾馆,100103,B0JRGC1EGP,住宿服务,宾馆酒店,四星级宾馆,
113.55825048356483,22.12925762871613,澳门十三酒店,澳门路环石排湾大马路联生填海区地段1号,澳门特别行政区,澳门特别行政区,圣方济各堂区,,住宿服务;宾馆酒店;五星级宾馆,100102,B0FFIN66TO,住宿服务,宾馆酒店,五星级宾馆,
113.56654912947475,22.149852063008222,澳门新濠天地-摩珀斯,[],澳门特别行政区,澳门特别行政区,路氹填海区,,住宿服务;宾馆酒店;五星级宾馆,100102,B0FFJBZ0LK,住宿服务,宾馆酒店,五星级宾馆,
113.5659431891295,22.149106052519,Countdown Hotel Macau,霍英东博士大马路与路凼连贯公路圆形地交叉口东南240米,澳门特别行政区,澳门特别行政区,路氹填海区,,住宿服务;宾馆酒店;宾馆酒店,100100,B0J2RXU6NS,住宿服务,宾馆酒店,宾馆酒店,
113.56049025311516,22.153999801699253,Outdoor amphitheater,"Rda Restauracao,Macao",澳门特别行政区,澳门特别行政区,路氹填海区,,住宿服务;宾馆酒店;宾馆酒店,100100,B0KUT79ASW,住宿服务,宾馆酒店,宾馆酒店,
113.53839455145321,22.13937181814474,横琴旅行公寓(珠海横琴海洋王国店),华融琴海湾10栋2单元301,广东省,珠海市,香洲区,,住宿服务;住宿服务相关;住宿服务相关,100000,B0FFJND6BE,住宿服务,住宿服务相关,住宿服务相关,
113.54519605149603,22.129775560516727,澳門大學伍宜孫圖賓館(由澳门特别行政区实施管辖),伍宜孙图书馆(由澳门特别行政区实施管辖)西北侧,广东省,珠海市,澳门大学横琴校区(由澳门实施管辖),横琴,住宿服务;宾馆酒店;宾馆酒店,100100,B0HAMM1IZ6,住宿服务,宾馆酒店,宾馆酒店,
113.55200851452442,22.157218440575125,君怡酒店,氹仔柯维纳马路142号,澳门特别行政区,澳门特别行政区,嘉模堂区,,住宿服务;宾馆酒店;四星级宾馆,100103,B073D00I8I,住宿服务,宾馆酒店,四星级宾馆,
113.56835003210824,22.14880168727528,澳门君悦酒店,氹仔路氹连贯公路新濠天地,澳门特别行政区,澳门特别行政区,路氹填海区,,住宿服务;宾馆酒店;五星级宾馆,100102,B073D00M43,住宿服务,宾馆酒店,五星级宾馆,
113.56656214608073,22.149922105748303,Morpheus,霍英东博士大马路与科技大学圆形地交叉口西200米,澳门特别行政区,澳门特别行政区,路氹填海区,,住宿服务;宾馆酒店;宾馆酒店,100100,B0J2RXY5JK,住宿服务,宾馆酒店,宾馆酒店,
113.55726860325484,22.127874548506178,One Oasis,"MacauEstrde Seac Pai Van,One Oasis,Coloane,石排湾马路澳门",澳门特别行政区,澳门特别行政区,圣方济各堂区,,住宿服务;旅馆招待所;旅馆招待所,100200,B0KDY1WR69,住宿服务,旅馆招待所,旅馆招待所,
113.55095911358971,22.157594702107858,澳门骏龙酒店,沙维斯街36-58号,澳门特别行政区,澳门特别行政区,嘉模堂区,,住宿服务;住宿服务相关;住宿服务相关,100000,B0FFKDDPHI,住宿服务,住宿服务相关,住宿服务相关,
113.55173490227534,22.157166933508073,君怡酒店大堂,佛山街与柯维纳马路交叉口东北20米,澳门特别行政区,澳门特别行政区,嘉模堂区,,住宿服务;宾馆酒店;四星级宾馆,100103,B0JRGCBDU9,住宿服务,宾馆酒店,四星级宾馆,
113.56835003210824,22.14880168727528,澳门君悦酒店,氹仔路氹连贯公路新濠天地,澳门特别行政区,澳门特别行政区,路氹填海区,,住宿服务;宾馆酒店;五星级宾馆,100102,B073D00M43,住宿服务,宾馆酒店,五星级宾馆,
113.56656214608073,22.149922105748303,Morpheus,霍英东博士大马路与科技大学圆形地交叉口西200米,澳门特别行政区,澳门特别行政区,路氹填海区,,住宿服务;宾馆酒店;宾馆酒店,100100,B0J2RXY5JK,住宿服务,宾馆酒店,宾馆酒店,
113.55726860325484,22.127874548506178,One Oasis,"MacauEstrde Seac Pai Van,One Oasis,Coloane,石排湾马路澳门",澳门特别行政区,澳门特别行政区,圣方济各堂区,,住宿服务;旅馆招待所;旅馆招待所,100200,B0KDY1WR69,住宿服务,旅馆招待所,旅馆招待所,
113.55095911358971,22.157594702107858,澳门骏龙酒店,沙维斯街36-58号,澳门特别行政区,澳门特别行政区,嘉模堂区,,住宿服务;住宿服务相关;住宿服务相关,100000,B0FFKDDPHI,住宿服务,住宿服务相关,住宿服务相关,
113.55173490227534,22.157166933508073,君怡酒店大堂,佛山街与柯维纳马路交叉口东北20米,澳门特别行政区,澳门特别行政区,嘉模堂区,,住宿服务;宾馆酒店;四星级宾馆,100103,B0JRGCBDU9,住宿服务,宾馆酒店,四星级宾馆,
113.53775487708592,22.137948793311768,珠海鹤泉山庄别墅客栈(分店),濠江路8号华融琴海湾13号楼1单元1204,广东省,珠海市,香洲区,,住宿服务;住宿服务相关;住宿服务相关,100000,B0FFIKGS5V,住宿服务,住宿服务相关,住宿服务相关,
113.56693075810752,22.149610411627368,澳门恍子公寓,科技大学圆形地与霍英东博士大马路交叉口西180米,澳门特别行政区,澳门特别行政区,路氹填海区,,住宿服务;住宿服务相关;住宿服务相关,100000,B0FFLO0B4A,住宿服务,住宿服务相关,住宿服务相关,
113.53775487708592,22.137948793311768,珠海横琴美墅酒店公寓,横琴新区濠江路8号华融琴海湾11栋2单元702房,广东省,珠海市,香洲区,,住宿服务;住宿服务相关;住宿服务相关,100000,B0FFJ94V6G,住宿服务,住宿服务相关,住宿服务相关,
113.56669835929596,22.150023304449626,澳门新濠天地-摩珀斯大堂,霍英东博士大马路与科技大学圆形地交叉口西200米,澳门特别行政区,澳门特别行政区,路氹填海区,,住宿服务;住宿服务相关;住宿服务相关,100000,B0JRG71UKT,住宿服务,住宿服务相关,住宿服务相关,
113.54353322272073,22.155118223970607,YOHO荷里活罗斯福酒店,凼仔东亚运大马路924-998号,澳门特别行政区,澳门特别行政区,嘉模堂区,,住宿服务;宾馆酒店;宾馆酒店,100100,B0FFGZGPPM,住宿服务,宾馆酒店,宾馆酒店,
113.56813171031179,22.1485773595813,澳门君悦酒店大堂,体育馆大马路与科技大学圆形地交叉口南140米,澳门特别行政区,澳门特别行政区,路氹填海区,,住宿服务;宾馆酒店;五星级宾馆,100102,B0JRGAYPLP,住宿服务,宾馆酒店,五星级宾馆,
113.56144359599574,22.129235272750126,Edificio Lok Kuan(Bloco 4),Macao蝴蝶谷大马路,澳门特别行政区,澳门特别行政区,圣方济各堂区,,住宿服务;住宿服务相关;住宿服务相关,100000,B0KDY1U4RE,住宿服务,住宿服务相关,住宿服务相关,
113.55373433813526,22.157037375279,Edf.Mei Keng Garden,基马拉斯大马路与运动场圆形地交叉口北40米,澳门特别行政区,澳门特别行政区,嘉模堂区,,住宿服务;住宿服务相关;住宿服务相关,100000,B0KDY1XM3Z,住宿服务,住宿服务相关,住宿服务相关,
113.53741491073141,22.138311160494982,珠海横琴希悦公寓(横琴创意谷分店),横琴新区香江路8号华融·琴海湾,广东省,珠海市,香洲区,,住宿服务;旅馆招待所;旅馆招待所,100200,B0FFJ88ZTG,住宿服务,旅馆招待所,旅馆招待所,
113.560290699344,22.156791600294234,澳门盛世酒店,"澳门特别行政区嘉模堂区凼仔嘉乐庇总督大马路822号,近美副将马路",澳门特别行政区,澳门特别行政区,嘉模堂区,,住宿服务;住宿服务相关;住宿服务相关,100000,B0FFFHBX41,住宿服务,住宿服务相关,住宿服务相关,
113.55094207240725,22.15762968469503,澳门骏龙酒店大堂,沙维斯街与布拉格街交叉口东20米,澳门特别行政区,澳门特别行政区,嘉模堂区,,住宿服务;住宿服务相关;住宿服务相关,100000,B0JRYHDBRA,住宿服务,住宿服务相关,住宿服务相关,
113.56822084590193,22.148606469034586,Grand Hyatt Macau,"Macao,Estrada do Istmo City of Dreams",澳门特别行政区,澳门特别行政区,路氹填海区,,住宿服务;宾馆酒店;宾馆酒店,100100,B0IRHRVBVR,住宿服务,宾馆酒店,宾馆酒店,
113.5389815988474,22.132440348747856,喆啡酒店(珠海横琴口岸长隆店),横琴新区香江路10号横琴中央汇商业街喆啡酒店,广东省,珠海市,香洲区,横琴,住宿服务;宾馆酒店;宾馆酒店,100100,B0FFHCELQQ,住宿服务,宾馆酒店,宾馆酒店,
113.54337278764767,22.15547002497417,澳门罗斯福酒店大堂,东亚运大马路与东亚运街交叉口东80米,澳门特别行政区,澳门特别行政区,嘉模堂区,,住宿服务;宾馆酒店;宾馆酒店,100100,B0JRGZ0FO7,住宿服务,宾馆酒店,宾馆酒店,
113.55277921863419,22.15742887841137,汇景花园(第二座),"Wui Keng Garden(torre 2)Rde Aveiro,Macao",澳门特别行政区,澳门特别行政区,嘉模堂区,,住宿服务;住宿服务相关;住宿服务相关,100000,B0KRKLC1O1,住宿服务,住宿服务相关,住宿服务相关,
113.55978375792704,22.15639971364628,Anandji Kitchenette阿南德小厨房,嘉乐庇总督马路与亚利雅架圆形地交叉口南40米,澳门特别行政区,澳门特别行政区,嘉模堂区,,住宿服务;住宿服务相关;住宿服务相关,100000,B0KDY9W1N3,住宿服务,住宿服务相关,住宿服务相关,
113.55647611742509,22.157411049486612,Flower City(Edf.Lei Yip),"190号Rde Tai Lin,Macao",澳门特别行政区,澳门特别行政区,嘉模堂区,,住宿服务;住宿服务相关;住宿服务相关,100000,B0KUK6VHSR,住宿服务,住宿服务相关,住宿服务相关,
113.54348309029648,22.15517414089676,The Macau Roosevelt,"Avdos Jogos da asia Oriental,Macao",澳门特别行政区,澳门特别行政区,嘉模堂区,,住宿服务;宾馆酒店;宾馆酒店,100100,B0IRHRVYU7,住宿服务,宾馆酒店,宾馆酒店,
113.550217400978,22.157687380607804,酒店,柯维纳马路与沙维斯街交叉口西北40米,澳门特别行政区,澳门特别行政区,嘉模堂区,,住宿服务;宾馆酒店;宾馆酒店,100100,B0JK1CEC5Z,住宿服务,宾馆酒店,宾馆酒店,
113.53913000050741,22.132485699804423,吉啡酒店(横琴中央汇店),横琴中央汇美食广场东北门旁,广东省,珠海市,香洲区,横琴,住宿服务;宾馆酒店;宾馆酒店,100100,B0JU4962CB,住宿服务,宾馆酒店,宾馆酒店,
113.55113819516647,22.11535803896175,路环村,菜园巷,澳门特别行政区,澳门特别行政区,圣方济各堂区,,住宿服务;住宿服务相关;住宿服务相关,100000,B0KKGG8UCG,住宿服务,住宿服务相关,住宿服务相关,
113.55126341881265,22.116328669158026,路环壹号公寓,计单奴街45-47号,澳门特别行政区,澳门特别行政区,圣方济各堂区,,住宿服务;宾馆酒店;宾馆酒店,100100,B0IUR4M06B,住宿服务,宾馆酒店,宾馆酒店,
113.54600905184702,22.114402863576274,喜逢好室SEEFUNHOUSE公寓(环岛东路分店),横琴新区宝中路-道路(盈福门203),广东省,珠海市,香洲区,横琴,住宿服务;住宿服务相关;住宿服务相关,100000,B0FFJ5LE6H,住宿服务,住宿服务相关,住宿服务相关,
113.54557600334478,22.113959808556,蓝调小墅(珠海横琴海洋王国店),横琴镇宝兴路1号,广东省,珠海市,香洲区,横琴,住宿服务;宾馆酒店;宾馆酒店,100100,B0JGTPOT2I,住宿服务,宾馆酒店,宾馆酒店,
113.54531428647277,22.114952693508624,珠海琴海公寓,横琴镇海河街1号,广东省,珠海市,香洲区,横琴,住宿服务;旅馆招待所;旅馆招待所,100200,B0FFGCT5O4,住宿服务,旅馆招待所,旅馆招待所,
113.54565319555645,22.113962965478052,蓝调国际公寓,横琴新区横琴镇宝兴路10号,广东省,珠海市,香洲区,横琴,住宿服务;住宿服务相关;住宿服务相关,100000,B0FFIVC4S7,住宿服务,住宿服务相关,住宿服务相关,
113.54508576369908,22.114156897566012,珠海小时光民宿(横琴店),横琴镇南角街17号,广东省,珠海市,香洲区,横琴,住宿服务;旅馆招待所;旅馆招待所,100200,B0FFJ4CL6D,住宿服务,旅馆招待所,旅馆招待所,
113.54547973007772,22.114480831577474,珠海逸之家主题度假公寓,横琴镇海河街102号琳姐楼上,广东省,珠海市,香洲区,横琴,住宿服务;住宿服务相关;住宿服务相关,100000,B0FFIBMC78,住宿服务,住宿服务相关,住宿服务相关,
113.54533737003344,22.1145455705485,喜逢好室民宿(长隆旅游度假区2号店),横琴镇宝中路12号盈福门203房,广东省,珠海市,香洲区,横琴,住宿服务;住宿服务相关;住宿服务相关,100000,B0J6ZBDO5P,住宿服务,住宿服务相关,住宿服务相关,
113.54536644113158,22.114571640297488,舒妞的馨家普通公寓,盈福楼(阿森美食城对面),广东省,珠海市,香洲区,横琴,住宿服务;住宿服务相关;住宿服务相关,100000,B0J1GRCI4Z,住宿服务,住宿服务相关,住宿服务相关,
113.56180121011235,22.114068512218477,澳门竹湾酒店,澳门路环竹湾海滩旁,澳门特别行政区,澳门特别行政区,圣方济各堂区,,住宿服务;宾馆酒店;四星级宾馆,100103,B073D00IYU,住宿服务,宾馆酒店,四星级宾馆,
113.5450386482085,22.11411078240945,栖园山舍(横琴海洋王国店),横琴镇红旗村南角街19号,广东省,珠海市,香洲区,横琴,住宿服务;住宿服务相关;住宿服务相关,100000,B0K1XC9NG1,住宿服务,住宿服务相关,住宿服务相关,
113.54498451917114,22.11399862531263,枫林晚休闲度假公寓,横琴镇红旗村南角街21号,广东省,珠海市,香洲区,横琴,住宿服务;旅馆招待所;旅馆招待所,100200,B0K6JMQKPY,住宿服务,旅馆招待所,旅馆招待所,
113.54502360925741,22.11412875927971,珠海糖果屋休闲公寓·花园小木屋,横琴新区南角街19号工商分局旁,广东省,珠海市,香洲区,横琴,住宿服务;旅馆招待所;旅馆招待所,100200,B0J0H6T68M,住宿服务,旅馆招待所,旅馆招待所,
113.54526418498966,22.11457343381306,濠江庭院民宿,横琴新区横琴镇红旗村宝中路14号202房,广东省,珠海市,香洲区,横琴,住宿服务;旅馆招待所;旅馆招待所,100200,B0KDZZQO1Z,住宿服务,旅馆招待所,旅馆招待所,
113.54469478296187,22.114088070517344,隆吉公寓(珠海横琴海洋王国店),横琴镇南角街25号,广东省,珠海市,香洲区,横琴,住宿服务;住宿服务相关;住宿服务相关|商务住宅;商务住宅相关;商务住宅相关,100000|120000,B0IRMSL1G3,住宿服务,住宿服务相关,住宿服务相关|商务住宅,商务住宅相关
113.54503052740374,22.115696426782996,乐途酒店(珠海横琴海洋王国店),横琴镇宝兴路66号,广东省,珠海市,香洲区,横琴,住宿服务;宾馆酒店;宾馆酒店,100100,B0FFJE7B0O,住宿服务,宾馆酒店,宾馆酒店,
113.54449527904151,22.114073655038286,珠海莲舍假日公寓,横琴新区宝兴路南角街27号,广东省,珠海市,香洲区,横琴,住宿服务;宾馆酒店;宾馆酒店,100100,B0GKFNN9J0,住宿服务,宾馆酒店,宾馆酒店,
113.54476387516624,22.115387753849564,珠海琴湾公寓,宝中路40号,广东省,珠海市,香洲区,横琴,住宿服务;住宿服务相关;住宿服务相关,100000,B0FFG7UMVV,住宿服务,住宿服务相关,住宿服务相关,
113.54473389207244,22.113925082591642,珠海横琴迷你轰趴馆(海洋王国店)度假别墅(2号店),宝中路1号(南角街迷你轰趴馆),广东省,珠海市,香洲区,横琴,住宿服务;住宿服务相关;住宿服务相关,100000,B0FFLA3NM0,住宿服务,住宿服务相关,住宿服务相关,
113.5448170044677,22.115462893816247,横琴豆豆的家公寓(宝中路分店),横琴镇宝中路44号3楼,广东省,珠海市,香洲区,横琴,住宿服务;住宿服务相关;住宿服务相关,100000,B0FFIT3UBP,住宿服务,住宿服务相关,住宿服务相关,
113.54469970221582,22.11555969405872,海雅客栈(珠海横琴店),横琴宝中路46号(麦当劳后面),广东省,珠海市,香洲区,横琴,住宿服务;住宿服务相关;住宿服务相关,100000,B0FFIMXPDY,住宿服务,住宿服务相关,住宿服务相关,
113.54487512908841,22.115809156756672,OYO尊享罗曼斯酒店(海洋王国店),银河街1号,广东省,珠海市,香洲区,横琴,住宿服务;宾馆酒店;三星级宾馆,100104,B02F40306Z,住宿服务,宾馆酒店,三星级宾馆,
113.54478300896376,22.1140372299223,龙锦公寓,横琴新区南角街25号,广东省,珠海市,香洲区,横琴,商务住宅;住宅区;住宅小区|住宿服务;旅馆招待所;旅馆招待所,120302|100200,B0I1LGDFJ6,商务住宅,住宅区,住宅小区|住宿服务,旅馆招待所
113.54475684760902,22.115542804039414,海雅海洋主题公寓,广州医科大学附属第一医院横琴医院宝兴路院区西南门南380米,广东省,珠海市,香洲区,横琴,住宿服务;宾馆酒店;宾馆酒店|住宿服务;旅馆招待所;旅馆招待所,100100|100200,B0K60D2N7E,住宿服务,宾馆酒店,宾馆酒店|住宿服务,旅馆招待所
113.54420051468286,22.114323151574165,优柏四季公寓(横琴海洋王国店),横琴镇海河街9号103,广东省,珠海市,香洲区,横琴,住宿服务;宾馆酒店;宾馆酒店,100100,B0HDPCKBWZ,住宿服务,宾馆酒店,宾馆酒店,
113.544253569891,22.115582786151073,珠海野先生魅力酒店(珠海长隆旅游度假区店),横琴镇宝中路19号1层,广东省,珠海市,香洲区,横琴,住宿服务;宾馆酒店;宾馆酒店,100100,B0FFJMR2N2,住宿服务,宾馆酒店,宾馆酒店,
113.544636468015,22.11673405300541,珠海横琴木香假日酒店,横琴宝兴路83号,广东省,珠海市,香洲区,横琴,住宿服务;宾馆酒店;宾馆酒店,100100,B0FFGH8BIC,住宿服务,宾馆酒店,宾馆酒店,
113.56199761926554,22.113261444482465,竹湾青年旅社(营地),黑沙马路1992号,澳门特别行政区,澳门特别行政区,圣方济各堂区,,住宿服务;旅馆招待所;青年旅舍,100201,B0KRT5XPYT,住宿服务,旅馆招待所,青年旅舍,
113.54456628906036,22.11675591807407,珠海海上琴都酒店(长隆旅游度假区店),横琴德政街1号,广东省,珠海市,香洲区,横琴,住宿服务;宾馆酒店;宾馆酒店,100100,B0GKFCM94G,住宿服务,宾馆酒店,宾馆酒店,
113.5445201674541,22.116831854889444,珠海浪漫满屋主题公寓(横琴店),红旗村德政街10号三楼,广东省,珠海市,香洲区,横琴,住宿服务;住宿服务相关;住宿服务相关,100000,B0JUXCPVNO,住宿服务,住宿服务相关,住宿服务相关,
113.54381449414016,22.11488258453883,森果公寓(珠海横琴口岸海洋王国店),横琴镇永兴街12号,广东省,珠海市,香洲区,横琴,住宿服务;旅馆招待所;旅馆招待所,100200,B0I06RWM0I,住宿服务,旅馆招待所,旅馆招待所,
113.54312075615597,22.114155829962375,桔子酒店(珠海横琴长隆店),横琴新区海河街33号2单元,广东省,珠海市,香洲区,横琴,住宿服务;宾馆酒店;宾馆酒店,100100,B0I3F11VI2,住宿服务,宾馆酒店,宾馆酒店,
113.56275503329941,22.112491145418915,竹湾青年旅社,澳门路环法令司士古街,澳门特别行政区,澳门特别行政区,圣方济各堂区,,住宿服务;旅馆招待所;青年旅舍,100201,B073D0MQBI,住宿服务,旅馆招待所,青年旅舍,
113.54347460951654,22.115083959447258,琴与海岸公馆(珠海长隆旅游度假区店),横琴镇红旗村永兴街18号,广东省,珠海市,香洲区,横琴,住宿服务;住宿服务相关;住宿服务相关,100000,B0J65GEZTQ,住宿服务,住宿服务相关,住宿服务相关,
113.54420939264644,22.11660712109534,如家美民宿(长隆旅游度假区2号店),德政街13号德政街13号3楼,广东省,珠海市,香洲区,横琴,住宿服务;住宿服务相关;住宿服务相关,100000,B0JB9PUMA9,住宿服务,住宿服务相关,住宿服务相关,
113.54408507070427,22.116690898785855,珠海家门口民宿,横琴新区德政街13号建行楼上三楼,广东省,珠海市,香洲区,横琴,住宿服务;旅馆招待所;旅馆招待所,100200,B0FFLJY8HF,住宿服务,旅馆招待所,旅馆招待所,
113.54420939264644,22.11660712109534,如家美民宿(长隆旅游度假区3号店),德政街13号德政街13号3楼,广东省,珠海市,香洲区,横琴,住宿服务;住宿服务相关;住宿服务相关,100000,B0K1GGRHQX,住宿服务,住宿服务相关,住宿服务相关,
113.5444109026819,22.116638549782515,珠海家门口民宿普通公寓,横琴镇德政街13号3楼,广东省,珠海市,香洲区,横琴,住宿服务;住宿服务相关;住宿服务相关,100000,B0J1GRCXEZ,住宿服务,住宿服务相关,住宿服务相关,
113.54321092392833,22.115183448047176,未见海公寓(珠海横琴海洋王国店),横琴镇永兴街26号,广东省,珠海市,香洲区,横琴,住宿服务;旅馆招待所;旅馆招待所|商务住宅;商务住宅相关;商务住宅相关,100200|120000,B0HRG67YOJ,住宿服务,旅馆招待所,旅馆招待所|商务住宅,商务住宅相关
113.54420939264644,22.11660712109534,如家美民宿(长隆旅游度假区4号店),德政街13号德政街13号3楼,广东省,珠海市,香洲区,横琴,住宿服务;住宿服务相关;住宿服务相关,100000,B0K1GGZDTD,住宿服务,住宿服务相关,住宿服务相关,
113.54337836092165,22.115098764099667,家门口之乐园民宿(海河街分店),横琴镇红旗村永兴街22号,广东省,珠海市,香洲区,横琴,住宿服务;住宿服务相关;住宿服务相关,100000,B0HU964RLB,住宿服务,住宿服务相关,住宿服务相关,
113.54339535092983,22.11594715298457,珠海横琴酒店,横琴镇宝华路18号,广东省,珠海市,香洲区,横琴,住宿服务;旅馆招待所;旅馆招待所,100200,B0FFF60QOB,住宿服务,旅馆招待所,旅馆招待所,
113.54330417266047,22.11505358972511,爱尚精品公寓横琴长隆(永兴街分店),永兴街22号,广东省,珠海市,香洲区,横琴,住宿服务;住宿服务相关;住宿服务相关,100000,B0IAO4W3WB,住宿服务,住宿服务相关,住宿服务相关,
113.54329012612548,22.11521662818514,珠海爱尚精品公寓(长隆旅游度假区3号店),永兴街22号402房,广东省,珠海市,香洲区,横琴,住宿服务;住宿服务相关;住宿服务相关,100000,B0JGYGSF3O,住宿服务,住宿服务相关,住宿服务相关,
113.5433101839714,22.115119629855034,阿乐乐爱喝可乐民宿(长隆旅游度假区4号店),横琴镇永兴街22号3楼302室,广东省,珠海市,香洲区,横琴,住宿服务;住宿服务相关;住宿服务相关,100000,B0JG6GGV61,住宿服务,住宿服务相关,住宿服务相关,
113.54307356828392,22.115196164397023,珠海哥哥民宿(长隆旅游度假区店),风情广场永兴街28号,广东省,珠海市,香洲区,横琴,住宿服务;住宿服务相关;住宿服务相关,100000,B0FFLH7CCY,住宿服务,住宿服务相关,住宿服务相关,
113.54331820514908,22.115111643352773,风情酒店,横琴镇永兴街18号,广东省,珠海市,香洲区,横琴,住宿服务;宾馆酒店;宾馆酒店,100100,B0GR1PV7SO,住宿服务,宾馆酒店,宾馆酒店,
113.54325002455634,22.11518753188224,阿乐乐爱喝可乐民宿(长隆旅游度假区5号店),横琴镇永兴街22号4楼401室,广东省,珠海市,香洲区,横琴,住宿服务;住宿服务相关;住宿服务相关,100000,B0JGKGSZC0,住宿服务,住宿服务相关,住宿服务相关,
113.54329012561726,22.115224631518384,珠海爱尚精品公寓(拱北1号店),永兴街22-24号302房,广东省,珠海市,香洲区,横琴,住宿服务;住宿服务相关;住宿服务相关,100000,B0K6SG6FI2,住宿服务,住宿服务相关,住宿服务相关,
113.54284797918501,22.115272720303608,珠海安徒生主题公寓,横琴新区祥和二巷6号,广东省,珠海市,香洲区,横琴,住宿服务;住宿服务相关;住宿服务相关,100000,B0FFKNN31B,住宿服务,住宿服务相关,住宿服务相关,
113.54265348708904,22.115066222473803,珠海横琴木马客栈,横琴镇永兴街祥和路四巷3号,广东省,珠海市,香洲区,横琴,住宿服务;住宿服务相关;住宿服务相关,100000,B0FFI9OKF4,住宿服务,住宿服务相关,住宿服务相关,
113.54275272834882,22.115329542465705,珠海冰雪海洋世界主题公寓,横琴新区祥和二巷6号,广东省,珠海市,香洲区,横琴,住宿服务;住宿服务相关;住宿服务相关,100000,B0FFKP1KSM,住宿服务,住宿服务相关,住宿服务相关,
113.54324802014656,22.11517552266962,珠海珠海爱尚精品公寓长隆店自建住宅,横琴镇永兴街22号,广东省,珠海市,香洲区,横琴,住宿服务;住宿服务相关;住宿服务相关,100000,B0J1U5487N,住宿服务,住宿服务相关,住宿服务相关,
113.54257024232803,22.115510230783332,珠海梦幻主题公寓(珠海海洋王国店)(3号店),横琴红旗村永兴街40号,广东省,珠海市,香洲区,横琴,住宿服务;旅馆招待所;旅馆招待所,100200,B0FFKAC97G,住宿服务,旅馆招待所,旅馆招待所,
113.54263443715809,22.11507218455384,木马公寓,永兴街与祥和三巷交叉口南40米,广东省,珠海市,香洲区,横琴,住宿服务;旅馆招待所;旅馆招待所,100200,B0KRCM5VZQ,住宿服务,旅馆招待所,旅馆招待所,
113.54266350553817,22.11518629374841,怡墅客栈,横琴镇永兴街祥和四巷2号,广东省,珠海市,香洲区,横琴,住宿服务;住宿服务相关;住宿服务相关,100000,B0IKM6F3IS,住宿服务,住宿服务相关,住宿服务相关,
113.54238580173103,22.11487457369433,海洋主题公寓(珠海长隆横琴海洋王国店),永兴街3巷9号,广东省,珠海市,香洲区,横琴,住宿服务;旅馆招待所;旅馆招待所,100200,B0FFISAJ1S,住宿服务,旅馆招待所,旅馆招待所,
113.54290611051452,22.11557897067755,珠海横琴镇横琴住宿,横琴镇祥和三巷3号,广东省,珠海市,香洲区,横琴,住宿服务;旅馆招待所;旅馆招待所,100200,B0FFFANERM,住宿服务,旅馆招待所,旅馆招待所,
113.54236375462987,22.11470945789325,珠海横琴长隆森林主题度假公寓(6号店),永兴街3巷1号,广东省,珠海市,香洲区,横琴,住宿服务;住宿服务相关;住宿服务相关,100000,B0FFJ6FJ2J,住宿服务,住宿服务相关,住宿服务相关,
113.54268653957052,22.115594512605,珠海尚都舍精品公寓,横琴镇红旗村永兴街36号,广东省,珠海市,香洲区,横琴,住宿服务;旅馆招待所;旅馆招待所,100200,B0FFL32Y22,住宿服务,旅馆招待所,旅馆招待所,
113.54319981675135,22.116422940640827,柏睿公寓,宝华路6号105室,广东省,珠海市,香洲区,横琴,住宿服务;住宿服务相关;住宿服务相关,100000,B0KASMO8KX,住宿服务,住宿服务相关,住宿服务相关,
113.54237076768047,22.114792507459235,珠海海洋极地主题公寓,横琴镇红旗村永兴街4巷1号,广东省,珠海市,香洲区,横琴,住宿服务;住宿服务相关;住宿服务相关,100000,B0GKNN46UX,住宿服务,住宿服务相关,住宿服务相关,
113.54229757528806,22.114811359295388,极地海洋主题公寓,横琴镇红旗村永兴街三巷3号,广东省,珠海市,香洲区,横琴,住宿服务;住宿服务相关;住宿服务相关,100000,B0FFHRGJB3,住宿服务,住宿服务相关,住宿服务相关,
113.54227351671192,22.11474327958771,珠海伟元公寓,横琴永兴四巷17号,广东省,珠海市,香洲区,横琴,住宿服务;住宿服务相关;住宿服务相关,100000,B0JUKZYI4U,住宿服务,住宿服务相关,住宿服务相关,
113.54235568170765,22.11552778167135,珠海山水小筑公寓,横琴新区横琴镇永兴街46号101单元,广东省,珠海市,香洲区,横琴,住宿服务;宾馆酒店;宾馆酒店,100100,B0FFKG80O1,住宿服务,宾馆酒店,宾馆酒店,
113.54234665680784,22.11554877117882,珠海菁英公寓,横琴镇红旗村永兴街51号,广东省,珠海市,香洲区,横琴,住宿服务;住宿服务相关;住宿服务相关,100000,B0FFIEM87J,住宿服务,住宿服务相关,住宿服务相关,
113.54227646681363,22.11565266476046,森海公寓(珠海横琴店),横琴镇红旗村永兴四巷11号昱日城公寓,广东省,珠海市,香洲区,横琴,住宿服务;住宿服务相关;住宿服务相关,100000,B0HDP7KMXQ,住宿服务,住宿服务相关,住宿服务相关,
113.54223036698694,22.1153254300861,昱日城公寓,横琴镇红旗村永兴四巷11号,广东省,珠海市,香洲区,横琴,住宿服务;住宿服务相关;住宿服务相关,100000,B0FFJ0VUQS,住宿服务,住宿服务相关,住宿服务相关,
113.54232660093496,22.115603751321135,珠海林溪山舍,横琴镇红旗村永兴街四巷15号,广东省,珠海市,香洲区,横琴,住宿服务;住宿服务相关;住宿服务相关,100000,B0FFLJWVKQ,住宿服务,住宿服务相关,住宿服务相关,
113.54243091654267,22.114920688971022,冰雪海洋主题公寓,横琴新区祥和二巷4号,广东省,珠海市,香洲区,横琴,住宿服务;住宿服务相关;住宿服务相关,100000,B0FFKP9FL2,住宿服务,住宿服务相关,住宿服务相关,
113.5423606869189,22.11565184399423,山水小筑,祥和三巷与永兴街交叉口西北40米,广东省,珠海市,香洲区,横琴,住宿服务;住宿服务相关;住宿服务相关,100000,B0J3BA2CY3,住宿服务,住宿服务相关,住宿服务相关,
113.56973218340254,22.115912830763687,澳门黑沙青年旅舍,离岛路环海滨路黑沙龙爪角(近黑沙海滩),澳门特别行政区,澳门特别行政区,圣方济各堂区,,住宿服务;旅馆招待所;青年旅舍,100201,B073D00JGC,住宿服务,旅馆招待所,青年旅舍,
113.57013478101432,22.11576317995877,龙辉半岛(第一座),"A Peninsula,Rde Hac Sa Long Chao Kok,Macao",澳门特别行政区,澳门特别行政区,圣方济各堂区,,住宿服务;住宿服务相关;住宿服务相关,100000,B0KDY1URIA,住宿服务,住宿服务相关,住宿服务相关,
113.57281467953011,22.113001583981738,听海轩,卫星路与黑沙兵房路交叉口东340米,澳门特别行政区,澳门特别行政区,圣方济各堂区,,住宿服务;住宿服务相关;住宿服务相关,100000,B0JK1CI3HV,住宿服务,住宿服务相关,住宿服务相关,
113.54430970986604,22.115625919958344,珠海四季旅游公寓(暂停营业),横琴镇宝中路19号,广东省,珠海市,香洲区,横琴,住宿服务;住宿服务相关;住宿服务相关,100000,B0FFGBC7UP,住宿服务,住宿服务相关,住宿服务相关,
113.57959833133911,22.212504584609047,富米国际公寓(港珠澳口岸未来城店),港珠澳口岸城2栋1220,广东省,珠海市,香洲区,,住宿服务;住宿服务相关;住宿服务相关,100000,B0JKK1ETAY,住宿服务,住宿服务相关,住宿服务相关,
113.57966541473,22.212256539648234,微风度假公寓,茂盛二路67号2栋,广东省,珠海市,香洲区,,住宿服务;宾馆酒店;宾馆酒店,100100,B0K64LVQ3W,住宿服务,宾馆酒店,宾馆酒店,
113.57961532427792,22.21288772485505,时光悦享假日酒店(港珠澳未来城店),港珠澳口岸城1栋806房,广东省,珠海市,香洲区,,住宿服务;宾馆酒店;宾馆酒店,100100,B0KUOKJMF1,住宿服务,宾馆酒店,宾馆酒店,
113.57899772166581,22.212411190796477,鑫月湾酒店,茂盛二路67号港珠澳未来城三栋1101室,广东省,珠海市,香洲区,,住宿服务;住宿服务相关;住宿服务相关,100000,B0K1DDI8FW,住宿服务,住宿服务相关,住宿服务相关,
113.57877448108646,22.21252909218934,珠海柏睿公寓(港珠澳口岸城店),北珠一路港珠澳口岸城7栋401,广东省,珠海市,香洲区,,住宿服务;宾馆酒店;宾馆酒店|住宿服务;旅馆招待所;旅馆招待所,100100|100200,B0KGTM7JY5,住宿服务,宾馆酒店,宾馆酒店|住宿服务,旅馆招待所
113.57888160127116,22.212402115838163,桔宿行政公寓(珠海港珠澳口岸未来城店),茂盛二路67号3栋713室,广东省,珠海市,香洲区,,住宿服务;住宿服务相关;住宿服务相关,100000,B0KUDSAKPO,住宿服务,住宿服务相关,住宿服务相关,
113.57964038588928,22.21231354436017,微风海景度假美宿,茂盛二路67号7幢,广东省,珠海市,香洲区,,住宿服务;住宿服务相关;住宿服务相关,100000,B0K2PHIGG1,住宿服务,住宿服务相关,住宿服务相关,
113.57861230406944,22.21262702331419,茂客滨海度假公寓(港珠澳大桥店),茂盛二路67号港珠澳口岸城一期2栋401室,广东省,珠海市,香洲区,,住宿服务;宾馆酒店;宾馆酒店,100100,B0K62M6VXD,住宿服务,宾馆酒店,宾馆酒店,
113.578396076807,22.212588872271994,珠海雅汇国际公寓(港珠澳口岸城店),北珠二路世茂港珠澳口岸城2栋1901号,广东省,珠海市,香洲区,,住宿服务;住宿服务相关;住宿服务相关,100000,B0KA47ZQHK,住宿服务,住宿服务相关,住宿服务相关,
113.57851319052664,22.21276200617202,斯维登精品公寓(珠海港珠澳口岸城店),茂盛二路67号世茂口岸城1栋2014房,广东省,珠海市,香洲区,,住宿服务;旅馆招待所;旅馆招待所|住宿服务;宾馆酒店;宾馆酒店,100200|100100,B0K62RED1U,住宿服务,旅馆招待所,旅馆招待所|住宿服务,宾馆酒店
113.57854519987607,22.213151158765065,欢喜海景度假公寓,茂盛二路67号7栋2121室,广东省,珠海市,香洲区,,住宿服务;旅馆招待所;旅馆招待所|住宿服务;宾馆酒店;宾馆酒店,100200|100100,B0KABMSXL9,住宿服务,旅馆招待所,旅馆招待所|住宿服务,宾馆酒店
113.57884354637025,22.21264117345374,海阔天空全海景民宿,港东一路与港珠澳路交叉口北360米,广东省,珠海市,香洲区,,住宿服务;旅馆招待所;旅馆招待所,100200,B0KR9ZCPCX,住宿服务,旅馆招待所,旅馆招待所,
113.57957628088623,22.212949722905442,旅享家国际公寓,G94珠三角環線高速与G94珠三角環線高速出口交叉口西300米,广东省,珠海市,香洲区,,住宿服务;旅馆招待所;旅馆招待所,100200,B0KA61BYO9,住宿服务,旅馆招待所,旅馆招待所,
113.57894265425759,22.2125712112149,珠海海阔天空假日酒店,茂盛二路67号,广东省,珠海市,香洲区,,住宿服务;住宿服务相关;住宿服务相关,100000,B0KD5HUVOZ,住宿服务,住宿服务相关,住宿服务相关,
113.57834700546252,22.21288794229573,高级管家苏经理公寓(北珠一路分店),北珠一路港珠澳口岸城一期(正门)世茂港珠澳口岸城,广东省,珠海市,香洲区,,商务住宅;住宅区;住宅小区|住宿服务;住宿服务相关;住宿服务相关,120302|100000,B0J0ON9NOE,商务住宅,住宅区,住宅小区|住宿服务,住宿服务相关
113.57833501040888,22.212606839006366,华莱士私人酒店公寓,茂盛二路67号(港珠澳口岸城)2栋2519室,广东省,珠海市,香洲区,,住宿服务;住宿服务相关;住宿服务相关,100000,B0KDBHUWOY,住宿服务,住宿服务相关,住宿服务相关,
113.57843311484766,22.21261190390296,恭囍里·海景酒店,港东一路与港珠澳路交叉口西北380米,广东省,珠海市,香洲区,,住宿服务;宾馆酒店;宾馆酒店,100100,B0K3M7U1DV,住宿服务,宾馆酒店,宾馆酒店,
113.58833552445323,22.130899428608966,澳门明爱圣路济亚中心,"Centro De Santa Lucia,Vila Nossa Senhora,Lar Nos,Macao",澳门特别行政区,澳门特别行政区,圣方济各堂区,,住宿服务;宾馆酒店;宾馆酒店,100100,B0KUCR319M,住宿服务,宾馆酒店,宾馆酒店,
