lon,lat,name,address,pname,cityname,adname,business_area,type,typecode,id,type1,type2,type3,type4
113.55302560936963,22.191416998612038,叠记咖喱(皇朝星海店),冼星海大马路423-427号,澳门特别行政区,澳门特别行政区,大堂区,,餐饮服务;餐饮相关场所;餐饮相关,050000,B0JD9RXOTM,餐饮服务,餐饮相关场所,餐饮相关,
113.5530526763377,22.191301003889336,星海茶餐室(星海豪庭店),宋玉生广场(皇朝)冼星海大马路407号,澳门特别行政区,澳门特别行政区,大堂区,,餐饮服务;快餐厅;茶餐厅,050305,B073D00F8C,餐饮服务,快餐厅,茶餐厅,
113.55267984580179,22.191407392908665,天福台式铁板烧(星海豪庭店),柏林街260号(澳门柏林街148号),澳门特别行政区,澳门特别行政区,大堂区,,餐饮服务;中餐厅;中餐厅,050100,B0FFIXJSJS,餐饮服务,中餐厅,中餐厅,
113.55301760594266,22.191192904212116,鮨玥(星海豪庭店),冼星海大马路399号(澳门巴黎街255号星海豪庭地下AA座),澳门特别行政区,澳门特别行政区,大堂区,,餐饮服务;外国餐厅;外国餐厅,050200,B0H2P7R73X,餐饮服务,外国餐厅,外国餐厅,
113.55183296898987,22.191163810467387,举杯烤肉专门店,宋玉生广场(皇朝)马济时总督大马路430号星海豪庭1楼A铺,澳门特别行政区,澳门特别行政区,大堂区,,餐饮服务;中餐厅;中餐厅,050100,B0FFG7ZD5L,餐饮服务,中餐厅,中餐厅,
113.5522569656865,22.190443303244813,孖宝美食(南岸花园店),马济时总督大马路352-362号南岸花园正街地下AD铺,澳门特别行政区,澳门特别行政区,大堂区,,餐饮服务;中餐厅;中餐厅,050100,B0FFIH1ODJ,餐饮服务,中餐厅,中餐厅,
113.55223391131211,22.1904882787303,三宝冰室(皇朝店),澳门马济时总督大马路南岸花园365号AH铺,澳门特别行政区,澳门特别行政区,大堂区,,餐饮服务;中餐厅;中餐厅,050100,B0FFHY9V54,餐饮服务,中餐厅,中餐厅,
113.55152833307042,22.190345971640653,青洲灶记咖啡(富达花园店),巴黎街富达花园地铺G,澳门特别行政区,澳门特别行政区,大堂区,,餐饮服务;咖啡厅;咖啡厅,050500,B0FFJ0AHKG,餐饮服务,咖啡厅,咖啡厅,
113.55196733476046,22.19016068855966,茶茶子外带寿司(富达花园店),马济时总督大马路345号富达花园地下,澳门特别行政区,澳门特别行政区,大堂区,,餐饮服务;外国餐厅;日本料理,050202,B0FFL94KU5,餐饮服务,外国餐厅,日本料理,
113.55122460972885,22.190880617494095,面屋黑桂华(大丰广场晓丰阁店),"柏林街112号,大丰广场翠丰阁地下及一楼K座",澳门特别行政区,澳门特别行政区,大堂区,,餐饮服务;餐饮相关场所;餐饮相关,050000,B0FFIWSU52,餐饮服务,餐饮相关场所,餐饮相关,
113.55243440271121,22.18979338166656,新濠仔海鲜美食,马济时总督大马路262-268号恒基花园地下,澳门特别行政区,澳门特别行政区,大堂区,,餐饮服务;中餐厅;中餐厅,050100,B073D0MEDI,餐饮服务,中餐厅,中餐厅,
113.5558617048775,22.191200681291722,珀克餐厅,孙逸仙大马路澳门渔人码头励庭海景酒店阁楼,澳门特别行政区,澳门特别行政区,大堂区,,餐饮服务;外国餐厅;外国餐厅,050200,B0FFGDSZ1Y,餐饮服务,外国餐厅,外国餐厅,
113.55229209189977,22.18969009380078,家常便饭,澳门马济时总督大马路265号建兴隆广场地下AG铺,澳门特别行政区,澳门特别行政区,大堂区,,餐饮服务;中餐厅;中餐厅,050100,B0FFJ9WDU9,餐饮服务,中餐厅,中餐厅,
113.55033047822167,22.192148443068266,新口岸葡国餐,新口岸宋玉生广场606H-606G中裕大厦L层,澳门特别行政区,澳门特别行政区,大堂区,,餐饮服务;外国餐厅;葡国菜,050213,B073D0M43V,餐饮服务,外国餐厅,葡国菜,
113.55043273342964,22.191848523428114,新康记,宋玉生广场606G号(澳门友谊大马路747F号地下),澳门特别行政区,澳门特别行政区,大堂区,,餐饮服务;餐饮相关场所;餐饮相关,050000,B0FFIJVLYS,餐饮服务,餐饮相关场所,餐饮相关,
113.55033450402516,22.19188835719139,亚热带咖啡美食,新口岸北京街147号地下,澳门特别行政区,澳门特别行政区,大堂区,,餐饮服务;快餐厅;快餐厅,050300,B0FFF9DYM6,餐饮服务,快餐厅,快餐厅,
113.55031846230747,22.19196135386155,兴旺发大排档,宋玉生广场606-J中裕花园地下N铺,澳门特别行政区,澳门特别行政区,大堂区,,餐饮服务;中餐厅;中餐厅,050100,B0J1UA5VQ6,餐饮服务,中餐厅,中餐厅,
113.55030445173644,22.191617204570875,金越越南牛肉粉(新口岸店),友谊大马路733号中富大厦地下,澳门特别行政区,澳门特别行政区,大堂区,,餐饮服务;外国餐厅;泰国/越南菜品餐厅,050206,B0JUOS9GKK,餐饮服务,外国餐厅,泰国/越南菜品餐厅,
113.5515373872473,22.189814796471165,三六九冰室,新口岸诚丰商业中心地下AI铺及1层(布鲁塞尔街67号),澳门特别行政区,澳门特别行政区,大堂区,,餐饮服务;冷饮店;冷饮店,050700,B0IDD6S2HP,餐饮服务,冷饮店,冷饮店,
113.55048477803095,22.193038045124084,德悦轩,果亚街与昆明街交叉口南40米,澳门特别行政区,澳门特别行政区,大堂区,,餐饮服务;中餐厅;中餐厅,050100,B0J6ABT2SN,餐饮服务,中餐厅,中餐厅,
113.55217685442999,22.189372775785476,新记火锅美食(皇朝罗马街店),宋玉生广场(皇朝)罗马街99号地下,澳门特别行政区,澳门特别行政区,大堂区,,餐饮服务;中餐厅;火锅店,050117,B073D00LT8,餐饮服务,中餐厅,火锅店,
113.5522550270609,22.18940692622873,杏苑烧腊美食(兴海阁店),新口岸罗马街105号地下铺,澳门特别行政区,澳门特别行政区,大堂区,,餐饮服务;中餐厅;中餐厅,050100,B0FFJDGFDI,餐饮服务,中餐厅,中餐厅,
113.55250760742493,22.189134272415004,渔兵卫海鲜丼(皇朝店),马济时大马路195号东南亚花园地下AO(金沙),澳门特别行政区,澳门特别行政区,大堂区,,餐饮服务;餐饮相关场所;餐饮相关,050000,B0FFIK0LIZ,餐饮服务,餐饮相关场所,餐饮相关,
113.55014203548981,22.19224913177594,忠成饺子王(利澳店),高美士街40-A号南园地下G及H座68-G,澳门特别行政区,澳门特别行政区,大堂区,,餐饮服务;餐饮相关场所;餐饮相关,050000,B0FFKPFQM4,餐饮服务,餐饮相关场所,餐饮相关,
113.5561431548802,22.193334901033804,roman gelato,毕仕达大马路18号,澳门特别行政区,澳门特别行政区,大堂区,,餐饮服务;冷饮店;冷饮店,050700,B0KAC91C3I,餐饮服务,冷饮店,冷饮店,
113.55240938834007,22.189141102279986,太阳冰室(皇朝店),罗马街110号东南亚商业中心AK座一楼,澳门特别行政区,澳门特别行政区,大堂区,,餐饮服务;餐饮相关场所;餐饮相关,050000,B0IG2CA0FF,餐饮服务,餐饮相关场所,餐饮相关,
113.55661419767085,22.192217254829345,太艮堡陈老太顺德料理(澳门渔人码头店),友谊大马路澳门渔人码头意大利馆地铺,澳门特别行政区,澳门特别行政区,大堂区,,餐饮服务;中餐厅;中餐厅,050100,B0FFG9CP9I,餐饮服务,中餐厅,中餐厅,
113.55254270562672,22.188816219088388,澳门海王冰室(皇朝店),马济时总督大马路100号东南亚花园地下AT及AU铺,澳门特别行政区,澳门特别行政区,大堂区,,餐饮服务;餐饮相关场所;餐饮相关,050000,B0FFIJPY4R,餐饮服务,餐饮相关场所,餐饮相关,
113.55256074183939,22.188877272783273,仨胜茶记,澳门马济总督大马路177号东南亚花园地下AS座,澳门特别行政区,澳门特别行政区,大堂区,,餐饮服务;餐饮相关场所;餐饮相关,050000,B0IUSXDBUQ,餐饮服务,餐饮相关场所,餐饮相关,
113.54986536587259,22.192665768554054,喜粤8号(利澳酒店店),高美士街与宋玉生广场交叉口东北40米,澳门特别行政区,澳门特别行政区,大堂区,,餐饮服务;中餐厅;中餐厅,050100,B0FFJ7Y4PF,餐饮服务,中餐厅,中餐厅,
113.55377098919267,22.195374695528287,陶香居酒家(中莲大厦店),高美士街564号(鸿安中心),澳门特别行政区,澳门特别行政区,大堂区,,餐饮服务;中餐厅;中餐厅,050100,B073D00KDU,餐饮服务,中餐厅,中餐厅,
113.55418790365121,22.19518033394372,九记饭店,毕仕达大马路54号D鸿安中心第三座地下,澳门特别行政区,澳门特别行政区,大堂区,,餐饮服务;中餐厅;中餐厅,050100,B073D00LXV,餐饮服务,中餐厅,中餐厅,
113.55692283910567,22.192064689198705,厨泰餐厅(渔人码头店),友谊大马路3号铺渔人码头阿姆斯特丹馆,澳门特别行政区,澳门特别行政区,大堂区,,餐饮服务;外国餐厅;泰国/越南菜品餐厅,050206,B073D0M526,餐饮服务,外国餐厅,泰国/越南菜品餐厅,
113.55158052900217,22.189118622565648,宫斗烧肉,澳门特别行政区澳门特别行政区大堂区,澳门特别行政区,澳门特别行政区,大堂区,,餐饮服务;外国餐厅;日本料理,050202,B0HG3ADKZC,餐饮服务,外国餐厅,日本料理,
113.55692276563018,22.193222103557275,零角度Zero Angle,渔人码头罗马及英国馆08商铺地下,澳门特别行政区,澳门特别行政区,大堂区,,餐饮服务;餐饮相关场所;餐饮相关,050000,B0IDFUVR1A,餐饮服务,餐饮相关场所,餐饮相关,
113.55270007747562,22.18846036595951,李家宴(环宇豪庭店),澳门特别行政区大堂区马济时大马路与伦敦街交汇116号AC地铺,澳门特别行政区,澳门特别行政区,大堂区,,餐饮服务;中餐厅;中餐厅,050100,B0FFKB83TJ,餐饮服务,中餐厅,中餐厅,
113.55411772535643,22.195605366507024,金龙轩(马六甲街店),马六甲街17-103号金龙酒店主楼4楼,澳门特别行政区,澳门特别行政区,大堂区,,体育休闲服务;娱乐场所;夜总会|体育休闲服务;娱乐场所;博彩中心|餐饮服务;中餐厅;中餐厅,080301|080307|050100,B073D00BFD,体育休闲服务,娱乐场所,夜总会|体育休闲服务,娱乐场所
113.55730668248896,22.191064933037634,金悦轩海鲜酒家(渔人码头店),渔人码头新奥尔良I栋,澳门特别行政区,澳门特别行政区,大堂区,,餐饮服务;中餐厅;中餐厅,050100,B0FFG9DS8A,餐饮服务,中餐厅,中餐厅,
113.55189027922788,22.188304881456297,友吉利冰室,澳门皇朝伦敦街42号环宇豪庭地下室,澳门特别行政区,澳门特别行政区,大堂区,,餐饮服务;餐饮相关场所;餐饮相关,050000,B0I0RX6L4E,餐饮服务,餐饮相关场所,餐饮相关,
113.54978735658577,22.189944645862095,九点海鲜火锅,圣德伦街491号皇朝广场地下,澳门特别行政区,澳门特别行政区,大堂区,,餐饮服务;中餐厅;中餐厅,050100,B0FFG9BUFP,餐饮服务,中餐厅,中餐厅,
113.55282236352679,22.188218491877592,PaperMoon·Bistro,马济时总督大马路97-103号,澳门特别行政区,澳门特别行政区,大堂区,,餐饮服务;中餐厅;中餐厅,050100,B0FFJ0HBP6,餐饮服务,中餐厅,中餐厅,
113.54910767156301,22.19136388315718,馔贵楼特色海鲜火锅,友谊大马路555号新东方置地酒店一楼,澳门特别行政区,澳门特别行政区,大堂区,,餐饮服务;餐饮相关场所;餐饮相关,050000,B0J2250PEU,餐饮服务,餐饮相关场所,餐饮相关,
113.54969416054824,22.189604349576566,谭家鱼翅海鲜饭店《皇朝店》,澳门圣德伦街490及494楼获多利大厦,澳门特别行政区,澳门特别行政区,大堂区,,餐饮服务;中餐厅;中餐厅,050100,B0FFHKO8FO,餐饮服务,中餐厅,中餐厅,
113.54951673064657,22.189835101439893,好运来海鲜饭店,圣德偷街483-495号皇朝广场地下及一楼AD AE AF AG铺,澳门特别行政区,澳门特别行政区,大堂区,,餐饮服务;中餐厅;海鲜酒楼,050119,B0KGPU6FYM,餐饮服务,中餐厅,海鲜酒楼,
113.54879895563431,22.191135216818907,海王冰室(置地酒店分店),友谊大马路555号澳门置地酒店地下14及15号铺,澳门特别行政区,澳门特别行政区,大堂区,,餐饮服务;餐饮相关场所;餐饮相关,050000,B0J09HT0ZN,餐饮服务,餐饮相关场所,餐饮相关,
113.54872570046385,22.192416537512603,金悦轩海鲜酒家(富泽园店),宋玉生广场699-707-A富泽园大厦AR/C,澳门特别行政区,澳门特别行政区,大堂区,,餐饮服务;中餐厅;火锅店,050117,B073D00ARD,餐饮服务,中餐厅,火锅店,
113.5539443067989,22.196294317262286,食得是福美食(皇家金堡分店),"马六甲街166号,海港街63号国际中心I地下及阁楼CG,CO及CP座",澳门特别行政区,澳门特别行政区,大堂区,,餐饮服务;中餐厅;中餐厅,050100,B0FFIBHBHZ,餐饮服务,中餐厅,中餐厅,
113.54870967566877,22.192207432101597,三只小猪茶餐厅,北京街富泽园地下G铺,澳门特别行政区,澳门特别行政区,大堂区,,餐饮服务;快餐厅;茶餐厅,050305,B0ID7BDBAB,餐饮服务,快餐厅,茶餐厅,
113.54918697707762,22.18949636024348,忠成饺子王(星际店),圣德伦街396-434号获多利大厦地下及一楼B-F座,澳门特别行政区,澳门特别行政区,大堂区,,餐饮服务;餐饮相关场所;餐饮相关,050000,B0FFIXLKOF,餐饮服务,餐饮相关场所,餐饮相关,
113.54933032701781,22.189299558810323,肥仔文美食(皇朝店),圣德伦街474号获多利大厦地下j铺,澳门特别行政区,澳门特别行政区,大堂区,,餐饮服务;中餐厅;中餐厅,050100,B0FFKT45FO,餐饮服务,中餐厅,中餐厅,
113.54928019952956,22.18945051911417,澳门彭厨,圣德伦街438号获多利大厦地下G座,澳门特别行政区,澳门特别行政区,大堂区,,餐饮服务;餐饮相关场所;餐饮相关,050000,B0FFKDQSVV,餐饮服务,餐饮相关场所,餐饮相关,
113.54839595016144,22.19186571116394,麦当劳(澳门金融中心店),澳门维景酒店正门对面,澳门特别行政区,澳门特别行政区,大堂区,,餐饮服务;快餐厅;麦当劳,050302,B0G2JSIPOD,餐饮服务,快餐厅,麦当劳,
113.55627126332296,22.195809989116484,巴黎餐厅(澳门渔人码头店),孙逸仙大马路澳门渔人码头励宫酒店地面层,澳门特别行政区,澳门特别行政区,大堂区,,餐饮服务;中餐厅;中餐厅,050100,B0FFICH07E,餐饮服务,中餐厅,中餐厅,
113.5482686230467,22.192224595967733,京澳璇宫(澳门维景酒店),北京街与上海街交叉口东北60米,澳门特别行政区,澳门特别行政区,大堂区,,餐饮服务;外国餐厅;外国餐厅,050200,B0FFF310KE,餐饮服务,外国餐厅,外国餐厅,
113.5482686230467,22.192224595967733,金满轩(澳门维景酒店),北京街与上海街交叉口东北60米,澳门特别行政区,澳门特别行政区,大堂区,,餐饮服务;中餐厅;中餐厅,050100,B073D0M5XZ,餐饮服务,中餐厅,中餐厅,
113.55788591341523,22.19002745780222,怡景餐厅,孙逸仙大马路澳门渔人码头莱斯酒店地面层,澳门特别行政区,澳门特别行政区,大堂区,,餐饮服务;中餐厅;中餐厅,050100,B073D0M3BB,餐饮服务,中餐厅,中餐厅,
113.55670517857978,22.19546455886394,励皇轩,励宫酒店2层,澳门特别行政区,澳门特别行政区,大堂区,,餐饮服务;中餐厅;中餐厅,050100,B0H1M7YTKM,餐饮服务,中餐厅,中餐厅,
113.54801609188459,22.19105369006957,帝濠轩,上海街51号帝濠酒店1层,澳门特别行政区,澳门特别行政区,大堂区,,餐饮服务;餐饮相关场所;餐饮相关,050000,B0FFHKP6H5,餐饮服务,餐饮相关场所,餐饮相关,
113.54800699913027,22.192171073708526,酸辣粉(海冠中心店),上海街与北京街交叉口北40米,澳门特别行政区,澳门特别行政区,大堂区,,餐饮服务;中餐厅;中餐厅,050100,B073D00BMD,餐饮服务,中餐厅,中餐厅,
113.54811528466425,22.19176813770093,六楼后座冰室,北京街129号,澳门特别行政区,澳门特别行政区,大堂区,,餐饮服务;冷饮店;冷饮店,050700,B0ID7MQFY6,餐饮服务,冷饮店,冷饮店,
113.55025555839599,22.188151865199558,东来顺(光辉集团商业中心店),科英布拉街484号光辉商业中心M室铺中土大厦A1室,澳门特别行政区,澳门特别行政区,大堂区,,餐饮服务;中餐厅;火锅店,050117,B0FFFTYEFF,餐饮服务,中餐厅,火锅店,
113.54978245250385,22.188252025360686,新好财运海鲜火锅饭店(好景轩),科英布拉街430–438号光辉苑地下及一楼E﹑F﹑G铺,澳门特别行政区,澳门特别行政区,大堂区,,餐饮服务;餐饮相关场所;餐饮相关,050000,B0FFG3BDFU,餐饮服务,餐饮相关场所,餐饮相关,
113.5478606629865,22.19192070141322,欢喜牛杂,上海街158号海冠中心地下W,澳门特别行政区,澳门特别行政区,大堂区,,餐饮服务;餐饮相关场所;餐饮相关,050000,B0JACMM8GE,餐饮服务,餐饮相关场所,餐饮相关,
113.54818157777432,22.18965350428929,翠华餐厅(星际酒店),仙德丽街338号星际酒店1楼,澳门特别行政区,澳门特别行政区,大堂区,,餐饮服务;中餐厅;中餐厅,050100,B0FFHKPOQX,餐饮服务,中餐厅,中餐厅,
113.54808233084626,22.18979436423029,风味居,澳门星际酒店5楼(皇朝),澳门特别行政区,澳门特别行政区,大堂区,,餐饮服务;中餐厅;中餐厅,050100,B0FFHD8NH6,餐饮服务,中餐厅,中餐厅,
113.54801818043951,22.189737220059037,丹桂轩(星际酒店店),半岛(宋玉生广场皇朝)友谊大马路星际酒店2层,澳门特别行政区,澳门特别行政区,大堂区,,餐饮服务;中餐厅;中餐厅,050100,B073D00AXK,餐饮服务,中餐厅,中餐厅,
113.54873796633011,22.188685217761527,凯旋门Coffee Shop,新口岸皇朝区城市日大马路278号澳门凯旋门酒店4楼,澳门特别行政区,澳门特别行政区,大堂区,,餐饮服务;咖啡厅;咖啡厅,050500,B0FFFD8CK7,餐饮服务,咖啡厅,咖啡厅,
113.54752191046633,22.190887673328852,松花湖自助小火锅(怡涛阁店),上海街21G-21H号怡涛阁一楼及二楼,澳门特别行政区,澳门特别行政区,大堂区,,餐饮服务;餐饮相关场所;餐饮相关,050000,B0FFIT3X7R,餐饮服务,餐饮相关场所,餐饮相关,
113.54795204885018,22.189305936895032,passion,城市日大马路与圣德伦街交叉口北20米,澳门特别行政区,澳门特别行政区,大堂区,,餐饮服务;餐饮相关场所;餐饮相关,050000,B0FFKBD5RB,餐饮服务,餐饮相关场所,餐饮相关,
113.550799909638,22.186620307156193,澳门黄金海岸餐厅(皇朝店),孙逸仙大马路宋玉生广场皇朝孙逸仙大马路1403-1407号,澳门特别行政区,澳门特别行政区,大堂区,,餐饮服务;中餐厅;中餐厅,050100,B073D00B9R,餐饮服务,中餐厅,中餐厅,
113.54691140139428,22.191259612215195,旺旺烧烤(怡珍阁店),北京街怡珍阁地下a2,澳门特别行政区,澳门特别行政区,大堂区,,餐饮服务;中餐厅;特色/地方风味餐厅,050118,B0IDY5UYQN,餐饮服务,中餐厅,特色/地方风味餐厅,
113.55021355923132,22.186605226833937,公鸡葡国餐厅(帝景苑店),伦斯泰特大马路32-36号帝景苑AF-AG铺,澳门特别行政区,澳门特别行政区,大堂区,,餐饮服务;外国餐厅;葡国菜,050213,B073D00FU2,餐饮服务,外国餐厅,葡国菜,
113.54903577696902,22.187026181017735,丰收台葡国餐,宋玉生广场(皇朝)柏嘉街336号雅诗阁酒店1楼,澳门特别行政区,澳门特别行政区,大堂区,,餐饮服务;餐饮相关场所;餐饮相关,050000,B0G1CCS7Y1,餐饮服务,餐饮相关场所,餐饮相关,
113.54669291480464,22.190495906601534,协成海鲜火锅(新口岸店),广州街72E72F怡安阁2层,澳门特别行政区,澳门特别行政区,大堂区,,餐饮服务;中餐厅;火锅店,050117,B073D0MEE4,餐饮服务,中餐厅,火锅店,
113.54657250569304,22.192283310431407,联邦大酒楼,山边街16-28号新口岸5楼,澳门特别行政区,澳门特别行政区,大堂区,,餐饮服务;中餐厅;中餐厅,050100,B0FFFXFA85,餐饮服务,中餐厅,中餐厅,
113.55019852274923,22.186631208536998,经典意大利餐厅,半岛宋玉生广场伦斯泰特大马路40-46号帝景苑,澳门特别行政区,澳门特别行政区,大堂区,,餐饮服务;外国餐厅;意式菜品餐厅,050205,B073D00FU3,餐饮服务,外国餐厅,意式菜品餐厅,
113.54906585124256,22.18697521931603,顺轩海鲜火锅酒家,宋玉生广场(皇朝)柏嘉街336-364号雅诗阁酒店1楼,澳门特别行政区,澳门特别行政区,大堂区,,餐饮服务;餐饮相关场所;餐饮相关,050000,B0FFH00PMH,餐饮服务,餐饮相关场所,餐饮相关,
113.54904880966107,22.186996194750275,御瀛日本料理,澳门雅诗阁酒店一楼,澳门特别行政区,澳门特别行政区,大堂区,,餐饮服务;餐饮相关场所;餐饮相关,050000,B0FFHAWDRQ,餐饮服务,餐饮相关场所,餐饮相关,
113.54664780780243,22.190437796494766,冯记鲍翅海鲜火锅酒家(怡安阁店),新口岸广州街38-42号怡安阁1层,澳门特别行政区,澳门特别行政区,大堂区,,餐饮服务;中餐厅;火锅店,050117,B073D00BMA,餐饮服务,中餐厅,火锅店,
113.54730149887908,22.18894854450248,京花轩(永利澳门店),宋玉生广场(皇朝)外港填海区仙德丽街永利澳门酒店,澳门特别行政区,澳门特别行政区,大堂区,,餐饮服务;中餐厅;综合酒楼,050101,B073D00LW8,餐饮服务,中餐厅,综合酒楼,
113.54634602363457,22.1910934337622,荣记牛杂(十月一日前地店),广州街112号,澳门特别行政区,澳门特别行政区,大堂区,,餐饮服务;餐饮相关场所;餐饮相关,050000,B0I2GHEB0Z,餐饮服务,餐饮相关场所,餐饮相关,
113.54608040574402,22.19048668586914,阿一鲍鱼(金华阁店),大堂区广州街63号财神酒店7层,澳门特别行政区,澳门特别行政区,大堂区,,餐饮服务;中餐厅;火锅店,050117,B0HKDU1APD,餐饮服务,中餐厅,火锅店,
113.5570143931206,22.18626473902282,麦当劳(澳门科学馆店),孙逸仙大马路澳门科学馆,澳门特别行政区,澳门特别行政区,大堂区,,餐饮服务;快餐厅;快餐厅,050300,B0FFHWQOCO,餐饮服务,快餐厅,快餐厅,
113.5494036919849,22.186263596448473,麦当劳(利景阁海景花园店),城市日大马路26-36号地下及1楼,澳门特别行政区,澳门特别行政区,大堂区,,餐饮服务;快餐厅;麦当劳,050302,B073D0M39U,餐饮服务,快餐厅,麦当劳,
113.54613457130732,22.18999061538467,东湖海鲜火锅酒家(新口岸店),新口岸澳门友谊大马路金华阁57号-67号B和1字楼CB商场,澳门特别行政区,澳门特别行政区,大堂区,,餐饮服务;餐饮相关场所;餐饮相关,050000,B0FFKC4G7I,餐饮服务,餐饮相关场所,餐饮相关,
113.5457114190968,22.191595344471175,聚龙酒家(富豪花园店),罗理基博士大马路103-107号富豪花园1层,澳门特别行政区,澳门特别行政区,大堂区,,餐饮服务;中餐厅;海鲜酒楼,050119,B073D00B8X,餐饮服务,中餐厅,海鲜酒楼,
113.54717873876531,22.196219908735618,花道葡萄牙餐厅(皇都酒店),东望洋得胜马路2-4号皇都酒店M楼,澳门特别行政区,澳门特别行政区,望德堂区,,餐饮服务;外国餐厅;外国餐厅,050200,B0FFF5PJZE,餐饮服务,外国餐厅,外国餐厅,
113.54760373270986,22.19680794632943,西湾安记(得胜分店),得胜马路14A号泉碧楼地下,澳门特别行政区,澳门特别行政区,望德堂区,,餐饮服务;快餐厅;快餐厅,050300,B0FFHLONT7,餐饮服务,快餐厅,快餐厅,
113.54564708555378,22.194324191463263,金越越南牛肉粉(东望洋店),东望洋新街206号,澳门特别行政区,澳门特别行政区,大堂区,,餐饮服务;餐饮相关场所;餐饮相关,050000,B0IA9RTSYD,餐饮服务,餐饮相关场所,餐饮相关,
113.54608814342265,22.194920288879352,华泰食馆,岗陵街与东望洋新街交叉口北20米,澳门特别行政区,澳门特别行政区,大堂区,,餐饮服务;外国餐厅;外国餐厅,050200,B0FFFXEIV8,餐饮服务,外国餐厅,外国餐厅,
113.54646950101564,22.188365695301595,咖啡苑,宋玉生广场(皇朝)澳门外港填海区仙德丽街永利澳门酒店地面层,澳门特别行政区,澳门特别行政区,大堂区,,餐饮服务;咖啡厅;咖啡厅,050500,B073D0M5WG,餐饮服务,咖啡厅,咖啡厅,
113.54543579565734,22.190582424374625,北海道日本料理,澳门半岛殷丰素皇前地117-137号B1-3层,澳门特别行政区,澳门特别行政区,大堂区,,餐饮服务;外国餐厅;日本料理,050202,B0FFGEREIB,餐饮服务,外国餐厅,日本料理,
113.54571826865818,22.194233302348476,Palette Dessert Gallery(永诚大厦店),东望洋新街与腊八街交叉口东北20米,澳门特别行政区,澳门特别行政区,大堂区,,餐饮服务;餐饮相关场所;餐饮相关,050000,B0FFJ212NB,餐饮服务,餐饮相关场所,餐饮相关,
113.54788106167494,22.18641175132389,盛事,澳门美高梅1楼,澳门特别行政区,澳门特别行政区,大堂区,,餐饮服务;外国餐厅;外国餐厅,050200,B0FFF501KM,餐饮服务,外国餐厅,外国餐厅,
113.54515810207356,22.19054784901349,好彩海鲜火锅饭店,贾罗布大马路102号全幢,澳门特别行政区,澳门特别行政区,大堂区,,餐饮服务;中餐厅;火锅店,050117,B073D00K7S,餐饮服务,中餐厅,火锅店,
113.54604144851551,22.188292816085454,永利轩,外港填海区仙德丽街永利澳门酒店地面层,澳门特别行政区,澳门特别行政区,大堂区,,餐饮服务;中餐厅;中餐厅,050100,B073D0M4RX,餐饮服务,中餐厅,中餐厅,
113.5453443206461,22.194458627835377,和阳小日(永光大厦店),高冠街21号A永光大厦地下,澳门特别行政区,澳门特别行政区,大堂区,,餐饮服务;外国餐厅;外国餐厅,050200,B0FFIYD3M0,餐饮服务,外国餐厅,外国餐厅,
113.54604144889745,22.188286813913997,红8粥面,外港填海区仙德丽街永利澳门酒店地面层,澳门特别行政区,澳门特别行政区,大堂区,,餐饮服务;餐饮相关场所;餐饮相关,050000,B073D0M37N,餐饮服务,餐饮相关场所,餐饮相关,
113.5451069674852,22.19064477994214,永胜美食,新口岸贾罗布大马路120号,澳门特别行政区,澳门特别行政区,大堂区,,餐饮服务;中餐厅;中餐厅,050100,B073D00DRO,餐饮服务,中餐厅,中餐厅,
113.5454765970001,22.195317201219403,金利食店,岗陵街与马大臣街交叉口东20米,澳门特别行政区,澳门特别行政区,大堂区,,餐饮服务;中餐厅;中餐厅,050100,B0I1FOX13T,餐饮服务,中餐厅,中餐厅,
113.54675764689043,22.19721643406886,渔兵卫(塔石店),东望洋东望洋街23-25B号地铺,澳门特别行政区,澳门特别行政区,望德堂区,,餐饮服务;餐饮相关场所;餐饮相关,050000,B0FFHCTNDE,餐饮服务,餐饮相关场所,餐饮相关,
113.54549261816197,22.195614339263898,永安咖啡室,马大臣街4号联丰大厦地下及阁仔B座,澳门特别行政区,澳门特别行政区,大堂区,,餐饮服务;咖啡厅;咖啡厅,050500,B073D00FSF,餐饮服务,咖啡厅,咖啡厅,
113.54515182058181,22.194732334831848,富仕葡式美食,罗宪新街16号地下,澳门特别行政区,澳门特别行政区,大堂区,,餐饮服务;外国餐厅;外国餐厅,050200,B0FFHUEY87,餐饮服务,外国餐厅,外国餐厅,
113.5455998946501,22.19547750710587,厨屋餐厅,亚美打利庇卢大马路11-13号地下,澳门特别行政区,澳门特别行政区,大堂区,,餐饮服务;外国餐厅;外国餐厅,050200,B0HGJGH1H5,餐饮服务,外国餐厅,外国餐厅,
113.54683182418353,22.197285604884105,曼谷餐厅(富丽安大厦店),东望洋街31号地下,澳门特别行政区,澳门特别行政区,望德堂区,,餐饮服务;外国餐厅;泰国/越南菜品餐厅,050206,B073D00EBS,餐饮服务,外国餐厅,泰国/越南菜品餐厅,
113.54522801273717,22.194717484283593,新恒心面食,肥利喇亚美打大马路19号,澳门特别行政区,澳门特别行政区,大堂区,,餐饮服务;中餐厅;中餐厅,050100,B0FFF6VI6N,餐饮服务,中餐厅,中餐厅,
113.54491250869751,22.190164210702616,四五六上海酒菜馆,葡京路2-4号葡京酒店新翼阁楼,澳门特别行政区,澳门特别行政区,大堂区,,餐饮服务;中餐厅;上海菜,050107,B073D00BG5,餐饮服务,中餐厅,上海菜,
113.54649501849553,22.19695582206617,美好年代(澳门店),东望洋街17B-17C号永康大厦地下,澳门特别行政区,澳门特别行政区,望德堂区,,餐饮服务;甜品店;甜品店,050900,B0I1BKJLCI,餐饮服务,甜品店,甜品店,
113.5451788389825,22.195510666777224,Blooom Coffee,马大臣街与岗陵街交叉口西北20米,澳门特别行政区,澳门特别行政区,大堂区,,餐饮服务;中餐厅;中餐厅,050100,B0FFF5OZXE,餐饮服务,中餐厅,中餐厅,
113.54432091541793,22.191677541300944,澳门陆军俱乐部餐厅,新口岸南湾大马路975号,澳门特别行政区,澳门特别行政区,大堂区,,餐饮服务;外国餐厅;外国餐厅,050200,B0FFHCPVT3,餐饮服务,外国餐厅,外国餐厅,
113.54603690930317,22.19660878650341,生记海鲜饭店,亚卑寮奴你士街6-B,澳门特别行政区,澳门特别行政区,望德堂区,,餐饮服务;中餐厅;海鲜酒楼,050119,B073D00BF5,餐饮服务,中餐厅,海鲜酒楼,
113.54447441857931,22.189891214777763,乐宫饼店,葡京路2-4号葡京酒店地下,澳门特别行政区,澳门特别行政区,大堂区,,餐饮服务;餐饮相关场所;餐饮相关,050000,B073D0M67C,餐饮服务,餐饮相关场所,餐饮相关,
113.54716134867371,22.18594318045737,食·八方.北厨,澳门美高梅娱乐场外,澳门特别行政区,澳门特别行政区,大堂区,,餐饮服务;中餐厅;中餐厅,050100,B0FFF2WKSP,餐饮服务,中餐厅,中餐厅,
113.54537628561063,22.196270337049604,礼记雪糕澳门怀旧冰室(远景大厦店),望德堂区荷兰园大马路12号地下,澳门特别行政区,澳门特别行政区,望德堂区,,餐饮服务;中餐厅;中餐厅,050100,B073D0ME2L,餐饮服务,中餐厅,中餐厅,
113.5450705671405,22.195508445838403,公仔记干炒牛河,柯高街,澳门特别行政区,澳门特别行政区,大堂区,,餐饮服务;咖啡厅;咖啡厅,050500,B0FFF6TDQ0,餐饮服务,咖啡厅,咖啡厅,
113.54625136831056,22.197735613703802,dinoburger(塔石店),富安大厦地铺1-C,澳门特别行政区,澳门特别行政区,望德堂区,,餐饮服务;餐饮相关场所;餐饮相关,050000,B0IAY5UZMF,餐饮服务,餐饮相关场所,餐饮相关,
113.54425986489039,22.190028822320166,老葡京酒店不夜天CAFE,南湾葡京路2-4号葡京酒店西座大堂,澳门特别行政区,澳门特别行政区,大堂区,,餐饮服务;中餐厅;中餐厅,050100,B0FFF324NA,餐饮服务,中餐厅,中餐厅,
113.54464852191805,22.195207476615955,皇冠小馆(永添大厦店),水坑尾街308-310号A地下,澳门特别行政区,澳门特别行政区,大堂区,,餐饮服务;中餐厅;中餐厅,050100,B073D00KD0,餐饮服务,中餐厅,中餐厅,
113.54432203834611,22.189786863360073,葡京日丽(澳门葡京酒店),南湾葡京路2-4号葡京酒店东翼2楼,澳门特别行政区,澳门特别行政区,大堂区,,餐饮服务;餐饮相关场所;餐饮相关,050000,B0FFG1BQ5U,餐饮服务,餐饮相关场所,餐饮相关,
113.54442831172096,22.18973206252918,葡国餐厅(澳门葡京酒店),友谊大马路大堂区,澳门特别行政区,澳门特别行政区,大堂区,,餐饮服务;外国餐厅;外国餐厅,050200,B0H33BNQ5K,餐饮服务,外国餐厅,外国餐厅,
113.54443700441972,22.194917939058087,坤记餐室,新马路水坑尾街264号地下,澳门特别行政区,澳门特别行政区,大堂区,,餐饮服务;外国餐厅;葡国菜,050213,B073D00GNY,餐饮服务,外国餐厅,葡国菜,
113.54863502680668,22.199635928896765,三宝冰室,罗利老马路-6号文德大厦,澳门特别行政区,澳门特别行政区,望德堂区,,餐饮服务;中餐厅;中餐厅,050100,B0FFHD33ZP,餐饮服务,中餐厅,中餐厅,
113.54443900492063,22.19498996882463,胡椒厨房(水坑尾街店),水坑尾街280号,澳门特别行政区,澳门特别行政区,大堂区,,餐饮服务;中餐厅;中餐厅,050100,B0FFIZK9FA,餐饮服务,中餐厅,中餐厅,
113.54964337165659,22.20016701661143,叠记咖喱面食(士多鸟拜斯大马路),士多鸟拜斯大马路25号Edificio Pak Hai,澳门特别行政区,澳门特别行政区,望德堂区,,餐饮服务;中餐厅;中餐厅,050100,B073D00H83,餐饮服务,中餐厅,中餐厅,
113.54365725854366,22.191079950362305,天巢法国餐厅,南湾葡京路2-4号新葡京酒店43层,澳门特别行政区,澳门特别行政区,大堂区,,餐饮服务;餐饮相关场所;餐饮相关,050000,B073D0MMIE,餐饮服务,餐饮相关场所,餐饮相关,
113.54365725854366,22.191079950362305,天巢法国餐厅,南湾葡京路2-4号新葡京酒店43层,澳门特别行政区,澳门特别行政区,大堂区,,餐饮服务;餐饮相关场所;餐饮相关,050000,B073D0MMIE,餐饮服务,餐饮相关场所,餐饮相关,
113.54369539155786,22.190525830525623,8餐厅,葡京路2-4号新葡京酒店2楼,澳门特别行政区,澳门特别行政区,大堂区,,餐饮服务;中餐厅;中餐厅,050100,B0FFF62I0X,餐饮服务,中餐厅,中餐厅,
113.55080901518194,22.20105147634908,百乐门粉面店(二龙喉店),士多鸟拜斯大马路43CB号江昌大厦地下F铺(即二龙喉公园巴士站正对面),澳门特别行政区,澳门特别行政区,望德堂区,,餐饮服务;餐饮相关场所;餐饮相关,050000,B0J14UU6Y3,餐饮服务,餐饮相关场所,餐饮相关,
113.54347784038603,22.19040633326723,日夜咖啡室,葡京路2-4号新葡京酒店2楼上层南湾,澳门特别行政区,澳门特别行政区,大堂区,,餐饮服务;外国餐厅;外国餐厅,050200,B073D0M5X2,餐饮服务,外国餐厅,外国餐厅,
113.54350969002785,22.194062710632416,麦当劳(水坑尾分店),水坑尾1-2层,澳门特别行政区,澳门特别行政区,大堂区,,餐饮服务;快餐厅;麦当劳,050302,B0FFIBSRRM,餐饮服务,快餐厅,麦当劳,
113.54428958651387,22.195601878670104,八分目,水坑尾水坑尾巷12A号启华大厦地下A号铺,澳门特别行政区,澳门特别行政区,大堂区,,餐饮服务;中餐厅;中式素菜馆,050120,B0FFI7FH1B,餐饮服务,中餐厅,中式素菜馆,
113.5435938957902,22.194229946224212,马里奥饼店(素雅利神父巷店),水坑尾街01-m03(澳门素鸦利神父巷1-5号东庆新村地下),澳门特别行政区,澳门特别行政区,大堂区,,餐饮服务;糕饼店;糕饼店,050800,B0FFG83XCG,餐饮服务,糕饼店,糕饼店,
113.54343349840943,22.193993526547864,KOIThe(银辉大厦店),水坑尾街125-127号银辉大厦,澳门特别行政区,澳门特别行政区,大堂区,,餐饮服务;餐饮相关场所;餐饮相关,050000,B0FFJ043Q8,餐饮服务,餐饮相关场所,餐饮相关,
113.54320698366965,22.19290366193633,真点心(南湾店),南湾大马路807号才能商业中心地下A座,澳门特别行政区,澳门特别行政区,大堂区,,餐饮服务;餐饮相关场所;餐饮相关,050000,B0FFIV5JXX,餐饮服务,餐饮相关场所,餐饮相关,
113.54339544224834,22.193335211684943,越朝面馆(祐好大厦店),美丽街29-E号祐好大厦地下B2座,澳门特别行政区,澳门特别行政区,大堂区,,餐饮服务;中餐厅;中餐厅,050100,B0IGGCYFS2,餐饮服务,中餐厅,中餐厅,
113.54327310238996,22.193721093060194,台北小泉居(ESKIMO店),水坑尾街93、97,澳门特别行政区,澳门特别行政区,大堂区,,餐饮服务;中餐厅;台湾菜,050122,B073D0M2V4,餐饮服务,中餐厅,台湾菜,
113.5444759458035,22.197395898935763,ALBERGUE 1601婆仔屋葡国餐厅,疯堂斜巷8号,澳门特别行政区,澳门特别行政区,望德堂区,,餐饮服务;外国餐厅;外国餐厅,050200,B0FFF32WD5,餐饮服务,外国餐厅,外国餐厅,
113.54711235936692,22.199648990675787,伙牛越南料理,望德堂区美的路主教街13C号嘉伦大厦A,澳门特别行政区,澳门特别行政区,望德堂区,,餐饮服务;外国餐厅;外国餐厅,050200,B0FFI9Z1NJ,餐饮服务,外国餐厅,外国餐厅,
113.54403589062602,22.196382631435814,棠记美食(镜湖马路分店),圣美基街13号,澳门特别行政区,澳门特别行政区,望德堂区,,餐饮服务;糕饼店;糕饼店,050800,B073D00FQO,餐饮服务,糕饼店,糕饼店,
113.54723764834597,22.199902325195865,TOFF(芦苑店),厚望街Macau厚望街72号芦苑地下D,澳门特别行政区,澳门特别行政区,望德堂区,,餐饮服务;咖啡厅;咖啡厅,050500,B0FFHXCQWG,餐饮服务,咖啡厅,咖啡厅,
113.54289812650055,22.193815337214748,新荣记豆腐咖啡美食(天神巷店),水坑尾天神巷华达大厦地下17号A,澳门特别行政区,澳门特别行政区,大堂区,,餐饮服务;中餐厅;中餐厅,050100,B073D0M2VA,餐饮服务,中餐厅,中餐厅,
113.54277378624337,22.19409117280668,Ufufu Cafe,天神巷16号天福大厦A座(大三巴),澳门特别行政区,澳门特别行政区,大堂区,,餐饮服务;快餐厅;快餐厅,050300,B0FFH1H748,餐饮服务,快餐厅,快餐厅,
113.54266674627164,22.190340601482045,港澳德兴火锅海鲜酒家,南湾殷皇子大马路23号群发花园1楼,澳门特别行政区,澳门特别行政区,大堂区,,餐饮服务;中餐厅;火锅店,050117,B073D0M3CE,餐饮服务,中餐厅,火锅店,
113.5464216783746,22.199468564012655,ANCO Dessert(塔石广场店),沙嘉都喇贾罢丽街15B号地铺,澳门特别行政区,澳门特别行政区,望德堂区,,餐饮服务;餐饮相关场所;餐饮相关,050000,B0FFI7JIVW,餐饮服务,餐饮相关场所,餐饮相关,
113.5425552245722,22.193981670346922,泽贤记蛋球仔专门店(天神巷店),澳门天神巷31号B陈卿楼地下C座,澳门特别行政区,澳门特别行政区,大堂区,,餐饮服务;餐饮相关场所;餐饮相关,050000,B0I139ZESX,餐饮服务,餐饮相关场所,餐饮相关,
113.54249413494308,22.192886148951043,阿维斯咖啡(南湾店),南湾大马路737-741号南湾大厦地下A3-A4铺,澳门特别行政区,澳门特别行政区,大堂区,,餐饮服务;咖啡厅;咖啡厅,050500,B0FFI914QM,餐饮服务,咖啡厅,咖啡厅,
113.54269853466468,22.19497232756063,金玉满堂(白马行店),白马行柯传善堂围12号金铨大厦地下,澳门特别行政区,澳门特别行政区,大堂区,,餐饮服务;快餐厅;茶餐厅,050305,B0FFGY3PK0,餐饮服务,快餐厅,茶餐厅,
113.54286296773911,22.194878642151522,九鱼舫,伯多禄局长街白马行37号3楼,澳门特别行政区,澳门特别行政区,大堂区,,餐饮服务;餐饮相关场所;餐饮相关,050000,B0FFIJQGJP,餐饮服务,餐饮相关场所,餐饮相关,
113.54243705787627,22.19175562235132,小熊猫,新马路大堂斜巷14-16号地下A铺,澳门特别行政区,澳门特别行政区,大堂区,,餐饮服务;快餐厅;快餐厅,050300,B073D00IC1,餐饮服务,快餐厅,快餐厅,
113.54289899641915,22.195898080900214,山海堂,信富花园第2座,澳门特别行政区,澳门特别行政区,大堂区,,餐饮服务;餐饮相关场所;餐饮相关,050000,B0FFGD75VR,餐饮服务,餐饮相关场所,餐饮相关,
113.54237990746853,22.191774507457104,ELYSEE(金来大厦店),马统领街1号金来大厦地下O座(新葡京),澳门特别行政区,澳门特别行政区,大堂区,,餐饮服务;糕饼店;糕饼店,050800,B0FFJA895U,餐饮服务,糕饼店,糕饼店,
113.5492563772003,22.201526768664188,今生VIDA,"地下C座,尚寓,Avdo Conselheiro Ferreira de Almeida,澳门",澳门特别行政区,澳门特别行政区,望德堂区,,餐饮服务;外国餐厅;日本料理,050202,B0I1N7B9B2,餐饮服务,外国餐厅,日本料理,
113.54297420482207,22.1956861643331,eggggy,大炮台斜巷,澳门特别行政区,澳门特别行政区,大堂区,,餐饮服务;糕饼店;糕饼店,050800,B0K1O5Y68Y,餐饮服务,糕饼店,糕饼店,
113.54954203635197,22.2017123693686,M2 Kitchen(海涛商场店),"荷兰园大马路88B-90C号海涛商场3楼G,H,I号铺",澳门特别行政区,澳门特别行政区,望德堂区,,餐饮服务;外国餐厅;外国餐厅,050200,B0FFHD2AH3,餐饮服务,外国餐厅,外国餐厅,
113.5468807483967,22.200364787191745,轩记面食店,罗利老马路3-GB,澳门特别行政区,澳门特别行政区,望德堂区,,餐饮服务;中餐厅;中餐厅,050100,B073D00E9Q,餐饮服务,中餐厅,中餐厅,
113.54247700043902,22.194299617550126,大家乐(信达城店),天神巷与伯多禄局长街交叉口东南40米,澳门特别行政区,澳门特别行政区,大堂区,,餐饮服务;快餐厅;快餐厅,050300,B0G2AOBH7P,餐饮服务,快餐厅,快餐厅,
113.54236673142931,22.1940032771038,潘威记(新马路店),天神巷41号(近圣约瑟中学),澳门特别行政区,澳门特别行政区,大堂区,,餐饮服务;糕饼店;糕饼店,050800,B0FFF63W9D,餐饮服务,糕饼店,糕饼店,
113.5424148418683,22.194242464909752,星巴克(信达城店),半岛白马行4号信达城G层,澳门特别行政区,澳门特别行政区,大堂区,,餐饮服务;咖啡厅;咖啡厅,050500,B0FFHN2L3A,餐饮服务,咖啡厅,咖啡厅,
113.54201995721176,22.191897782780206,玛嘉烈蛋挞,马统领街66号,澳门特别行政区,澳门特别行政区,大堂区,,餐饮服务;糕饼店;糕饼店,050800,B0FFH2Q4Q0,餐饮服务,糕饼店,糕饼店,
113.54251100239638,22.195664175728904,蕃茄屋美食(雅豪大厦店),连安后巷6号,澳门特别行政区,澳门特别行政区,大堂区,,餐饮服务;外国餐厅;葡国菜,050213,B073D00J8W,餐饮服务,外国餐厅,葡国菜,
113.54202397940054,22.191714725704283,澳门鱼翅捞饭专门店(金来大厦店),约翰四世大马路44号,澳门特别行政区,澳门特别行政区,大堂区,,餐饮服务;中餐厅;中餐厅,050100,B0FFHKOAJI,餐饮服务,中餐厅,中餐厅,
113.54239577957726,22.194439494593812,肯德基(信达城店),伯多禄局长街与天神巷交叉口东南20米,澳门特别行政区,澳门特别行政区,大堂区,,餐饮服务;快餐厅;快餐厅,050300,B0FFK3II9B,餐饮服务,快餐厅,快餐厅,
113.54592141699104,22.199850700262697,发达越南小食,沙嘉都喇街40号地下,澳门特别行政区,澳门特别行政区,望德堂区,,餐饮服务;外国餐厅;泰国/越南菜品餐厅,050206,B073D00F61,餐饮服务,外国餐厅,泰国/越南菜品餐厅,
113.54667823467766,22.200641484760492,新鸿发咖啡美食(富明楼店),花王堂区贾伯乐提督街55号a,澳门特别行政区,澳门特别行政区,花王堂区,,餐饮服务;中餐厅;中餐厅,050100,B073D00E9L,餐饮服务,中餐厅,中餐厅,
113.54551441626225,22.199650811091196,Fika Life Coffee(百福大厦店),嘉野度将军街24号百福大厦,澳门特别行政区,澳门特别行政区,望德堂区,,餐饮服务;咖啡厅;咖啡厅,050500,B0FFKU6QKY,餐饮服务,咖啡厅,咖啡厅,
113.54194678198165,22.19163153036334,生利咖啡面食(金来大厦店),望厦马统领围72号金来大厦地下17号铺,澳门特别行政区,澳门特别行政区,大堂区,,餐饮服务;中餐厅;中餐厅,050100,B073D0MM47,餐饮服务,中餐厅,中餐厅,
113.54990987705459,22.2020041567434,Lavish Pizza 峰盛比萨(雅廉访店),雅廉访大马路29号景光大厦地下,澳门特别行政区,澳门特别行政区,望德堂区,,餐饮服务;外国餐厅;外国餐厅,050200,B0FFHQPT82,餐饮服务,外国餐厅,外国餐厅,
113.54245181382399,22.196202241008805,金城二食店,哪吒庙斜巷18-A,澳门特别行政区,澳门特别行政区,大堂区,,餐饮服务;中餐厅;中餐厅,050100,B0FFK9L4Q6,餐饮服务,中餐厅,中餐厅,
113.54225540321093,22.194588248364035,皇冠小馆(白马行分店),新马路伯多禄局长街3至13号银座广场一楼J号铺,澳门特别行政区,澳门特别行政区,大堂区,,餐饮服务;餐饮相关场所;餐饮相关,050000,B0IDSORQFY,餐饮服务,餐饮相关场所,餐饮相关,
113.54587226839138,22.200268748668705,均安隆美食,"号A地下,均安隆美食,Edificio Hung Hei,94贾伯乐提督街澳门",澳门特别行政区,澳门特别行政区,花王堂区,,餐饮服务;中餐厅;中餐厅,050100,B0FFK6KNMP,餐饮服务,中餐厅,中餐厅,
113.54220228421909,22.1942730225477,好记牛杂,伯多禄局长街与哪咤庙斜巷交叉口东南20米,澳门特别行政区,澳门特别行政区,大堂区,,餐饮服务;中餐厅;中餐厅,050100,B0G21D717Q,餐饮服务,中餐厅,中餐厅,
113.54963122134694,22.202087667305133,联记面家(荷兰花园店),荷兰花园正街115A-115B,澳门特别行政区,澳门特别行政区,望德堂区,,餐饮服务;中餐厅;中餐厅,050100,B073D00E5Y,餐饮服务,中餐厅,中餐厅,
113.54157477282365,22.192093895993015,陈光记饭店,罗保博士街19-39号,澳门特别行政区,澳门特别行政区,大堂区,,餐饮服务;中餐厅;中餐厅,050100,B073D00GR1,餐饮服务,中餐厅,中餐厅,
113.54176224267901,22.192479438068823,翠园酒家(万胜大厦店),罗保博士街35-39号,澳门特别行政区,澳门特别行政区,大堂区,,餐饮服务;中餐厅;中餐厅,050100,B073D00AY0,餐饮服务,中餐厅,中餐厅,
113.54736688189966,22.201170022835004,山羊烘焙Goat bakers,永联台52号永联大厦地下C,澳门特别行政区,澳门特别行政区,花王堂区,,餐饮服务;糕饼店;糕饼店,050800,B0I11G3YPF,餐饮服务,糕饼店,糕饼店,
113.54736688189966,22.201170022835004,山羊烘焙Goat bakers,永联台52号永联大厦地下C,澳门特别行政区,澳门特别行政区,花王堂区,,餐饮服务;糕饼店;糕饼店,050800,B0I11G3YPF,餐饮服务,糕饼店,糕饼店,
113.54173420302368,22.19194118476712,好彩海鲜美食,罗保博士街22号金来大厦第四座地下M座,澳门特别行政区,澳门特别行政区,大堂区,,餐饮服务;餐饮相关场所;餐饮相关,050000,B0JRF1VYIE,餐饮服务,餐饮相关场所,餐饮相关,
113.54168611239574,22.191372877210938,百福面家,半岛殷皇子大马路41号,澳门特别行政区,澳门特别行政区,大堂区,,餐饮服务;中餐厅;中餐厅,050100,B073D00F00,餐饮服务,中餐厅,中餐厅,
113.54704309595851,22.20113737757568,鮨味亭日本创作料理,新桥(三盏灯/白鸽巢)贾伯乐提督街64号宝诚大厦地铺,澳门特别行政区,澳门特别行政区,花王堂区,,餐饮服务;外国餐厅;日本料理,050202,B073D00F3Y,餐饮服务,外国餐厅,日本料理,
113.54162890921586,22.1921960493752,花溪牛肉粉(澳门南湾店),罗保博士街21号地铺,澳门特别行政区,澳门特别行政区,大堂区,,餐饮服务;中餐厅;中餐厅,050100,B073D0M6KB,餐饮服务,中餐厅,中餐厅,
113.54142131244583,22.192955873282898,美心西饼(时代商业中心店),南湾大马路623号,澳门特别行政区,澳门特别行政区,大堂区,,餐饮服务;糕饼店;糕饼店,050800,B073D0M2W2,餐饮服务,糕饼店,糕饼店,
113.5451253962567,22.20036827509701,卓仁菜馆,沙嘉都喇贾罢丽街43号金轮大厦(第一座)地下,澳门特别行政区,澳门特别行政区,花王堂区,,餐饮服务;中餐厅;中餐厅,050100,B0FFKTYVR6,餐饮服务,中餐厅,中餐厅,
113.54117357674629,22.194201781621672,KIKA熙佳日式手工雪糕(大堂巷店),新马路大堂巷11号地下A铺,澳门特别行政区,澳门特别行政区,大堂区,,餐饮服务;外国餐厅;外国餐厅,050200,B0FFH0CRS0,餐饮服务,外国餐厅,外国餐厅,
113.54083173179218,22.193187675183744,大堂街炸鸡,大堂街14-A,澳门特别行政区,澳门特别行政区,大堂区,,餐饮服务;餐饮相关场所;餐饮相关,050000,B073D00IX8,餐饮服务,餐饮相关场所,餐饮相关,
113.54114555118086,22.193433446383125,赛百味(大堂店),大堂街28号,澳门特别行政区,澳门特别行政区,大堂区,,餐饮服务;餐饮相关场所;餐饮相关,050000,B0JK6K3NBJ,餐饮服务,餐饮相关场所,餐饮相关,
113.54123504431705,22.189411195855886,小胜轩日式拉面(南湾壹号店),澳门商业大马路251-292号,澳门特别行政区,澳门特别行政区,大堂区,,餐饮服务;中餐厅;中餐厅,050100,B0FFHBHAGF,餐饮服务,中餐厅,中餐厅,
113.54589827663148,22.201156112278994,猫哥小店,美的路主教街42号,澳门特别行政区,澳门特别行政区,花王堂区,,餐饮服务;咖啡厅;咖啡厅,050500,B0FFJ7W6SH,餐饮服务,咖啡厅,咖啡厅,
113.54594338428052,22.2012242265762,宝记面食店,罗利老马路15-b号附近,澳门特别行政区,澳门特别行政区,花王堂区,,餐饮服务;中餐厅;中餐厅,050100,B073D00DZE,餐饮服务,中餐厅,中餐厅,
113.54107933714019,22.19403351681519,老民记澳门特色瓦煲咖啡奶茶,大堂巷16-A号泰年大厦地下B座,澳门特别行政区,澳门特别行政区,大堂区,,餐饮服务;冷饮店;冷饮店,050700,B0JAS587XV,餐饮服务,冷饮店,冷饮店,
113.54105927242838,22.194212537061084,佳茗爆打柠檬茶,澳门大堂巷12-B(卢家大屋对面),澳门特别行政区,澳门特别行政区,大堂区,,餐饮服务;冷饮店;冷饮店,050700,B0JD5GZ1E4,餐饮服务,冷饮店,冷饮店,
113.54604459667439,22.201831641933293,马庆康南天咖啡室,半岛俾利喇街63号A65号B,澳门特别行政区,澳门特别行政区,花王堂区,,餐饮服务;咖啡厅;咖啡厅,050500,B073D00DNT,餐饮服务,咖啡厅,咖啡厅,
113.5471743584017,22.202042952106932,营地街茶餐厅(恒利大厦店),高地乌街与飞能便度街交叉口东北40米,澳门特别行政区,澳门特别行政区,花王堂区,,餐饮服务;快餐厅;茶餐厅,050305,B0FFJCOU1D,餐饮服务,快餐厅,茶餐厅,
113.54102116793347,22.194262471970635,大胜冰室,大堂巷12-E号地下A座,澳门特别行政区,澳门特别行政区,大堂区,,餐饮服务;冷饮店;冷饮店,050700,B0JAT7O1HM,餐饮服务,冷饮店,冷饮店,
113.5410071209693,22.194413495258402,一家茶餐厅(龙兴大厦店),澳门半岛大堂巷8号龙兴大厦,澳门特别行政区,澳门特别行政区,大堂区,,餐饮服务;快餐厅;茶餐厅,050305,B0I1LZI3QZ,餐饮服务,快餐厅,茶餐厅,
113.54609975124939,22.201548653116348,金多娜茶餐厅(利晖大厦店),俾利喇街利晖大厦第二座地下78A-82C,澳门特别行政区,澳门特别行政区,花王堂区,,餐饮服务;快餐厅;茶餐厅,050305,B073D0M4U8,餐饮服务,快餐厅,茶餐厅,
113.54121260846445,22.19533226909988,凤城轩美食(百荣大厦店),大炮台街2-D,澳门特别行政区,澳门特别行政区,大堂区,,餐饮服务;中餐厅;中餐厅,050100,B073D0M6TM,餐饮服务,中餐厅,中餐厅,
113.54097202389998,22.19447143949798,圣安娜饼屋(大堂巷店),大堂巷6-6B兆辉楼地铺,澳门特别行政区,澳门特别行政区,大堂区,,餐饮服务;糕饼店;糕饼店,050800,B0FFG83XCE,餐饮服务,糕饼店,糕饼店,
113.54077051656549,22.1940048334746,武二广潮福粉面食馆(板樟堂巷店),板樟堂巷13C号开胜大厦地下,澳门特别行政区,澳门特别行政区,大堂区,,餐饮服务;中餐厅;中餐厅,050100,B0FFJ1XRH3,餐饮服务,中餐厅,中餐厅,
113.5406322707302,22.192063836641317,沙利文餐厅,南湾大马路512号,澳门特别行政区,澳门特别行政区,大堂区,,餐饮服务;外国餐厅;葡国菜,050213,B073D0M3WC,餐饮服务,外国餐厅,葡国菜,
113.54940562788002,22.203106601139567,札幌日本料理专门店,雅廉访大马路,澳门特别行政区,澳门特别行政区,花王堂区,,餐饮服务;外国餐厅;日本料理,050202,B0FFG9FX5T,餐饮服务,外国餐厅,日本料理,
113.55170052117109,22.146166566436694,澳门英记饼家(百老汇店),莲花海滨大马路与西堤圆形地交叉口北300米,澳门特别行政区,澳门特别行政区,路氹填海区,,餐饮服务;餐饮相关场所;餐饮相关,050000,B0FFG59VWC,餐饮服务,餐饮相关场所,餐饮相关,
113.5521485097128,22.146454476932412,好彩海鲜火锅饭店,莲花海滨大马路银河百老汇G1001-1008号铺,澳门特别行政区,澳门特别行政区,路氹填海区,,餐饮服务;中餐厅;中餐厅,050100,B0FFH0XJUJ,餐饮服务,中餐厅,中餐厅,
113.55508091420566,22.146182388559303,丽思咖啡厅,路氹城大马路与莲花海滨大马路交界澳门丽思卡尔顿酒店内,澳门特别行政区,澳门特别行政区,路氹填海区,,餐饮服务;咖啡厅;咖啡厅,050500,B0FFGP7LWO,餐饮服务,咖啡厅,咖啡厅,
113.55098390005146,22.146069237345465,福龙葡国餐(百老汇店),澳门路凼城莲花海滨大马路澳门百老汇百老汇美食街A-G005-G009号铺,澳门特别行政区,澳门特别行政区,路氹填海区,,餐饮服务;外国餐厅;外国餐厅,050200,B0FFHN2TLE,餐饮服务,外国餐厅,外国餐厅,
113.55162634769128,22.146261471310932,金氏·狎鸥亭(百老汇),中国澳门凼仔莲花海滨大马路百老汇美食街E-G033铺地下,澳门特别行政区,澳门特别行政区,路氹填海区,,餐饮服务;餐饮相关场所;餐饮相关,050000,B0J21UF4FZ,餐饮服务,餐饮相关场所,餐饮相关,
113.55485541992509,22.146431113102093,丽轩餐厅,澳门银河综合度假城丽思卡尔顿酒店51层,澳门特别行政区,澳门特别行政区,路氹填海区,,餐饮服务;中餐厅;中餐厅,050100,B0FFGOWSR5,餐饮服务,中餐厅,中餐厅,
113.55139181367744,22.146309069266483,南洋咖啡(百老汇店),莲花海滨大马路与西堤圆形地交叉口北320米,澳门特别行政区,澳门特别行政区,路氹填海区,,餐饮服务;餐饮相关场所;餐饮相关,050000,B0JA9HJ3SC,餐饮服务,餐饮相关场所,餐饮相关,
113.55205930134397,22.146589372233958,上河内咖啡(百老汇店),澳门路凼城莲花海滨大马路澳门百老汇E-G031-G032,澳门特别行政区,澳门特别行政区,路氹填海区,,餐饮服务;餐饮相关场所;餐饮相关,050000,B0KUDDC0P0,餐饮服务,餐饮相关场所,餐饮相关,
113.55145495069183,22.1464062211845,青洲林记(百老汇店),澳门百老汇美食街A-G017铺,澳门特别行政区,澳门特别行政区,路氹填海区,,餐饮服务;餐饮相关场所;餐饮相关,050000,B0J0LCQFKL,餐饮服务,餐饮相关场所,餐饮相关,
113.55327598650842,22.146784577549766,CHA BEI,"(澳门银河)豪华综合度假城1楼,1047",澳门特别行政区,澳门特别行政区,路氹填海区,,餐饮服务;餐饮相关场所;餐饮相关,050000,B0FFITHIWF,餐饮服务,餐饮相关场所,餐饮相关,
113.55158524022119,22.14649148863579,荣记豆腐面食(百老汇店),莲花海滨大马路与西堤圆形地交叉口北340米,澳门特别行政区,澳门特别行政区,路氹填海区,,餐饮服务;中餐厅;中餐厅,050100,B0FFHMDI77,餐饮服务,中餐厅,中餐厅,
113.55207332860638,22.146655423202073,松花湖水饺(百老汇店),澳门百老汇-澳门路氹城莲花海滨大马路百老汇美食街E-1004A&E-1004,澳门特别行政区,澳门特别行政区,路氹填海区,,餐饮服务;餐饮相关场所;餐饮相关,050000,B0FFIR6HZ6,餐饮服务,餐饮相关场所,餐饮相关,
113.55196407432534,22.146800286550626,千笹日本料理,"莲花海滨大马路Broadway Food Street,A-G018,A-1001 Broadway Macau",澳门特别行政区,澳门特别行政区,路氹填海区,,餐饮服务;餐饮相关场所;餐饮相关,050000,B0FFICGSC7,餐饮服务,餐饮相关场所,餐饮相关,
113.55189091264822,22.146757139410308,新马路成记粥品(百老汇店),百老汇美食街E-G025,澳门特别行政区,澳门特别行政区,路氹填海区,,餐饮服务;快餐厅;快餐厅,050300,B0FFHKPDK3,餐饮服务,快餐厅,快餐厅,
113.5515671819088,22.146767565372652,泽贤记蛋球仔专门店(百老汇店),凼仔莲花海滨大马路澳门百老汇FBH045铺地下,澳门特别行政区,澳门特别行政区,路氹填海区,,餐饮服务;餐饮相关场所;餐饮相关,050000,B0IDH42JG5,餐饮服务,餐饮相关场所,餐饮相关,
113.55164936434535,22.146819733138518,李家菜(百老汇店),澳门路凼城莲花海滨大马路澳门百老汇百老汇美食街E-G028号铺,澳门特别行政区,澳门特别行政区,路氹填海区,,餐饮服务;中餐厅;中餐厅,050100,B0FFHD28CD,餐饮服务,中餐厅,中餐厅,
113.5521765264957,22.147179813018315,翠华餐厅,"望德圣母湾大马路G/F,G024,澳门银河",澳门特别行政区,澳门特别行政区,路氹填海区,,餐饮服务;中餐厅;中餐厅,050100,B073D0M65I,餐饮服务,中餐厅,中餐厅,
113.55579439275299,22.146523692720024,名厨都汇(澳门JW万豪酒店),澳门路凼城澳门银河综合渡假城澳门JW万豪酒店1楼,澳门特别行政区,澳门特别行政区,路氹填海区,,餐饮服务;中餐厅;中餐厅,050100,B0FFHLACFK,餐饮服务,中餐厅,中餐厅,
113.55134867632172,22.146932237881792,深井陈记烧鹅(百老汇店),氹仔莲花海滨大马路百老汇百老汇美食街A-G027-28铺,澳门特别行政区,澳门特别行政区,路氹填海区,,餐饮服务;餐饮相关场所;餐饮相关,050000,B0KGKDRRLK,餐饮服务,餐饮相关场所,餐饮相关,
113.55155012267684,22.147093663582616,梓记牛什(百老汇店),澳门路凼城莲花海滨大马路澳门百老汇百老汇美食街E-G027号铺,澳门特别行政区,澳门特别行政区,路氹填海区,,餐饮服务;快餐厅;快餐厅,050300,B0FFHMD1QO,餐饮服务,快餐厅,快餐厅,
113.5592256299839,22.141392988022957,DONDON DONKI,莲花海滨大马路e1010铺,澳门特别行政区,澳门特别行政区,路氹填海区,,餐饮服务;餐饮相关场所;餐饮相关,050000,B0KG3MFK6N,餐饮服务,餐饮相关场所,餐饮相关,
113.55288708003319,22.147587220464263,La maison du chocolat(澳门银河店),望德圣母湾大马路与学院路交叉口南440米,澳门特别行政区,澳门特别行政区,路氹填海区,,餐饮服务;餐饮相关场所;餐饮相关,050000,B0FFHDIRR6,餐饮服务,餐饮相关场所,餐饮相关,
113.55182772400453,22.147491316732765,澳门路屋(百老汇店),莲花海滨大马路与西堤圆形地交叉口北440米,澳门特别行政区,澳门特别行政区,路氹填海区,,餐饮服务;外国餐厅;外国餐厅,050200,B0FFIME75S,餐饮服务,外国餐厅,外国餐厅,
113.55323880234491,22.14840615299879,The Apron蚝吧及扒房(澳门银河度综合渡假城店),"(澳门银河)豪华综合度假城地下,G108",澳门特别行政区,澳门特别行政区,路氹填海区,,餐饮服务;餐饮相关场所;餐饮相关,050000,B0FFHRFXEE,餐饮服务,餐饮相关场所,餐饮相关,
113.55451454975095,22.14868743422013,Passion by Gerard Dubois(银河店),澳门银河奥珀大堂,澳门特别行政区,澳门特别行政区,路氹填海区,,餐饮服务;咖啡厅;咖啡厅,050500,B0FFH8YX9O,餐饮服务,咖啡厅,咖啡厅,
113.5551408951982,22.148489398068364,百乐潮州酒楼(澳门银河度综合渡假城店),澳门银河综合渡假城时尚大道中地下G048号铺,澳门特别行政区,澳门特别行政区,路氹填海区,,餐饮服务;餐饮相关场所;餐饮相关,050000,B073D0M60T,餐饮服务,餐饮相关场所,餐饮相关,
113.56044898997784,22.141109658290016,麦当劳(澳门新濠影汇酒店店),澳门特别行政区路凼填海区新濠影汇二楼(澳门食街游)2092号,澳门特别行政区,澳门特别行政区,路氹填海区,,餐饮服务;快餐厅;快餐厅,050300,B0FFIZXN5A,餐饮服务,快餐厅,快餐厅,
113.56062531418526,22.141235960553438,瀛菊拉面,澳门新濠影汇一楼1091号,澳门特别行政区,澳门特别行政区,路氹填海区,,餐饮服务;餐饮相关场所;餐饮相关,050000,B0I0GU8WN9,餐饮服务,餐饮相关场所,餐饮相关,
113.56035585747144,22.140421249793842,鼎泰丰(澳门新濠影汇酒店店),澳门特别行政区路凼填海区新濠影汇购物大道一楼1075店,澳门特别行政区,澳门特别行政区,路氹填海区,,餐饮服务;中餐厅;台湾菜,050122,B0FFGSZIZ0,餐饮服务,中餐厅,台湾菜,
113.56011644071812,22.13982866784787,馥迎楼·臻品顺德料理(澳门新濠影汇),澳门新濠影汇酒店一楼1069号商铺,澳门特别行政区,澳门特别行政区,路氹填海区,,餐饮服务;中餐厅;广东菜(粤菜),050103,B0KBBCJUPR,餐饮服务,中餐厅,广东菜(粤菜),
113.56050812504782,22.140737594348106,Rossi Trattoria意汇,澳门路氹连贯公路新濠影汇1楼1079号,澳门特别行政区,澳门特别行政区,路氹填海区,,餐饮服务;餐饮相关场所;餐饮相关,050000,B0KRLP4QUM,餐饮服务,餐饮相关场所,餐饮相关,
113.55413271921724,22.148844853355133,花悦庭,排角路与地堡街交叉口南280米,澳门特别行政区,澳门特别行政区,路氹填海区,,餐饮服务;餐饮相关场所;餐饮相关,050000,B0KACZPDNH,餐饮服务,餐饮相关场所,餐饮相关,
113.55451252903077,22.14894653279987,星巴克(澳门银河酒店店),澳门路凼城澳门银河综合渡假城地下G027号铺,澳门特别行政区,澳门特别行政区,路氹填海区,,餐饮服务;咖啡厅;星巴克咖啡,050501,B073D0M81L,餐饮服务,咖啡厅,星巴克咖啡,
113.56088177352785,22.141574459572617,港式车仔面,澳门新濠影汇一楼1035号,澳门特别行政区,澳门特别行政区,路氹填海区,,餐饮服务;餐饮相关场所;餐饮相关,050000,B0I1FMO325,餐饮服务,餐饮相关场所,餐饮相关,
113.55429806064701,22.14907622345674,彭庆记,"(澳门银河)豪华综合度假城地下,G002A",澳门特别行政区,澳门特别行政区,路氹填海区,,餐饮服务;餐饮相关场所;餐饮相关,050000,B0G3FUMAOV,餐饮服务,餐饮相关场所,餐饮相关,
113.55382202906549,22.149129437967446,协成海鲜火锅(澳门银河酒店店),近时尚大道东翠华旁中场入口乘电梯往M楼(银河酒店电梯到1楼再经扶手电梯往M楼),澳门特别行政区,澳门特别行政区,路氹填海区,,餐饮服务;中餐厅;火锅店,050117,B0J29URUAO,餐饮服务,中餐厅,火锅店,
113.56093191692669,22.14078721623675,碧迎居,路凼城路凼连贯公路新濠影汇娱乐场1楼1182号铺,澳门特别行政区,澳门特别行政区,路氹填海区,,餐饮服务;餐饮相关场所;餐饮相关,050000,B0FFHCSSYA,餐饮服务,餐饮相关场所,餐饮相关,
113.5609789436596,22.141752667816927,协成海鲜火锅(澳门新濠影汇酒店店),路凼连贯公路新濠影汇一楼1111&1181号,澳门特别行政区,澳门特别行政区,路氹填海区,,餐饮服务;中餐厅;火锅店,050117,B0JKM7JFYF,餐饮服务,中餐厅,火锅店,
113.5607954768138,22.14371518948994,鸿运坊(澳门巴黎人购物中心),路凼城大马路与路凼连贯公路交叉口西北200米澳门巴黎人购物中心L1层,澳门特别行政区,澳门特别行政区,路氹填海区,,餐饮服务;中餐厅;中餐厅,050100,B0IDS1SR0K,餐饮服务,中餐厅,中餐厅,
113.56098886183082,22.143340313847858,御莲宫(澳门巴黎人购物中心),路凼城大马路与路凼连贯公路交叉口西北200米澳门巴黎人购物中心L3层,澳门特别行政区,澳门特别行政区,路氹填海区,,餐饮服务;中餐厅;中餐厅,050100,B0FFHD3LLW,餐饮服务,中餐厅,中餐厅,
113.55927739634005,22.14667816312838,星巴克(澳门威尼斯人店),澳门路凼城金光大道望德圣母湾大马路澳门威尼斯人度假村酒店1层1033A号,澳门特别行政区,澳门特别行政区,路氹填海区,,餐饮服务;咖啡厅;星巴克咖啡,050501,B0HR79SAPL,餐饮服务,咖啡厅,星巴克咖啡,
113.56089667563901,22.14356427276051,胡椒厨房(澳门巴黎人购物中心),路凼城大马路与路凼连贯公路交叉口西北200米澳门巴黎人购物中心L5层,澳门特别行政区,澳门特别行政区,路氹填海区,,餐饮服务;中餐厅;中餐厅,050100,B0IDCU6Z2E,餐饮服务,中餐厅,中餐厅,
113.5539342642193,22.149257679345624,Spicy Sichuan川渝人家,"综合度假城,Estrada da Baia de Nossa Senhora da Esperanca,Macao",澳门特别行政区,澳门特别行政区,路氹填海区,,餐饮服务;中餐厅;四川菜(川菜),050102,B0J354UNG5,餐饮服务,中餐厅,四川菜(川菜),
113.55457563482152,22.14940882028985,麦当劳(澳门银河餐厅),澳门路凼城望德圣母湾大马路银河娱乐城G017,澳门特别行政区,澳门特别行政区,路氹填海区,,餐饮服务;快餐厅;快餐厅,050300,B0FFGPAQHI,餐饮服务,快餐厅,快餐厅,
113.56141568058388,22.142911741091623,巴黎人法式餐厅,路凼城大马路与路凼连贯公路交叉口西北200米澳门巴黎人购物中心L3层,澳门特别行政区,澳门特别行政区,路氹填海区,,餐饮服务;外国餐厅;法式菜品餐厅,050204,B0FFKEZ0DA,餐饮服务,外国餐厅,法式菜品餐厅,
113.55203305080202,22.14961751899366,豚王(澳门银河酒店店),"(澳门银河)豪华综合度假城地下,G117",澳门特别行政区,澳门特别行政区,路氹填海区,,餐饮服务;餐饮相关场所;餐饮相关,050000,B0FFH0APV8,餐饮服务,餐饮相关场所,餐饮相关,
113.56107923244862,22.14013816438953,Deng G Sichuan邓记川菜(新濠影汇),"澳门路氹连贯公路Level 1号,Studio City Macau",澳门特别行政区,澳门特别行政区,路氹填海区,,餐饮服务;中餐厅;四川菜(川菜),050102,B0KRR7QRK8,餐饮服务,中餐厅,四川菜(川菜),
113.55221646890709,22.149500797859258,山里日本餐厅(大仓酒店),澳门路凼城(澳门银河)综合渡假城澳门大仓酒店二十八楼,澳门特别行政区,澳门特别行政区,路氹填海区,,餐饮服务;外国餐厅;外国餐厅,050200,B073D0ME8B,餐饮服务,外国餐厅,外国餐厅,
113.55234976379161,22.149544050027416,鹿港小镇(时尚汇店),"(澳门银河)豪华综合度假城地下,G128",澳门特别行政区,澳门特别行政区,路氹填海区,,餐饮服务;中餐厅;台湾菜,050122,B0FFF4SC7J,餐饮服务,中餐厅,台湾菜,
113.56139678191387,22.140755855418295,意汇‧手工薄饼,澳门路氹连贯公路新濠影汇一楼1077号,澳门特别行政区,澳门特别行政区,路氹填海区,,餐饮服务;餐饮相关场所;餐饮相关,050000,B0J6PPUZ36,餐饮服务,餐饮相关场所,餐饮相关,
113.56137572729573,22.14100492555265,DiGREEN(新濠影汇店),澳门路氹连贯公路2楼2073号铺新濠影汇购物大道,澳门特别行政区,澳门特别行政区,路氹填海区,,餐饮服务;餐饮相关场所;餐饮相关,050000,B0KALCH3Q7,餐饮服务,餐饮相关场所,餐饮相关,
113.55225153929975,22.149626909361636,喜盛铁板烧,澳门路凼城(澳门银河)地下G117号铺,澳门特别行政区,澳门特别行政区,路氹填海区,,餐饮服务;餐饮相关场所;餐饮相关,050000,B0FFH3JAKK,餐饮服务,餐饮相关场所,餐饮相关,
113.56156107831703,22.140856123606135,华人冰室(新濠影汇店),莲花海滨大马路580号新濠影汇一层1108铺,澳门特别行政区,澳门特别行政区,路氹填海区,,餐饮服务;餐饮相关场所;餐饮相关,050000,B0J6VUD32E,餐饮服务,餐饮相关场所,餐饮相关,
113.56142060731014,22.144215265927656,翡翠拉面小笼包(澳门巴黎人店),路氹金光大道连贯公路澳门巴黎人1层3122号,澳门特别行政区,澳门特别行政区,路氹填海区,,餐饮服务;中餐厅;广东菜(粤菜),050103,B0FFL5NB3S,餐饮服务,中餐厅,广东菜(粤菜),
113.56192371763777,22.141246779065106,星汇餐厅,新濠影汇酒店明星汇2层,澳门特别行政区,澳门特别行政区,路氹填海区,,餐饮服务;餐饮相关场所;餐饮相关,050000,B0FFGC486F,餐饮服务,餐饮相关场所,餐饮相关,
113.56174844149398,22.140549259817035,玥龙轩,路氹城路氹连贯公路新濠影汇酒店巨星汇2楼2111号铺,澳门特别行政区,澳门特别行政区,路氹填海区,,餐饮服务;餐饮相关场所;餐饮相关,050000,B0FFHWS9AO,餐饮服务,餐饮相关场所,餐饮相关,
113.56178146925753,22.14106651184492,洪瑞珍(新濠影汇店),路氹连贯公路与莲花圆形地交叉口西北220米,澳门特别行政区,澳门特别行政区,路氹填海区,,餐饮服务;餐饮相关场所;餐饮相关,050000,B0KDZAPSX4,餐饮服务,餐饮相关场所,餐饮相关,
113.56176631923864,22.143002262338644,钜记手信(澳门巴黎人购物中心),路凼城大马路与路凼连贯公路交叉口西北200米澳门巴黎人购物中心L1层,澳门特别行政区,澳门特别行政区,路氹填海区,,餐饮服务;糕饼店;糕饼店,050800,B0IDCX05IC,餐饮服务,糕饼店,糕饼店,
113.56143562224082,22.14441736700859,咀香园饼家(澳门巴黎人购物中心),路凼城大马路与路凼连贯公路交叉口西北200米澳门巴黎人购物中心L1层,澳门特别行政区,澳门特别行政区,路氹填海区,,餐饮服务;糕饼店;糕饼店,050800,B0I1TNXS79,餐饮服务,糕饼店,糕饼店,
113.56193971975263,22.141674971777636,东南荟,澳门路氹连贯公路新濠影汇一楼1091号,澳门特别行政区,澳门特别行政区,路氹填海区,,餐饮服务;餐饮相关场所;餐饮相关,050000,B0FFGC47F9,餐饮服务,餐饮相关场所,餐饮相关,
113.56158317018895,22.140044829997564,真点心(新濠影汇店),路氹连贯公路新濠影汇一楼101铺,澳门特别行政区,澳门特别行政区,路氹填海区,,餐饮服务;中餐厅;中餐厅,050100,B0I01CWX9L,餐饮服务,中餐厅,中餐厅,
113.55344614170941,22.15021722222636,丹桂轩银河店,望德圣母湾大马路与学院路交叉口东南180米,澳门特别行政区,澳门特别行政区,路氹填海区,,餐饮服务;中餐厅;中餐厅,050100,B0FFFXFGW9,餐饮服务,中餐厅,中餐厅,
113.55983242462268,22.147329235851128,皇雀印度餐厅(威尼斯人购物中心),望德圣母湾大马路威尼斯人购物中心L1层,澳门特别行政区,澳门特别行政区,路氹填海区,,餐饮服务;外国餐厅;印度风味,050209,B0J2RXYKFC,餐饮服务,外国餐厅,印度风味,
113.56005984616148,22.147531646195322,海底捞火锅(威尼斯人店),路凼填海区望德圣母湾大马路威尼斯人购物中心一楼1036a铺,澳门特别行政区,澳门特别行政区,路氹填海区,,餐饮服务;中餐厅;火锅店,050117,B0IB5HQ5ES,餐饮服务,中餐厅,火锅店,
113.55356640446264,22.15021342711582,庭园意大利餐厅,澳门路凼城(澳门银河)综合渡假城银河酒店2楼201号铺,澳门特别行政区,澳门特别行政区,路氹填海区,,餐饮服务;餐饮相关场所;餐饮相关,050000,B0HGC7IJUD,餐饮服务,餐饮相关场所,餐饮相关,
113.56045561176353,22.147292121629793,帝王点心(威尼斯人购物中心),望德圣母湾大马路澳门威尼斯人1层1042号,澳门特别行政区,澳门特别行政区,路氹填海区,,餐饮服务;糕饼店;糕饼店,050800,B073D0M60X,餐饮服务,糕饼店,糕饼店,
113.56238849920835,22.14221179585282,载运美式餐室,路凼城大马路与路凼连贯公路交叉口西100米,澳门特别行政区,澳门特别行政区,路氹填海区,,餐饮服务;外国餐厅;美式风味,050208,B0J1HH6EYX,餐饮服务,外国餐厅,美式风味,
113.56152268765337,22.145921083686094,鸣诗餐厅(迪斐世澳门四季名店),望德圣母湾大马路路凼金光大道四季名店迪斐世澳门四季名店L1层,澳门特别行政区,澳门特别行政区,路氹填海区,,餐饮服务;外国餐厅;西餐厅(综合风味),050201,B073D0M5ZM,餐饮服务,外国餐厅,西餐厅(综合风味),
113.55939151308253,22.148326982337846,太二老坛子酸菜鱼(威尼斯人店),路氹连贯公路以西·望德圣母湾大马路以南澳门威尼斯人酒店大运河购物中心3楼2410号,澳门特别行政区,澳门特别行政区,路氹填海区,,餐饮服务;中餐厅;中餐厅,050100,B0I0MPZ2V8,餐饮服务,中餐厅,中餐厅,
113.5615667968052,22.145477969421204,晓亭(迪斐世澳门四季名店),望德圣母湾大马路路凼金光大道四季名店迪斐世澳门四季名店L1层,澳门特别行政区,澳门特别行政区,路氹填海区,,餐饮服务;外国餐厅;西餐厅(综合风味),050201,B0IDDZ79JD,餐饮服务,外国餐厅,西餐厅(综合风味),
113.55326972669785,22.150673097305358,麦卡伦威士忌吧,"(澳门银河)豪华综合度假城2楼,2003",澳门特别行政区,澳门特别行政区,路氹填海区,,餐饮服务;餐饮相关场所;餐饮相关,050000,B0FFFXCVNO,餐饮服务,餐饮相关场所,餐饮相关,
113.55256718391068,22.150551827808872,钜记手信,望德圣母湾大马路与学院路交叉口南120米,澳门特别行政区,澳门特别行政区,路氹填海区,,餐饮服务;餐饮相关场所;餐饮相关,050000,B0FFF2WL4A,餐饮服务,餐饮相关场所,餐饮相关,
113.55940051968352,22.148498063009754,密利拿海鲜酒家(威尼斯人购物中心),望德圣母湾大马路威尼斯人购物中心L3层,澳门特别行政区,澳门特别行政区,路氹填海区,,餐饮服务;中餐厅;中餐厅,050100,B0FFLHNAS2,餐饮服务,中餐厅,中餐厅,
113.56010289606152,22.14803890851894,FIVE GUYS(澳门威尼斯人店),望德圣母湾大马路澳门威尼斯人1楼1033&1035号商铺,澳门特别行政区,澳门特别行政区,路氹填海区,,餐饮服务;快餐厅;快餐厅,050300,B0JAONUOX3,餐饮服务,快餐厅,快餐厅,
113.56257990772389,22.14119364752674,奈雪的茶(澳门新濠影汇酒店店),新濠影汇1层1144铺,澳门特别行政区,澳门特别行政区,路氹填海区,,餐饮服务;冷饮店;冷饮店,050700,B0KA4RIO85,餐饮服务,冷饮店,冷饮店,
113.55245993875538,22.15065768108576,蒙特卡洛巴黎咖啡馆,路凼城(澳门银河™)地下G003号铺,澳门特别行政区,澳门特别行政区,路氹填海区,,餐饮服务;餐饮相关场所;餐饮相关,050000,B0I1FGOG7K,餐饮服务,餐饮相关场所,餐饮相关,
113.55986441762398,22.14840870803304,Lady M New York(威尼斯人购物中心),望德圣母湾大马路威尼斯人购物中心L3层,澳门特别行政区,澳门特别行政区,路氹填海区,,餐饮服务;甜品店;甜品店,050900,B0H6SBVL8C,餐饮服务,甜品店,甜品店,
113.562669913223,22.14365975009523,色香味,"巴黎人一楼,地面大堂",澳门特别行政区,澳门特别行政区,路氹填海区,,餐饮服务;外国餐厅;外国餐厅,050200,B0FFHKPYWP,餐饮服务,外国餐厅,外国餐厅,
113.56203867636339,22.14521251305776,紫逸轩(迪斐世澳门四季名店),望德圣母湾大马路路凼金光大道四季名店迪斐世澳门四季名店L1层,澳门特别行政区,澳门特别行政区,路氹填海区,,餐饮服务;中餐厅;中餐厅,050100,B073D0M621,餐饮服务,中餐厅,中餐厅,
113.55293497553531,22.15090860983881,银河凼仔渔村,澳门银河1楼1001,澳门特别行政区,澳门特别行政区,路氹填海区,,餐饮服务;餐饮相关场所;餐饮相关,050000,B0HRHU3YIY,餐饮服务,餐饮相关场所,餐饮相关,
113.56009384196427,22.148622125141674,钜记饼家(澳门威尼斯人店),望德圣母湾大马路与望德圣母湾街交叉口东南220米,澳门特别行政区,澳门特别行政区,路氹填海区,,餐饮服务;餐饮相关场所;餐饮相关,050000,B0FFGLF6BX,餐饮服务,餐饮相关场所,餐饮相关,
113.56109880776114,22.14743509025387,喜乐拉面(威尼斯人购物中心),望德圣母湾大马路澳门威尼斯人1层1018号,澳门特别行政区,澳门特别行政区,路氹填海区,,餐饮服务;外国餐厅;日本料理,050202,B073D0MQBU,餐饮服务,外国餐厅,日本料理,
113.55986037225651,22.149003936428596,HEYTEA(威尼斯人购物中心),望德圣母湾大马路威尼斯人购物中心L3层,澳门特别行政区,澳门特别行政区,路氹填海区,,餐饮服务;咖啡厅;咖啡厅,050500,B0G3FUL67X,餐饮服务,咖啡厅,咖啡厅,
113.56017700034184,22.14861824379697,御匾会餐厅(威尼斯人店),望德圣母湾大马路与望德圣母湾街交叉口东南240米,澳门特别行政区,澳门特别行政区,路氹填海区,,餐饮服务;中餐厅;中餐厅,050100,B0FFF4Q7JD,餐饮服务,中餐厅,中餐厅,
113.55493226970087,22.151387190793372,唐吉柯德,凼仔地堡街23-31号泉福新村第二期第5座伟兴阁地下AA铺,澳门特别行政区,澳门特别行政区,嘉模堂区,,餐饮服务;外国餐厅;地中海风格菜品,050207,B0FFHD17GZ,餐饮服务,外国餐厅,地中海风格菜品,
113.55489319542356,22.151249071835167,我的意大利厨房,旧城区排角路6-12号泉福新村伟兴阁地下AD-AF铺,澳门特别行政区,澳门特别行政区,嘉模堂区,,餐饮服务;外国餐厅;意式菜品餐厅,050205,B073D0M5N0,餐饮服务,外国餐厅,意式菜品餐厅,
113.55472183124603,22.151238782630937,丛林-极尚烧烤放题(氹仔店),嘉模堂区泉福新村二期AGAH铺,澳门特别行政区,澳门特别行政区,嘉模堂区,,餐饮服务;中餐厅;特色/地方风味餐厅,050118,B0JRA6EHM2,餐饮服务,中餐厅,特色/地方风味餐厅,
113.56165585018883,22.147221781982076,太兴餐厅(威尼斯人购物中心),望德圣母湾大马路威尼斯人购物中心L1层,澳门特别行政区,澳门特别行政区,路氹填海区,,餐饮服务;中餐厅;中餐厅,050100,B0KB6O7H46,餐饮服务,中餐厅,中餐厅,
113.5606639213577,22.148599934473108,添好运(威尼斯人购物中心店),威尼斯人购物中心3层繁盛街720号,澳门特别行政区,澳门特别行政区,路氹填海区,,餐饮服务;中餐厅;中餐厅,050100,B0FFHCT6QR,餐饮服务,中餐厅,中餐厅,
113.55491421838309,22.151592241125126,氹仔海湾葡国餐厅,氹仔旧城区地堡街第四座伟展阁53-57号地下,澳门特别行政区,澳门特别行政区,嘉模堂区,,餐饮服务;餐饮相关场所;餐饮相关,050000,B0FFKYSV6C,餐饮服务,餐饮相关场所,餐饮相关,
113.55497835689624,22.151555333053714,扒皇烧,凼仔旧城区地堡街47号泉福新村第2期第四座伟展阁W-X铺地下,澳门特别行政区,澳门特别行政区,嘉模堂区,,餐饮服务;餐饮相关场所;餐饮相关,050000,B0FFHWSPMH,餐饮服务,餐饮相关场所,餐饮相关,
113.56188324611107,22.147541220988643,星巴克(威尼斯人店),路环岛路凼新城区金光大道威尼斯人度假村酒店2楼K201/202号,澳门特别行政区,澳门特别行政区,路氹填海区,,餐饮服务;咖啡厅;星巴克咖啡,050501,B073D00JVP,餐饮服务,咖啡厅,星巴克咖啡,
113.5618772338749,22.14756122063137,赤龙面馆,望德圣母湾大马路澳门威尼斯人1层1043A号,澳门特别行政区,澳门特别行政区,路氹填海区,,餐饮服务;中餐厅;中餐厅,050100,B073D0MQBV,餐饮服务,中餐厅,中餐厅,
113.56053966377605,22.14897690568365,洪瑞珍(威尼斯人店),澳门威尼斯人附近,澳门特别行政区,澳门特别行政区,路氹填海区,,餐饮服务;餐饮相关场所;餐饮相关,050000,B0JKGH2325,餐饮服务,餐饮相关场所,餐饮相关,
113.55550247097342,22.151433148279505,Goat Bakers-Taipa,巴波沙总督街52号,澳门特别行政区,澳门特别行政区,嘉模堂区,,餐饮服务;糕饼店;糕饼店,050800,B0J0MZEYXH,餐饮服务,糕饼店,糕饼店,
113.56041441642138,22.149151795261254,江户日本料理(威尼斯人购物中心),望德圣母湾大马路澳门威尼斯人3层2311号,澳门特别行政区,澳门特别行政区,路氹填海区,,餐饮服务;外国餐厅;日本料理,050202,B073D0M61M,餐饮服务,外国餐厅,日本料理,
113.55554656161593,22.151463232159074,川流八味,巴波沙总督街与桥梁前地交叉口南40米,澳门特别行政区,澳门特别行政区,嘉模堂区,,餐饮服务;中餐厅;四川菜(川菜),050102,B0IDCLKQFE,餐饮服务,中餐厅,四川菜(川菜),
113.5618772338749,22.14756122063137,海王老记粥面菜馆(威尼斯人店),望德圣母湾大马路澳门威尼斯人1层1032号,澳门特别行政区,澳门特别行政区,路氹填海区,,餐饮服务;中餐厅;中餐厅,050100,B073D0MQBX,餐饮服务,中餐厅,中餐厅,
113.5436200036402,22.146318954638332,瑞幸咖啡(横琴总部大厦店),横琴新区祥澳路93号横琴总部大厦一层107-1号,广东省,珠海市,香洲区,,餐饮服务;餐饮相关场所;餐饮相关,050000,B0FFLMIJM1,餐饮服务,餐饮相关场所,餐饮相关,
113.56211565751329,22.147723610517733,麦当劳(大运河购物中心店),澳门路凼填海区威尼斯人度假村大运河购物中心3楼847铺,澳门特别行政区,澳门特别行政区,路氹填海区,,餐饮服务;快餐厅;麦当劳,050302,B073D0M5KP,餐饮服务,快餐厅,麦当劳,
113.56211465613877,22.1477166063923,琳琅美食广场,威尼斯人娱乐场大运河购物中心澳门威尼斯人,澳门特别行政区,澳门特别行政区,路氹填海区,,餐饮服务;餐饮相关场所;餐饮相关,050000,B073D0M3JW,餐饮服务,餐饮相关场所,餐饮相关,
113.55489415866884,22.15186231352002,利安咖啡屋,地堡街79号,澳门特别行政区,澳门特别行政区,嘉模堂区,,餐饮服务;咖啡厅;咖啡厅,050500,B0FFG842OA,餐饮服务,咖啡厅,咖啡厅,
113.5549472514434,22.15217852531946,马交茶档(泉福新村店),凼仔旧城区地堡街第四座伟展阁53-57号地下,澳门特别行政区,澳门特别行政区,嘉模堂区,,餐饮服务;餐饮相关场所;餐饮相关,050000,B0HAL55D2Y,餐饮服务,餐饮相关场所,餐饮相关,
113.55483702775125,22.152011276856516,熹厨美食,氹仔地堡街85和87号泉福新村第二期第三座伟大阁地下O及P铺,澳门特别行政区,澳门特别行政区,嘉模堂区,,餐饮服务;中餐厅;中餐厅,050100,B0KD6RG2JQ,餐饮服务,中餐厅,中餐厅,
113.56196333059567,22.14851471434487,安德鲁饼店及咖啡室(威尼斯人购物中心)(装修中),澳门路凼脸谱街望德圣母湾大马路威尼斯人购物中心870号3楼,澳门特别行政区,澳门特别行政区,路氹填海区,,餐饮服务;咖啡厅;咖啡厅|餐饮服务;糕饼店;糕饼店,050500|050800,B0FFHKCRCG,餐饮服务,咖啡厅,咖啡厅|餐饮服务,糕饼店
113.55571586925406,22.152205798848527,氹仔渔村(天后宫店),氹仔旧城区巴波沙总督街前地(靠近天后宫、路凼历史馆),澳门特别行政区,澳门特别行政区,嘉模堂区,,餐饮服务;中餐厅;中餐厅,050100,B073D00IJM,餐饮服务,中餐厅,中餐厅,
113.55493421762841,22.152275541632378,柠檬车露意大利手拉雪糕店,地堡街与巴波沙总督前地交叉口西北20米,澳门特别行政区,澳门特别行政区,嘉模堂区,,餐饮服务;餐饮相关场所;餐饮相关,050000,B0J6MRNSFN,餐饮服务,餐饮相关场所,餐饮相关,
113.55539618882787,22.152361337307376,梳打冰室(氹仔店),巴波沙总督前地与巴波沙总督街交叉口西北20米,澳门特别行政区,澳门特别行政区,嘉模堂区,,餐饮服务;餐饮相关场所;餐饮相关,050000,B0H1OLU4OS,餐饮服务,餐饮相关场所,餐饮相关,
113.56203143138418,22.148880951566976,奇华饼家(澳门威尼斯人店),澳门特别行政区路凼填海区凼仔金光大道威尼斯人酒店大运河购物中心3楼脸谱街312号,澳门特别行政区,澳门特别行政区,路氹填海区,,餐饮服务;糕饼店;糕饼店,050800,B0FFG79VUI,餐饮服务,糕饼店,糕饼店,
113.55491415609076,22.152574625237897,麦当劳(第二座嘉业阁泉福新村店),澳门特别行政区嘉模堂区凼仔旧城区地堡街155号泉福新村第二期,澳门特别行政区,澳门特别行政区,嘉模堂区,,餐饮服务;快餐厅;麦当劳,050302,B073D00IJD,餐饮服务,快餐厅,麦当劳,
113.56200038002451,22.148799877253236,哈根达斯(威尼斯人店),路氹望德圣母湾大马路威尼斯人酒店大运河购物区2640号,澳门特别行政区,澳门特别行政区,路氹填海区,,餐饮服务;糕饼店;糕饼店|餐饮服务;冷饮店;冷饮店,050800|050700,B073D0MR3K,餐饮服务,糕饼店,糕饼店|餐饮服务,冷饮店
113.5558801966394,22.152453162444914,大利来记猪扒包(施督宪正街店),凼仔旧城区告利雅施利华街35号地铺,澳门特别行政区,澳门特别行政区,嘉模堂区,,餐饮服务;餐饮相关场所;餐饮相关,050000,B0FFHD0BJ3,餐饮服务,餐饮相关场所,餐饮相关,
113.55517571450324,22.152509032378678,Cheri 常喜(翠林花园店),巴波沙总督前地21-21A,澳门特别行政区,澳门特别行政区,嘉模堂区,,餐饮服务;咖啡厅;咖啡厅,050500,B073D0M5NM,餐饮服务,咖啡厅,咖啡厅,
113.54193800450814,22.140506084509074,喜茶(横琴口岸店),横琴粤澳深度合作区环岛东路2050号横琴口岸广场1层C区107- A商铺,广东省,珠海市,香洲区,横琴,餐饮服务;冷饮店;冷饮店,050700,B0KGFDXSOY,餐饮服务,冷饮店,冷饮店,
113.55567977743458,22.152463840954994,大利来记咖啡室(翠林花园店),吉利维施利华街18号,澳门特别行政区,澳门特别行政区,嘉模堂区,,餐饮服务;咖啡厅;咖啡厅,050500,B073D00IJN,餐饮服务,咖啡厅,咖啡厅,
113.55492818652635,22.15256464462254,哈根达斯(R.do Cunha),地堡街139-145号,澳门特别行政区,澳门特别行政区,嘉模堂区,,餐饮服务;冷饮店;冷饮店,050700,B0J6YDVOZM,餐饮服务,冷饮店,冷饮店,
113.56244217119333,22.148933529390828,北方馆(威尼斯人购物中心),望德圣母湾大马路澳门威尼斯人1层1015号,澳门特别行政区,澳门特别行政区,路氹填海区,,餐饮服务;中餐厅;中餐厅,050100,B073D0MQBW,餐饮服务,中餐厅,中餐厅,
113.55583107485438,22.152759202350055,Amora Macau/葡富轩,巴波沙总督街18号,澳门特别行政区,澳门特别行政区,嘉模堂区,,餐饮服务;中餐厅;中餐厅,050100,B0KR26ABL6,餐饮服务,中餐厅,中餐厅,
113.55617680150466,22.152633711962707,辉记海鲜美食(官也街店),氹仔告利雅施利华街59-63号,澳门特别行政区,澳门特别行政区,嘉模堂区,,餐饮服务;餐饮相关场所;餐饮相关,050000,B0K6V5UZFU,餐饮服务,餐饮相关场所,餐饮相关,
113.55582306656524,22.152626137371314,翅福招牌碗仔翅金贝贝牛杂莲花炸鸡,氹仔客商街7号,澳门特别行政区,澳门特别行政区,嘉模堂区,,餐饮服务;餐饮相关场所;餐饮相关,050000,B0JULRZ1CS,餐饮服务,餐饮相关场所,餐饮相关,
113.5559152553708,22.152679307609038,葡景轩Alma,氹仔客商街23号,澳门特别行政区,澳门特别行政区,嘉模堂区,,餐饮服务;餐饮相关场所;餐饮相关,050000,B0J3VO6HQC,餐饮服务,餐饮相关场所,餐饮相关,
113.55522580633152,22.152730201357024,小泉居,地堡街与体育路交叉口东北20米,澳门特别行政区,澳门特别行政区,嘉模堂区,,餐饮服务;中餐厅;中餐厅,050100,B0I09KIA9Q,餐饮服务,中餐厅,中餐厅,
113.55641128739866,22.152613080025954,天蚝荟,澳门凼仔告利雅施利华街92号,澳门特别行政区,澳门特别行政区,嘉模堂区,,餐饮服务;中餐厅;中餐厅,050100,B0I1TN1IDE,餐饮服务,中餐厅,中餐厅,
113.56234898068283,22.149290544030087,醉江南-梁子庚餐厅(威尼斯人购物中心店),澳门威尼斯人1层1078号,澳门特别行政区,澳门特别行政区,路氹填海区,,餐饮服务;中餐厅;中餐厅,050100,B0HB9HF7ZT,餐饮服务,中餐厅,中餐厅,
113.55600543781277,22.1527614855887,MRK赤辣猪扒包,买卖街10号,澳门特别行政区,澳门特别行政区,嘉模堂区,,餐饮服务;餐饮相关场所;餐饮相关,050000,B0ID5MH9LC,餐饮服务,餐饮相关场所,餐饮相关,
113.56234898068283,22.149290544030087,醉江南-梁子庚餐厅(威尼斯人购物中心店),澳门威尼斯人1层1078号,澳门特别行政区,澳门特别行政区,路氹填海区,,餐饮服务;中餐厅;中餐厅,050100,B0HB9HF7ZT,餐饮服务,中餐厅,中餐厅,
113.55600543781277,22.1527614855887,MRK赤辣猪扒包,买卖街10号,澳门特别行政区,澳门特别行政区,嘉模堂区,,餐饮服务;餐饮相关场所;餐饮相关,050000,B0ID5MH9LC,餐饮服务,餐饮相关场所,餐饮相关,
113.55524583310003,22.152975330068426,水晶宫海鲜火锅,凼仔/路环凼仔地堡街199号泉福新村地下X-Z(北帝庙对面),澳门特别行政区,澳门特别行政区,嘉模堂区,,餐饮服务;中餐厅;火锅店,050117,B073D00IJ7,餐饮服务,中餐厅,火锅店,
113.56245817857202,22.149272684351175,利苑(大运河购物中心店),望德圣母湾大马路威尼斯人购物中心L3层,澳门特别行政区,澳门特别行政区,路氹填海区,,餐饮服务;中餐厅;中餐厅,050100,B073D0M3JR,餐饮服务,中餐厅,中餐厅,
113.55648242058301,22.152824276182013,凤城礼记鱼翅海鲜酒家(氹仔官也店),告利雅施利华街20号及木铎街3号全幢(官也街),澳门特别行政区,澳门特别行政区,嘉模堂区,,餐饮服务;餐饮相关场所;餐饮相关,050000,B0KAFZF5FF,餐饮服务,餐饮相关场所,餐饮相关,
113.56242211573905,22.149239622747277,品粤轩(威尼斯人购物中心),望德圣母湾大马路威尼斯人购物中心L1层,澳门特别行政区,澳门特别行政区,路氹填海区,,餐饮服务;中餐厅;广东菜(粤菜),050103,B0IDVRJVJH,餐饮服务,中餐厅,广东菜(粤菜),
113.55522278723392,22.152931274911378,沙度娜木糠布甸专门店(氹仔店),地堡街泉福新村第1期第6座裕嘉阁地下AA-95号,澳门特别行政区,澳门特别行政区,嘉模堂区,,餐饮服务;糕饼店;糕饼店,050800,B073D00IJ8,餐饮服务,糕饼店,糕饼店,
113.5565896373156,22.152883470221283,澳门葡意园餐厅(翠林花园店),买卖巷与生央街交叉口东南80米,澳门特别行政区,澳门特别行政区,嘉模堂区,,餐饮服务;外国餐厅;外国餐厅,050200,B0FFMGFTTJ,餐饮服务,外国餐厅,外国餐厅,
113.54127611081509,22.142829583674814,刘大厨辣椒炒肉湘菜馆(珠海横琴购口岸商业广场店),港澳大道263号珠海横琴购口岸商业广场F1层,广东省,珠海市,香洲区,横琴,餐饮服务;中餐厅;湖南菜(湘菜),050108,B0FFLQ4D7X,餐饮服务,中餐厅,湖南菜(湘菜),
113.55661970024802,22.152864510658958,新陶陶酒家,离岛告利雅施利华街26号,澳门特别行政区,澳门特别行政区,嘉模堂区,,餐饮服务;中餐厅;中餐厅,050100,B073D00IJR,餐饮服务,中餐厅,中餐厅,
113.56458813931482,22.145648026324313,花溪牛肉粉(澳门伦敦人店),澳门路凼城金光大道第五至六地段澳门伦敦人3层口福美食广场,澳门特别行政区,澳门特别行政区,路氹填海区,,餐饮服务;中餐厅;中餐厅,050100,B0FFFGLMF4,餐饮服务,中餐厅,中餐厅,
113.5412169237722,22.143304644277176,禄小宝酸菜鱼(横琴购店),横琴新区港澳大道横琴中拉及加勒比展示中心首层30号铺,广东省,珠海市,香洲区,横琴,餐饮服务;快餐厅;茶餐厅,050305,B0FFLP5DX6,餐饮服务,快餐厅,茶餐厅,
113.54114391944151,22.140319295587375,克茗冰室(横琴口岸店),横琴口岸负二层A251商铺,广东省,珠海市,香洲区,横琴,餐饮服务;冷饮店;冷饮店,050700,B0KUR730LX,餐饮服务,冷饮店,冷饮店,
113.54116982415012,22.142905383237075,拴宝水饺(横琴口岸店),横琴购口岸购物中心东门,广东省,珠海市,香洲区,横琴,餐饮服务;中餐厅;中餐厅,050100,B0KAFDJY3C,餐饮服务,中餐厅,中餐厅,
113.56225178741597,22.14957052250837,麦当劳(威尼斯人购物中心),望德圣母湾大马路威尼斯人购物中心L5层,澳门特别行政区,澳门特别行政区,路氹填海区,,餐饮服务;快餐厅;麦当劳,050302,B0IUC73Y6V,餐饮服务,快餐厅,麦当劳,
113.55653552775806,22.15285737382866,安东尼奥餐厅(翠林花园店),澳门嘉模堂区客商街3号旧城区号地下(澳门嘉模堂区木铎街7号),澳门特别行政区,澳门特别行政区,嘉模堂区,,餐饮服务;外国餐厅;外国餐厅,050200,B0FFFXEOE3,餐饮服务,外国餐厅,外国餐厅,
113.55541217016966,22.153187686278066,好运轩(地堡街店),凼仔地堡街227-237号泉福新村第一期第五座嘉富阁地下u v w座,澳门特别行政区,澳门特别行政区,嘉模堂区,,餐饮服务;中餐厅;中餐厅,050100,B0JACSU9MO,餐饮服务,中餐厅,中餐厅,
113.56528336577675,22.144818560251743,伦敦人美食园,伦敦人名汇1层,澳门特别行政区,澳门特别行政区,路氹填海区,,餐饮服务;餐饮相关场所;餐饮相关,050000,B0GKJO063Z,餐饮服务,餐饮相关场所,餐饮相关,
113.55665777032786,22.1529916208222,Dinnertime Cafe 1826(pp岛泰国食馆),木铎街30AA号,澳门特别行政区,澳门特别行政区,嘉模堂区,,餐饮服务;外国餐厅;泰国/越南菜品餐厅,050206,B0JG1HFQ5D,餐饮服务,外国餐厅,泰国/越南菜品餐厅,
113.55717782152558,22.153146502224132,旺记咖啡,旧城区告利雅施利华街60号,澳门特别行政区,澳门特别行政区,嘉模堂区,,餐饮服务;餐饮相关场所;餐饮相关,050000,B0FFF6U03E,餐饮服务,餐饮相关场所,餐饮相关,
113.54090827386756,22.14061990289509,麦当劳(横琴口岸餐厅),横琴口岸广场AB区负AB105、106商铺,广东省,珠海市,香洲区,横琴,餐饮服务;快餐厅;麦当劳,050302,B0I0SUCF9Z,餐饮服务,快餐厅,麦当劳,
113.56470429691926,22.14628242286241,Rado Flagship Store - The Londoner Macao,澳门伦敦人购物中心1层1008号,澳门特别行政区,澳门特别行政区,路氹填海区,,购物服务;专卖店;钟表店|餐饮服务;餐饮相关场所;餐饮相关,061203|050000,B0JALC48VV,购物服务,专卖店,钟表店|餐饮服务,餐饮相关场所
113.55607053823756,22.15331180552701,新好利咖啡饼店面食,地堡街13-14号旧城区,澳门特别行政区,澳门特别行政区,嘉模堂区,,餐饮服务;外国餐厅;葡国菜,050213,B073D00IE6,餐饮服务,外国餐厅,葡国菜,
113.55558952645956,22.15344307611625,笃笃泰国美食(地堡街店),嘉模堂区地堡街269-275号泉福新村地下,澳门特别行政区,澳门特别行政区,嘉模堂区,,餐饮服务;外国餐厅;泰国/越南菜品餐厅,050206,B0GD9ZLE9O,餐饮服务,外国餐厅,泰国/越南菜品餐厅,
113.55728103553083,22.153070634224882,老虎堂(氹仔官也店),兵房斜巷与嘉路士米耶马路交叉口西北20米,澳门特别行政区,澳门特别行政区,嘉模堂区,,餐饮服务;中餐厅;中餐厅,050100,B0FFKSK3JJ,餐饮服务,中餐厅,中餐厅,
113.55688924466732,22.152980983436382,好记牛杂,告利雅施利华街149号,澳门特别行政区,澳门特别行政区,嘉模堂区,,餐饮服务;餐饮相关场所;餐饮相关,050000,B0JK2GMAC5,餐饮服务,餐饮相关场所,餐饮相关,
113.5573642085228,22.152995734900873,Rooftop Macau,旧城区兵房斜巷49号地铺,澳门特别行政区,澳门特别行政区,嘉模堂区,,餐饮服务;咖啡厅;咖啡厅,050500,B0FFIZRKWE,餐饮服务,咖啡厅,咖啡厅,
113.56445681748251,22.147193471943503,戈登拉姆齐英式酒吧Gordon Ramsay Pub&Grill,澳门路氹连贯公路澳门伦敦人1层,澳门特别行政区,澳门特别行政区,路氹填海区,,餐饮服务;餐饮相关场所;餐饮相关,050000,B0HG7ULB0S,餐饮服务,餐饮相关场所,餐饮相关,
113.55580898921568,22.153384410555017,马德拉葡国餐厅,凼仔地堡街292号地铺,澳门特别行政区,澳门特别行政区,嘉模堂区,,餐饮服务;外国餐厅;西餐厅(综合风味),050201,B0KRB9SDIL,餐饮服务,外国餐厅,西餐厅(综合风味),
113.55702048828826,22.153359338081728,老day牛杂,官也街8号,澳门特别行政区,澳门特别行政区,嘉模堂区,,餐饮服务;餐饮相关场所;餐饮相关,050000,B0FFHZZJ43,餐饮服务,餐饮相关场所,餐饮相关,
113.56468320324932,22.147197758072245,芝乐坊cheesecake factory餐厅,澳门路氹连贯公路澳门伦敦人2层2203D-E号,澳门特别行政区,澳门特别行政区,路氹填海区,,餐饮服务;外国餐厅;西餐厅(综合风味),050201,B0FFKB8801,餐饮服务,外国餐厅,西餐厅(综合风味),
113.55681608705459,22.153109918089218,澳葡之家La Famiglia,氹仔旧城区木铎街28-30号,澳门特别行政区,澳门特别行政区,嘉模堂区,,餐饮服务;外国餐厅;外国餐厅,050200,B0J6Z5IUDO,餐饮服务,外国餐厅,外国餐厅,
113.55725998695806,22.153164637993882,好好顺海鲜火锅饭店,施督宪正街91-99号,澳门特别行政区,澳门特别行政区,嘉模堂区,,餐饮服务;中餐厅;火锅店,050117,B0FFLOMO4W,餐饮服务,中餐厅,火锅店,
113.55551036082569,22.15343594396015,氹仔茶餐厅,"旧城区地堡街泉福新村Q,R铺",澳门特别行政区,澳门特别行政区,嘉模堂区,,餐饮服务;快餐厅;茶餐厅,050305,B073D00IJ2,餐饮服务,快餐厅,茶餐厅,
113.56472931552864,22.146660603611387,妙·泰The Mews,澳门路氹连贯公路澳门伦敦人1层,澳门特别行政区,澳门特别行政区,路氹填海区,,餐饮服务;餐饮相关场所;餐饮相关,050000,B0HG75LAUU,餐饮服务,餐饮相关场所,餐饮相关,
113.5576577997364,22.153001193346565,诚品咖啡,凼仔兵房斜巷5号地下,澳门特别行政区,澳门特别行政区,嘉模堂区,,餐饮服务;咖啡厅;咖啡厅,050500,B0GKO58GK7,餐饮服务,咖啡厅,咖啡厅,
113.5402844622551,22.142886440019527,新佳濠横琴生蚝火锅(横琴购店),横琴购商业广场一楼(美宜佳旁),广东省,珠海市,香洲区,横琴,餐饮服务;中餐厅;火锅店,050117,B0HG2C17T3,餐饮服务,中餐厅,火锅店,
113.5557749194182,22.153363346993636,平民翅王(地堡街总店),凼仔荣光巷万利大厦18号A地下C铺,澳门特别行政区,澳门特别行政区,嘉模堂区,,餐饮服务;中餐厅;中餐厅,050100,B0HKYRZ1PO,餐饮服务,中餐厅,中餐厅,
113.55566467246756,22.153623268964203,波尔图葡国餐(泉福新村嘉宏阁店),凼仔旧城区木铎街75号地下,澳门特别行政区,澳门特别行政区,嘉模堂区,,餐饮服务;外国餐厅;葡国菜,050213,B073D00IE4,餐饮服务,外国餐厅,葡国菜,
113.56484749350975,22.147014890913525,丘吉尔餐厅(澳门伦敦人购物中心店),金沙大道伦敦人购物中心1楼1026号,澳门特别行政区,澳门特别行政区,路氹填海区,,餐饮服务;外国餐厅;西餐厅(综合风味),050201,B0HGVUQ2FM,餐饮服务,外国餐厅,西餐厅(综合风味),
113.55729406139345,22.153078657721945,爆打柠檬茶(官也店),告利雅施利华街49号地下(官也街街头),澳门特别行政区,澳门特别行政区,嘉模堂区,,餐饮服务;冷饮店;冷饮店,050700,B0IA75CJFB,餐饮服务,冷饮店,冷饮店,
113.55707258466559,22.15351147939332,澳门安德鲁饼店,兵房斜巷与嘉路士米耶马路交叉口西北80米,澳门特别行政区,澳门特别行政区,嘉模堂区,,餐饮服务;糕饼店;糕饼店,050800,B0J1HHC1XQ,餐饮服务,糕饼店,糕饼店,
113.55714074950363,22.15309542413271,暹罗屋泰国菜,旧城区告利雅施利华街150号地下B号铺,澳门特别行政区,澳门特别行政区,嘉模堂区,,餐饮服务;外国餐厅;外国餐厅,050200,B0H3L9R81A,餐饮服务,外国餐厅,外国餐厅,
113.55619980154493,22.153386042668817,葡国美食天地(翠林花园店),澳门嘉模堂区生央街15A-C-D号,澳门特别行政区,澳门特别行政区,嘉模堂区,,餐饮服务;外国餐厅;葡国菜,050213,B073D00IJQ,餐饮服务,外国餐厅,葡国菜,
113.5569202925844,22.15322512776246,甜磨坊(翠林花园店),澳门木铎街67号旧成号地下,澳门特别行政区,澳门特别行政区,嘉模堂区,,餐饮服务;餐饮相关场所;餐饮相关,050000,B0FFF6T598,餐饮服务,餐饮相关场所,餐饮相关,
113.55596531120466,22.153443687008824,El Gaucho阿根廷餐厅,氹仔生央街61号1层(官也街附近),澳门特别行政区,澳门特别行政区,嘉模堂区,,餐饮服务;外国餐厅;外国餐厅,050200,B0FFF5LYME,餐饮服务,外国餐厅,外国餐厅,
113.55771891640086,22.15309632502812,蜂大咖啡,澳门凼仔兵房斜巷20号,澳门特别行政区,澳门特别行政区,嘉模堂区,,餐饮服务;咖啡厅;咖啡厅,050500,B0FFF4U0YG,餐饮服务,咖啡厅,咖啡厅,
113.5563450999126,22.153418288439642,新风帆饭店,德行街18号,澳门特别行政区,澳门特别行政区,嘉模堂区,,餐饮服务;中餐厅;中餐厅,050100,B073D00IDY,餐饮服务,中餐厅,中餐厅,
113.56484949253321,22.14708392065536,星巴克臻选店(澳门伦敦人购物中心),澳门路氹连贯公路澳门伦敦人2层2203G号,澳门特别行政区,澳门特别行政区,路氹填海区,,餐饮服务;咖啡厅;星巴克咖啡,050501,B0FFICH45P,餐饮服务,咖啡厅,星巴克咖啡,
113.54103530204553,22.145503122006605,川湘人家(银鑫花园店),横琴镇银鑫花园57号,广东省,珠海市,香洲区,,餐饮服务;中餐厅;中餐厅,050100,B0FFI9U2WM,餐饮服务,中餐厅,中餐厅,
113.55704753263313,22.153528446610046,荣记牛杂(官也街店),飞能便度街43号,澳门特别行政区,澳门特别行政区,嘉模堂区,,餐饮服务;餐饮相关场所;餐饮相关,050000,B0H2P5Q158,餐饮服务,餐饮相关场所,餐饮相关,
113.55577089449271,22.153624442290393,绿茵冰室,澳门地堡街泉福新邺第一期第三座嘉宏阁地下K铺,澳门特别行政区,澳门特别行政区,嘉模堂区,,餐饮服务;冷饮店;冷饮店,050700,B0KRGARH4O,餐饮服务,冷饮店,冷饮店,
113.55701547542522,22.1534013465776,星巴克(氹仔店),木钵街89-95号,澳门特别行政区,澳门特别行政区,嘉模堂区,,餐饮服务;咖啡厅;星巴克咖啡,050501,B0FFF4XRMN,餐饮服务,咖啡厅,星巴克咖啡,
113.55571878205109,22.153680379349343,达荣鱼翅汤面(泉福新村嘉宏阁店),氹仔地堡街泉福新村301号地下,澳门特别行政区,澳门特别行政区,嘉模堂区,,餐饮服务;餐饮相关场所;餐饮相关,050000,B073D0M3IS,餐饮服务,餐饮相关场所,餐饮相关,
113.55725395632862,22.153455742139883,澳门长洲糯米糍,凼仔柯打苏沙街4号地下,澳门特别行政区,澳门特别行政区,嘉模堂区,,餐饮服务;餐饮相关场所;餐饮相关,050000,B0HUD5L5GS,餐饮服务,餐饮相关场所,餐饮相关,
113.56571705406813,22.14534229523351,翡翠拉面小笼包(澳门伦敦人店),澳门路氹连贯公路澳门伦敦人1楼1026号铺,澳门特别行政区,澳门特别行政区,路氹填海区,,餐饮服务;中餐厅;中餐厅,050100,B0FFJCP53G,餐饮服务,中餐厅,中餐厅,
113.55719182994913,22.153462647538298,莫义记,澳门嘉模堂区凼仔官也街9号柏鸿大厦地下E座,澳门特别行政区,澳门特别行政区,嘉模堂区,,餐饮服务;中餐厅;广东菜(粤菜),050103,B0FFGUFX79,餐饮服务,中餐厅,广东菜(粤菜),
113.55609657004916,22.153662984481635,Tacos,德行街与地堡街交叉口东20米,澳门特别行政区,澳门特别行政区,嘉模堂区,,餐饮服务;外国餐厅;外国餐厅,050200,B0FFF2WGBW,餐饮服务,外国餐厅,外国餐厅,
113.55644629860662,22.153576512060255,澳门抹茶(氹仔官也街店),氹仔米也马嘉礼前地15号,澳门特别行政区,澳门特别行政区,嘉模堂区,,餐饮服务;餐饮相关场所;餐饮相关,050000,B0FFHKPZC4,餐饮服务,餐饮相关场所,餐饮相关,
113.55640720424053,22.15379453456871,华人冰室(官也街店),氹仔山治美兰打前地22号地下,澳门特别行政区,澳门特别行政区,嘉模堂区,,餐饮服务;餐饮相关场所;餐饮相关,050000,B0KDNAUFSL,餐饮服务,餐饮相关场所,餐饮相关,
113.5574122708732,22.153545024180534,世记咖啡,施督宪正街14号,澳门特别行政区,澳门特别行政区,嘉模堂区,,餐饮服务;咖啡厅;咖啡厅,050500,B0FFI6DDC0,餐饮服务,咖啡厅,咖啡厅,
113.55619377285997,22.153642132856408,清拉金屋美食,凼仔旧城区德行街30号地下(澳门地堡街312-332号喜利登广场),澳门特别行政区,澳门特别行政区,嘉模堂区,,餐饮服务;中餐厅;中餐厅,050100,B073D00IDX,餐饮服务,中餐厅,中餐厅,
113.5562388585201,22.153763252540447,小飞象葡国餐(喜来登广场店),地堡街喜来登广场2层,澳门特别行政区,澳门特别行政区,嘉模堂区,,餐饮服务;外国餐厅;葡国菜,050213,B073D00IDR,餐饮服务,外国餐厅,葡国菜,
113.55700745441095,22.153475362818806,阿根牛杂(官也街店),官也街41-AA号,澳门特别行政区,澳门特别行政区,嘉模堂区,,餐饮服务;餐饮相关场所;餐饮相关,050000,B0KBX6G5EN,餐饮服务,餐饮相关场所,餐饮相关,
113.55690022962628,22.15357323188425,晃记饼家(翠林花园店),澳门特别行政区嘉模堂区凼仔官也街14号旧城区,澳门特别行政区,澳门特别行政区,嘉模堂区,,餐饮服务;糕饼店;糕饼店,050800,B073D00M0U,餐饮服务,糕饼店,糕饼店,
113.5572489369848,22.15360079085579,泽贤记蛋球仔专门店(官也街店),安乐街13-15号,澳门特别行政区,澳门特别行政区,嘉模堂区,,餐饮服务;餐饮相关场所;餐饮相关,050000,B0K6MHI82M,餐饮服务,餐饮相关场所,餐饮相关,
113.55616770563955,22.153851172417532,谭家鱼翅(氹仔),[],澳门特别行政区,澳门特别行政区,嘉模堂区,,餐饮服务;中餐厅;中餐厅,050100,B0FFJCXKOB,餐饮服务,中餐厅,中餐厅,
113.56588029925288,22.145724643037916,海底捞(澳门伦敦人购物中心),澳门伦敦人1层1048A,澳门特别行政区,澳门特别行政区,路氹填海区,,餐饮服务;中餐厅;火锅店,050117,B0G0PLG781,餐饮服务,中餐厅,火锅店,
113.56509790667839,22.147162259362666,添好运(澳门伦敦人店),澳门路氹连贯公路澳门伦敦人购物中心1层1050铺,澳门特别行政区,澳门特别行政区,路氹填海区,,餐饮服务;中餐厅;中餐厅,050100,B0HGVUR0BN,餐饮服务,中餐厅,中餐厅,
113.55568470806472,22.153723340624218,咖喱全,地堡街与德行街交叉口西20米,澳门特别行政区,澳门特别行政区,嘉模堂区,,餐饮服务;餐饮相关场所;餐饮相关,050000,B0FFF2VX5G,餐饮服务,餐饮相关场所,餐饮相关,
113.55640520993819,22.153639470923988,舞伎Matcha cafe Maiko(氹仔官也街店),氹仔福隆彩巷19号地下B座,澳门特别行政区,澳门特别行政区,嘉模堂区,,餐饮服务;餐饮相关场所;餐饮相关,050000,B0K1KLB94W,餐饮服务,餐饮相关场所,餐饮相关,
113.54022227781543,22.143161412463844,汉堡王(横琴购口岸商业广场),港澳大道横琴口岸商业广场首层090号,广东省,珠海市,香洲区,横琴,餐饮服务;快餐厅;快餐厅,050300,B0FFLN25G6,餐饮服务,快餐厅,快餐厅,
113.56493160862155,22.147444164865703,Lady M New York(澳门伦敦人店),澳门路氹连贯公路澳门伦敦人2楼2203B号铺,澳门特别行政区,澳门特别行政区,路氹填海区,,餐饮服务;咖啡厅;咖啡厅,050500,B0FFL32OEV,餐饮服务,咖啡厅,咖啡厅,
113.55643826883652,22.153785580744277,大利来记(官也街店2),水鸭街与地堡街交叉口东南40米,澳门特别行政区,澳门特别行政区,嘉模堂区,,餐饮服务;快餐厅;快餐厅,050300,B0FFKSHW51,餐饮服务,快餐厅,快餐厅,
113.55685813691346,22.15368020708469,山度士葡式餐厅(翠林花园店),凼仔岛官也街20号,澳门特别行政区,澳门特别行政区,嘉模堂区,,餐饮服务;中餐厅;中餐厅,050100,B073D0M5XJ,餐饮服务,中餐厅,中餐厅,
113.55192089670473,22.116458901062767,桥记咖啡美食,路环入便村水桶巷7号,澳门特别行政区,澳门特别行政区,圣方济各堂区,,餐饮服务;餐饮相关场所;餐饮相关,050000,B0ID5RYK00,餐饮服务,餐饮相关场所,餐饮相关,
113.55234280753986,22.116990869067877,路环辉记美食茶座,澳门圣方济各堂区路环市区打缆街33-37号,澳门特别行政区,澳门特别行政区,圣方济各堂区,,餐饮服务;茶艺馆;茶艺馆,050600,B073D00IT9,餐饮服务,茶艺馆,茶艺馆,
113.55094368822512,22.116354100938448,听海,打缆街33-37号,澳门特别行政区,澳门特别行政区,圣方济各堂区,,餐饮服务;餐饮相关场所;餐饮相关,050000,B0HDDH96GE,餐饮服务,餐饮相关场所,餐饮相关,
113.55146584885564,22.116793226701837,陈胜记(花园围店),澳门路环市区计单奴街21号,澳门特别行政区,澳门特别行政区,圣方济各堂区,,餐饮服务;中餐厅;中餐厅,050100,B073D0M62L,餐饮服务,中餐厅,中餐厅,
113.551282449039,22.116534789193974,丽华美食,路环蕲单奴街41号,澳门特别行政区,澳门特别行政区,圣方济各堂区,,餐饮服务;中餐厅;中餐厅,050100,B0I0RDW6IX,餐饮服务,中餐厅,中餐厅,
113.55138065394408,22.116821085109493,真之味菜馆(花园围店),新巷与水桶巷交叉口西40米,澳门特别行政区,澳门特别行政区,圣方济各堂区,,餐饮服务;中餐厅;中餐厅,050100,B0FFFXFPQM,餐饮服务,中餐厅,中餐厅,
113.55114711135856,22.117004740098686,雅憩花园葡国餐(花园围店),新巷与水桶巷交叉口西60米,澳门特别行政区,澳门特别行政区,圣方济各堂区,,餐饮服务;中餐厅;中餐厅,050100,B073D0M5WK,餐饮服务,中餐厅,中餐厅,
113.55127441832474,22.116731856632033,公仔沙茶档,环岛记单奴街29号,澳门特别行政区,澳门特别行政区,圣方济各堂区,,餐饮服务;餐饮相关场所;餐饮相关,050000,B0JR4MYVUM,餐饮服务,餐饮相关场所,餐饮相关,
113.55899696733505,22.11317811867826,陆舟餐厅,竹湾马路与乡村马路交叉口东南160米,澳门特别行政区,澳门特别行政区,圣方济各堂区,,餐饮服务;外国餐厅;外国餐厅,050200,B0FFF5L04O,餐饮服务,外国餐厅,外国餐厅,
113.54660163295748,22.11251625517113,Chill House萃岚,宝山路与南角街交叉口东南240米,广东省,珠海市,香洲区,,餐饮服务;外国餐厅;外国餐厅,050200,B0I0DOOLCB,餐饮服务,外国餐厅,外国餐厅,
113.5464963605919,22.112732136830203,亮·渡 Light House海景餐厅,环岛东路5000号星乐度·横琴码头驿站2栋101-1,广东省,珠海市,香洲区,,餐饮服务;餐饮相关场所;餐饮相关,050000,B0G23CCKUQ,餐饮服务,餐饮相关场所,餐饮相关,
113.56039562928058,22.113557324307877,竹湾海滩咖啡茶座,澳门竹湾海滩澳门,澳门特别行政区,澳门特别行政区,圣方济各堂区,,餐饮服务;咖啡厅;咖啡厅,050500,B0FFFXFVXS,餐饮服务,咖啡厅,咖啡厅,
113.54567123307385,22.11408005067416,老成都,宝中路商业步行街A47,广东省,珠海市,香洲区,横琴,餐饮服务;中餐厅;中餐厅,050100,B0FFH47WKQ,餐饮服务,中餐厅,中餐厅,
113.54559402390018,22.114345005636785,渔洋鲜海鲜大排档(横琴长隆总店),宝兴路23号101号,广东省,珠海市,香洲区,横琴,餐饮服务;中餐厅;海鲜酒楼,050119,B0JRZ989NY,餐饮服务,中餐厅,海鲜酒楼,
113.54536843490986,22.11474871816929,俊兴海鲜大排档(横琴长隆店),宝兴路43号,广东省,珠海市,香洲区,横琴,餐饮服务;中餐厅;中餐厅,050100,B0FFGBK0ZU,餐饮服务,中餐厅,中餐厅,
113.54546168627306,22.114460786750612,大三元生蚝火锅(盈福楼店),横琴宝中路26号(盈福楼门面),广东省,珠海市,香洲区,横琴,餐饮服务;中餐厅;中餐厅,050100,B0FFIP2A7M,餐饮服务,中餐厅,中餐厅,
113.54546769729949,22.114523825191547,冯姐生蚝(横琴店),横琴镇宝兴路29号,广东省,珠海市,香洲区,横琴,餐饮服务;中餐厅;海鲜酒楼,050119,B0I1KCXLR2,餐饮服务,中餐厅,海鲜酒楼,
113.54534938153759,22.114838717104323,湛吴大排档(横琴长隆店),横琴新区宝兴路45号(长隆附近有车接),广东省,珠海市,香洲区,横琴,餐饮服务;中餐厅;海鲜酒楼,050119,B0HRRUTUPP,餐饮服务,中餐厅,海鲜酒楼,
113.54542258082452,22.11458275854654,蟹将顺德辣炒海鲜(横琴长隆店),宝兴路35号,广东省,珠海市,香洲区,横琴,餐饮服务;餐饮相关场所;餐饮相关,050000,B0KAM95GCD,餐饮服务,餐饮相关场所,餐饮相关,
113.54571534904575,22.113983099014266,成都印象·正宗湘菜海鲜,宝山路与南角街交叉口南60米,广东省,珠海市,香洲区,横琴,餐饮服务;中餐厅;中餐厅,050100,B0K30UVD2K,餐饮服务,中餐厅,中餐厅,
113.54519797220362,22.11531260750236,麦当劳(横琴步行街店),横琴新区宝兴路67号一层-3商铺,广东省,珠海市,香洲区,横琴,餐饮服务;餐饮相关场所;餐饮相关,050000,B0FFK7CVBP,餐饮服务,餐饮相关场所,餐饮相关,
113.5456110910184,22.113956878089386,潮味牛肉粿条汤,宝山路与南角街交叉口南60米,广东省,珠海市,香洲区,横琴,餐饮服务;中餐厅;中餐厅,050100,B0K2DCD57D,餐饮服务,中餐厅,中餐厅,
113.54550280225708,22.114250782224644,和记至尊肠粉皇(珠海长隆店),宝兴路11号1层102,广东省,珠海市,香洲区,横琴,餐饮服务;中餐厅;中餐厅,050100,B0KU5MOVIY,餐饮服务,中餐厅,中餐厅,
113.54521503678389,22.11496849877551,横琴湛记大排档,横琴镇红旗村海河街3号(长隆附近免费专车接送),广东省,珠海市,香洲区,横琴,餐饮服务;中餐厅;广东菜(粤菜),050103,B0FFF9VUHX,餐饮服务,中餐厅,广东菜(粤菜),
113.54512778042442,22.115559567719632,小荣大胜茶餐厅(横琴店),横琴镇宝兴路57-4号,广东省,珠海市,香洲区,横琴,餐饮服务;快餐厅;快餐厅,050300,B0G2X9O8TP,餐饮服务,快餐厅,快餐厅,
113.54543962113445,22.114618808042,小龙坎老火锅,宝兴路与南角街交叉口西北20米,广东省,珠海市,香洲区,横琴,餐饮服务;中餐厅;火锅店,050117,B0KRY5WM1B,餐饮服务,中餐厅,火锅店,
113.54538146230406,22.114830778752182,果度大排档(横琴店),宝兴路45-47号,广东省,珠海市,香洲区,横琴,餐饮服务;中餐厅;中餐厅,050100,B02F40Q4NM,餐饮服务,中餐厅,中餐厅,
113.54540753827908,22.114660760641243,妈阁饼家(盈福楼店),宝兴路与南角街交叉口西北40米,广东省,珠海市,香洲区,横琴,餐饮服务;糕饼店;糕饼店,050800,B0JK1XGNAI,餐饮服务,糕饼店,糕饼店,
113.54493333257739,22.11491090142663,玲姐海鲜大排档烧蚝王(横琴长隆总店),"横琴镇海河街南第1栋11号(横琴派出所,中国电信旁)",广东省,珠海市,香洲区,横琴,餐饮服务;中餐厅;中餐厅,050100,B0GRNZ99D8,餐饮服务,中餐厅,中餐厅,
113.54523210052746,22.11463739538494,豪鑫大排档,宝兴路与南角街交叉口西北40米,广东省,珠海市,香洲区,横琴,餐饮服务;中餐厅;中餐厅,050100,B0K1LZ3XFL,餐饮服务,中餐厅,中餐厅,
113.54503553835528,22.115722447821632,大横琴海鲜酒家(横琴步行街店),横琴新区宝兴路63-67号,广东省,珠海市,香洲区,横琴,餐饮服务;中餐厅;海鲜酒楼,050119,B02F40Q0ZR,餐饮服务,中餐厅,海鲜酒楼,
113.54477393507739,22.114842547258522,湛记海鲜大排档,横琴新区红旗村海河街1栋2-3号,广东省,珠海市,香洲区,横琴,餐饮服务;中餐厅;海鲜酒楼,050119,B0JUY6GMP5,餐饮服务,中餐厅,海鲜酒楼,
113.54461950181647,22.11552251415774,新澳海鲜大排档(横琴长隆总店),宝中路60号,广东省,珠海市,香洲区,横琴,餐饮服务;中餐厅;海鲜酒楼,050119,B0KGUAFZX3,餐饮服务,中餐厅,海鲜酒楼,
113.54493131705173,22.115075966105678,胃口福饺子云吞(珠海横琴市场店),海河街4号,广东省,珠海市,香洲区,横琴,餐饮服务;中餐厅;特色/地方风味餐厅,050118,B0IRTZGCS5,餐饮服务,中餐厅,特色/地方风味餐厅,
113.54449323350858,22.114710916655742,海之鲜大排档,[],广东省,珠海市,香洲区,横琴,餐饮服务;中餐厅;海鲜酒楼,050119,B0G3KCNPXU,餐饮服务,中餐厅,海鲜酒楼,
113.56178519383351,22.11386240416945,竹湾酒店餐厅,澳门路环竹湾海滩旁(澳门路环竹湾马路竹湾酒店顶层),澳门特别行政区,澳门特别行政区,圣方济各堂区,,餐饮服务;外国餐厅;外国餐厅,050200,B0FFF5P6H5,餐饮服务,外国餐厅,外国餐厅,
113.54491026466876,22.11506591895598,春莹美食(横琴店),横琴镇珠海横琴红旗村海河街6号,广东省,珠海市,香洲区,横琴,餐饮服务;快餐厅;快餐厅,050300,B0FFFVVCPR,餐饮服务,快餐厅,快餐厅,
113.5446626251119,22.1152975088804,沪上阿姨鲜果茶(横琴店),横琴镇宝中路50号,广东省,珠海市,香洲区,横琴,餐饮服务;冷饮店;冷饮店,050700,B0JB7UNO5X,餐饮服务,冷饮店,冷饮店,
113.54433583787677,22.114652568276323,珠海横琴琴海海鲜大排档,横琴粤澳深度合作区海河街第七栋第一层01单元,广东省,珠海市,香洲区,横琴,餐饮服务;中餐厅;海鲜酒楼,050119,B0I6BALTQK,餐饮服务,中餐厅,海鲜酒楼,
113.54460246321055,22.11545144960293,丹唛轩(横琴店),宝中路56号横琴市场对面,广东省,珠海市,香洲区,横琴,餐饮服务;糕饼店;糕饼店,050800,B0FFGDBREG,餐饮服务,糕饼店,糕饼店,
113.54429471864957,22.114885580615915,琴鸣海鲜大排档(横琴长隆店),海河街横琴大厦,广东省,珠海市,香洲区,横琴,餐饮服务;中餐厅;中餐厅,050100,B0FFIITO9I,餐饮服务,中餐厅,中餐厅,
113.54454135426701,22.114729023101393,新疆亚森兄弟烤羊肉串,海河街与宝华路交叉口南20米,广东省,珠海市,香洲区,横琴,餐饮服务;中餐厅;中餐厅,050100,B0IKFZ0CAV,餐饮服务,中餐厅,中餐厅,
113.54472272940896,22.11604894487161,华莱士·全鸡汉堡(横琴步行街店),珠海横琴新区银河街14号,广东省,珠海市,香洲区,横琴,餐饮服务;餐饮相关场所;餐饮相关,050000,B0FFHCUKXR,餐饮服务,餐饮相关场所,餐饮相关,
113.5440110557752,22.113945601885025,王發别院(横琴店),横琴新区南角街33-3号,广东省,珠海市,香洲区,横琴,餐饮服务;中餐厅;湖南菜(湘菜),050108,B0IGV74CJI,餐饮服务,中餐厅,湖南菜(湘菜),
113.54477683915884,22.11647323211161,必胜客(横琴店),横琴新区宝兴路75号商铺,广东省,珠海市,香洲区,横琴,餐饮服务;快餐厅;快餐厅,050300,B0GKTZPRCG,餐饮服务,快餐厅,快餐厅,
113.54457739762788,22.115485412297623,永隆海鲜餐厅,横琴新区红旗村宝中路60号,广东省,珠海市,香洲区,横琴,餐饮服务;中餐厅;海鲜酒楼,050119,B0JA3YOK91,餐饮服务,中餐厅,海鲜酒楼,
113.54447513150706,22.115597248725493,串掌门砂锅串串香(横琴国际休闲旅游岛店),银河街1号,广东省,珠海市,香洲区,横琴,餐饮服务;餐饮相关场所;餐饮相关,050000,B0JRAHMOAZ,餐饮服务,餐饮相关场所,餐饮相关,
113.54469061032519,22.116648128277603,捞得鲜海鲜餐厅(中餐·晚餐·粥底火锅),宝兴路83号二楼,广东省,珠海市,香洲区,横琴,餐饮服务;中餐厅;中餐厅,050100,B0K60Z15Y3,餐饮服务,中餐厅,中餐厅,
113.54467256033908,22.11671711996641,澳门葡记手信现烤店(横琴步行街店),宝兴路81号,广东省,珠海市,香洲区,横琴,餐饮服务;餐饮相关场所;餐饮相关,050000,B0KATAOHIP,餐饮服务,餐饮相关场所,餐饮相关,
113.54456637866843,22.11534433091427,香他她腊味煲仔饭,横琴镇宝中路54号,广东省,珠海市,香洲区,横琴,餐饮服务;餐饮相关场所;餐饮相关,050000,B0FFKFZ76B,餐饮服务,餐饮相关场所,餐饮相关,
113.54449924906845,22.114705926942896,鲜榨甘蔗汁,海河街与宝华路交叉口南20米,广东省,珠海市,香洲区,横琴,餐饮服务;餐饮相关场所;餐饮相关,050000,B0KRKD1HW1,餐饮服务,餐饮相关场所,餐饮相关,
113.5444240420586,22.11496387975938,梅州盐焗店,管委会大楼西南门东南190米,广东省,珠海市,香洲区,横琴,餐饮服务;餐饮相关场所;餐饮相关,050000,B0K129I93Y,餐饮服务,餐饮相关场所,餐饮相关,
113.54457644589387,22.114685076846076,阿卜杜兄弟烤羊肉串,海河街与宝华路交叉口东南20米,广东省,珠海市,香洲区,横琴,餐饮服务;中餐厅;中餐厅,050100,B0KKGA8121,餐饮服务,中餐厅,中餐厅,
113.54469562445152,22.116625128989902,肯德基(横琴店),横琴新区宝兴路79号商铺81号商铺,广东省,珠海市,香洲区,横琴,餐饮服务;快餐厅;肯德基,050301,B0FFKUQAOV,餐饮服务,快餐厅,肯德基,
113.54446809136311,22.11594938082496,库迪咖啡(横琴国际休闲旅游岛店),横琴镇银河街24号(华莱士西侧),广东省,珠海市,香洲区,横琴,餐饮服务;咖啡厅;咖啡厅,050500,B0J1VR8YWU,餐饮服务,咖啡厅,咖啡厅,
113.54490118498238,22.11596327410329,鄰里LEMON手打柠檬茶,银河街与宝兴路交叉口西南20米,广东省,珠海市,香洲区,横琴,餐饮服务;冷饮店;冷饮店,050700,B0JG2674VT,餐饮服务,冷饮店,冷饮店,
113.54449415736481,22.11595043486729,春莹大排档(横琴店),横琴新区银河街20号,广东省,珠海市,香洲区,横琴,餐饮服务;中餐厅;广东菜(粤菜),050103,B0FFGA5QDP,餐饮服务,中餐厅,广东菜(粤菜),
113.5439879309362,22.11498498745037,东记肠粉早餐快餐(横琴店),横琴镇红旗村横琴市场,广东省,珠海市,香洲区,横琴,餐饮服务;快餐厅;快餐厅,050300,B0FFGBNDJ4,餐饮服务,快餐厅,快餐厅,
113.54367320871275,22.113674786402353,横琴蚝苑,红旗村南角街33-5,广东省,珠海市,香洲区,,餐饮服务;中餐厅;中餐厅,050100,B0HB2CWQI3,餐饮服务,中餐厅,中餐厅,
113.54447305612058,22.116704705185416,孔一凡饺子(横琴国际休闲旅游岛店),横琴镇德政街9号,广东省,珠海市,香洲区,横琴,餐饮服务;中餐厅;中餐厅,050100,B0FFGBN71E,餐饮服务,中餐厅,中餐厅,
113.54389667065712,22.115413976762298,古春堂凉茶甜品(横琴店),横琴镇银河街17号(人民医院对面),广东省,珠海市,香洲区,横琴,餐饮服务;冷饮店;冷饮店,050700,B0FFFBUFD0,餐饮服务,冷饮店,冷饮店,
113.54463646947566,22.11671104344423,甜舍之旅现制烘焙(横琴店),横琴新区宝兴路83号酒店二楼餐厅,广东省,珠海市,香洲区,横琴,餐饮服务;糕饼店;糕饼店,050800,B0HRO7LYZ0,餐饮服务,糕饼店,糕饼店,
113.54415335700648,22.11491730184198,港式烧腊快餐,横琴镇宝华路3号101,广东省,珠海市,香洲区,横琴,餐饮服务;快餐厅;快餐厅,050300,B0JD9RVRGE,餐饮服务,快餐厅,快餐厅,
113.54450512580027,22.116887847242758,粤之味海鲜大排档,红旗村德政街10号1-2层内设包间,广东省,珠海市,香洲区,横琴,餐饮服务;中餐厅;海鲜酒楼,050119,B0HUSZJRHS,餐饮服务,中餐厅,海鲜酒楼,
113.54415636072771,22.114979333907822,湛江肥华食店,宝华路与海河街交叉口西北40米,广东省,珠海市,香洲区,横琴,餐饮服务;中餐厅;中餐厅,050100,B0J11PWISO,餐饮服务,中餐厅,中餐厅,
113.54442196749473,22.116058331250017,粒粒香煲仔饭,横琴新区红旗村宝中路72号,广东省,珠海市,香洲区,横琴,餐饮服务;中餐厅;中餐厅,050100,B0H1MR0W7V,餐饮服务,中餐厅,中餐厅,
113.54389271738047,22.114516594544558,不二家烤鱼烧烤,海河街23号,广东省,珠海市,香洲区,横琴,餐饮服务;中餐厅;中餐厅,050100,B0FFK8IQZE,餐饮服务,中餐厅,中餐厅,
113.54438287298328,22.115984219906082,毛记秘制烤鸭肠·老罗家臭豆腐(横琴商业步行街店),宝兴路横琴步行街A13号,广东省,珠海市,香洲区,横琴,餐饮服务;餐饮相关场所;餐饮相关,050000,B0KGDPNU6H,餐饮服务,餐饮相关场所,餐饮相关,
113.54427358123962,22.116207087284096,书亦烧仙草(珠海横琴镇步行街店),横琴镇红旗村14号102,广东省,珠海市,香洲区,横琴,餐饮服务;冷饮店;冷饮店,050700,B0JAFZMJST,餐饮服务,冷饮店,冷饮店,
113.54429260094929,22.11665931458789,石泉食府·正宗传统湘菜(横琴长隆店),横琴新区德政街1号海上琴都酒店二楼,广东省,珠海市,香洲区,横琴,餐饮服务;中餐厅;湖南菜(湘菜),050108,B0GUOC5SL1,餐饮服务,中餐厅,湖南菜(湘菜),
113.54446903503143,22.116876768427353,好彩茶餐厅,横琴镇德政街8号,广东省,珠海市,香洲区,横琴,餐饮服务;快餐厅;茶餐厅,050305,B02F40Q4NP,餐饮服务,快餐厅,茶餐厅,
113.54425950401762,22.116861330249574,添悦顺德人家(横琴店),横琴镇德政街22号(二楼),广东省,珠海市,香洲区,横琴,餐饮服务;中餐厅;中餐厅,050100,B0FFKQ699Q,餐饮服务,中餐厅,中餐厅,
113.54337944284342,22.113849245212077,蚝之鲜,横琴南角街33号-6,广东省,珠海市,香洲区,横琴,餐饮服务;中餐厅;中餐厅,050100,B0K6T5PLYW,餐饮服务,中餐厅,中餐厅,
113.5439217702757,22.1148537954778,向荣食肆,永兴街与祥和三巷交叉口东南160米,广东省,珠海市,香洲区,横琴,餐饮服务;中餐厅;中餐厅,050100,B0J1NXMJLM,餐饮服务,中餐厅,中餐厅,
113.54388463723731,22.115455969253198,沙县小吃(横琴步行街店),宝中路19号(横琴步行街)石山村22,广东省,珠海市,香洲区,横琴,餐饮服务;中餐厅;中餐厅,050100,B0FFHDXEV2,餐饮服务,中餐厅,中餐厅,
113.54437379393674,22.116868568958346,两广海鲜大排档(横琴总店),横琴镇德政街22号一楼,广东省,珠海市,香洲区,横琴,餐饮服务;中餐厅;海鲜酒楼,050119,B0FFLKC51H,餐饮服务,中餐厅,海鲜酒楼,
113.54441590002963,22.116880660701863,陕西特色面馆(横琴步行街店),德政街16号,广东省,珠海市,香洲区,横琴,餐饮服务;中餐厅;中餐厅,050100,B0FFG15EVM,餐饮服务,中餐厅,中餐厅,
113.54464649787451,22.11666304405736,四方桌大排档,银河街10号101,广东省,珠海市,香洲区,横琴,餐饮服务;中餐厅;中餐厅,050100,B0IRUM0N1E,餐饮服务,中餐厅,中餐厅,
113.5439217341989,22.115422032167523,潮合食档(长隆店),管委会大楼西南门东南110米,广东省,珠海市,香洲区,横琴,餐饮服务;中餐厅;中餐厅,050100,B0I2C5BW8K,餐饮服务,中餐厅,中餐厅,
113.5439257590534,22.115191944679,兴粮品(长隆店),宝华路29号1楼4号商铺,广东省,珠海市,香洲区,横琴,餐饮服务;中餐厅;中餐厅,050100,B0FFLLIAIB,餐饮服务,中餐厅,中餐厅,
113.54391465020895,22.116462450435936,琴澳海鲜大排档,横琴镇横琴商业步行街宝中路55号,广东省,珠海市,香洲区,横琴,餐饮服务;中餐厅;火锅店,050117,B0J23M8QAP,餐饮服务,中餐厅,火锅店,
113.5439357624984,22.11554111088103,潮粥人潮汕海鲜砂锅粥,横琴镇银河街17号一层101,广东省,珠海市,香洲区,横琴,餐饮服务;中餐厅;海鲜酒楼,050119,B0J2P5325I,餐饮服务,中餐厅,海鲜酒楼,
113.54421040751912,22.116413042494884,重庆小面(珠海横琴店),银河街步行街临时街亭B08号,广东省,珠海市,香洲区,横琴,餐饮服务;快餐厅;快餐厅,050300,B0IDRA2B3X,餐饮服务,快餐厅,快餐厅,
113.54401089978465,22.11640262526005,渝香重庆小面,横琴镇红旗村宝中路首层47号铺,广东省,珠海市,香洲区,横琴,餐饮服务;快餐厅;快餐厅,050300,B0JR3YA3BS,餐饮服务,快餐厅,快餐厅,
113.54405602928831,22.116175624365525,佳兴柳州螺蛳粉,横琴镇红旗村宝中路33号,广东省,珠海市,香洲区,横琴,餐饮服务;中餐厅;中餐厅,050100,B0KRBKR2BW,餐饮服务,中餐厅,中餐厅,
113.54441589729863,22.116923678572196,东江客家菜馆·海鲜(长隆横琴店),横琴镇红旗村德政街10号,广东省,珠海市,香洲区,横琴,餐饮服务;中餐厅;中餐厅,050100,B073D0MAV3,餐饮服务,中餐厅,中餐厅,
113.54399585753171,22.116463619435596,LaiLaiThai莱莱泰,横琴红旗村宝中路49号,广东省,珠海市,香洲区,横琴,餐饮服务;餐饮相关场所;餐饮相关,050000,B0J2M5KQCE,餐饮服务,餐饮相关场所,餐饮相关,
113.54399081647152,22.116908794034256,文记海鲜餐厅(横琴长隆店),横琴镇横琴新区宝中路104号,广东省,珠海市,香洲区,横琴,餐饮服务;中餐厅;海鲜酒楼,050119,B0FFILDGXE,餐饮服务,中餐厅,海鲜酒楼,
113.54394472958752,22.116422496266345,广记茶餐厅(横琴店),宝中路45号,广东省,珠海市,香洲区,横琴,餐饮服务;快餐厅;茶餐厅,050305,B0JB3AEPB7,餐饮服务,快餐厅,茶餐厅,
113.54307663736641,22.11423076835362,回家湘(横琴店),海河街33号2单元1层(停车场对面),广东省,珠海市,香洲区,横琴,餐饮服务;中餐厅;中餐厅,050100,B0FFF1H16H,餐饮服务,中餐厅,中餐厅,
113.54355181520815,22.114969072981374,潮汕海鲜砂锅粥(横琴店),永兴街14号一楼101单元,广东省,珠海市,香洲区,横琴,餐饮服务;餐饮相关场所;餐饮相关,050000,B0KU9SHFAB,餐饮服务,餐饮相关场所,餐饮相关,
113.54384746883008,22.116614374018432,金元朗(横琴店),横琴镇宝中路57号福永轩酒家一楼,广东省,珠海市,香洲区,横琴,餐饮服务;甜品店;甜品店,050900,B0HAXALR0R,餐饮服务,甜品店,甜品店,
113.54389559123776,22.116624478220192,福永轩海鲜酒家(横琴店),横琴镇宝中路57号,广东省,珠海市,香洲区,横琴,餐饮服务;快餐厅;快餐厅,050300,B0FFK6DWYF,餐饮服务,快餐厅,快餐厅,
113.54380743876925,22.115471815359978,元记蒸味馆·原蛊蒸饭炖汤,宝华路与银河街交叉口东20米,广东省,珠海市,香洲区,横琴,餐饮服务;中餐厅;中餐厅,050100,B0KA7L5UFH,餐饮服务,中餐厅,中餐厅,
113.54355581960053,22.115062120124307,粥师傅茶餐厅(长隆店),横琴镇永兴二巷4号,广东省,珠海市,香洲区,横琴,餐饮服务;中餐厅;中餐厅,050100,B0J1ZMAJMM,餐饮服务,中餐厅,中餐厅,
113.5439838011617,22.116867762433746,蜜雪冰城(红旗村店),宝中路与德政街交叉口北20米,广东省,珠海市,香洲区,横琴,餐饮服务;冷饮店;冷饮店,050700,B0KDZBLXCA,餐饮服务,冷饮店,冷饮店,
113.54412416176866,22.11682603586565,汤姆布利柏韩国炸鸡,德政街与宝中路交叉口东北20米,广东省,珠海市,香洲区,横琴,餐饮服务;快餐厅;快餐厅,050300,B0K37SJECV,餐饮服务,快餐厅,快餐厅,
113.54356983531856,22.115382282786094,壹号广式茶点·汤粉·粥,宝华路与银河街交叉口南20米,广东省,珠海市,香洲区,横琴,餐饮服务;快餐厅;快餐厅,050300,B0KAX7AKDG,餐饮服务,快餐厅,快餐厅,
113.54349365582125,22.11512601681097,一品鲜海鲜大排档,横琴永兴街18号105单元,广东省,珠海市,香洲区,横琴,餐饮服务;中餐厅;海鲜酒楼,050119,B0FFKK77T2,餐饮服务,中餐厅,海鲜酒楼,
113.54349565386093,22.115238067674223,香港杏记甜品,永兴街18号,广东省,珠海市,香洲区,横琴,餐饮服务;甜品店;甜品店,050900,B0KDNDSCQ2,餐饮服务,甜品店,甜品店,
113.54349565386093,22.115238067674223,香港杏记甜品,永兴街18号,广东省,珠海市,香洲区,横琴,餐饮服务;甜品店;甜品店,050900,B0KDNDSCQ2,餐饮服务,甜品店,甜品店,
113.54364194454384,22.116579931689408,阳光食堂,德政街23号铺一,广东省,珠海市,香洲区,横琴,餐饮服务;中餐厅;中餐厅,050100,B0J079BJIB,餐饮服务,中餐厅,中餐厅,
113.54343551130286,22.11504686216721,老字号糖水,永兴街与祥和三巷交叉口东南100米,广东省,珠海市,香洲区,横琴,餐饮服务;甜品店;甜品店,050900,B0KRCH4O3Q,餐饮服务,甜品店,甜品店,
113.54378129855534,22.116629242560673,邱记东北手工面馆,德政街与宝中路交叉口西南20米,广东省,珠海市,香洲区,横琴,餐饮服务;中餐厅;中餐厅,050100,B0KBT4W08W,餐饮服务,中餐厅,中餐厅,
113.54325403077083,22.11525256738933,闺蜜茶档,宝华路与银河街交叉口西南40米,广东省,珠海市,香洲区,横琴,餐饮服务;冷饮店;冷饮店,050700,B0J37MBYO8,餐饮服务,冷饮店,冷饮店,
113.54340638033229,22.115931169435104,潮汕捞汁小海鲜,管委会大楼西南门旁,广东省,珠海市,香洲区,横琴,餐饮服务;中餐厅;中餐厅,050100,B0J1NOL1L5,餐饮服务,中餐厅,中餐厅,
113.54339037639522,22.115342890981086,风記大排档,宝华路与银河街交叉口西南40米,广东省,珠海市,香洲区,横琴,餐饮服务;中餐厅;中餐厅,050100,B0KDS4SZQR,餐饮服务,中餐厅,中餐厅,
113.54337732892807,22.11556195487716,名蠔海鲜大排档,宝华路与银河街交叉口西20米,广东省,珠海市,香洲区,横琴,餐饮服务;中餐厅;海鲜酒楼,050119,B0K60S0B8C,餐饮服务,中餐厅,海鲜酒楼,
113.54343849458378,22.115432028873663,蒋氏手撕烤鸭,宝华路与银河街交叉口西南20米,广东省,珠海市,香洲区,横琴,餐饮服务;餐饮相关场所;餐饮相关,050000,B0KRKD4EIF,餐饮服务,餐饮相关场所,餐饮相关,
113.54316781606582,22.115129334887673,禧穗茶餐厅,横琴镇永兴街26号,广东省,珠海市,香洲区,横琴,餐饮服务;餐饮相关场所;餐饮相关,050000,B0J2Z69I0U,餐饮服务,餐饮相关场所,餐饮相关,
113.5431778423986,22.11512235305972,瑶记蚝鸡煲(横琴长隆店),永兴路26号,广东省,珠海市,香洲区,横琴,餐饮服务;中餐厅;综合酒楼,050101,B0JUUMPR6E,餐饮服务,中餐厅,综合酒楼,
113.54309763017346,22.11520121716751,紫金八刀汤,永兴街与祥和三巷交叉口东60米,广东省,珠海市,香洲区,横琴,餐饮服务;中餐厅;中餐厅,050100,B0KRN4MAI2,餐饮服务,中餐厅,中餐厅,
113.54348153964261,22.116468550298574,幸运茶餐厅,德政街25号,广东省,珠海市,香洲区,横琴,餐饮服务;快餐厅;茶餐厅,050305,B0KU5SRVWV,餐饮服务,快餐厅,茶餐厅,
113.54355171255436,22.11658574572665,川妹子冒菜烤鱼,横琴镇德政街31号铺位,广东省,珠海市,香洲区,横琴,餐饮服务;中餐厅;四川菜(川菜),050102,B0JRLU7O13,餐饮服务,中餐厅,四川菜(川菜),
113.54334726538197,22.115342800594412,明火·海鲜煲仔饭,宝华路与银河街交叉口西南40米,广东省,珠海市,香洲区,横琴,餐饮服务;中餐厅;中餐厅,050100,B0J1PM2NBX,餐饮服务,中餐厅,中餐厅,
113.54348855450877,22.116518585776443,邻里手打柠檬茶(横琴国际休闲旅游岛店),德政街35号,广东省,珠海市,香洲区,横琴,餐饮服务;冷饮店;冷饮店,050700,B0KRYSX8II,餐饮服务,冷饮店,冷饮店,
113.54364396531409,22.116333833569517,港式早餐,德政街与宝中路交叉口西南60米,广东省,珠海市,香洲区,横琴,餐饮服务;中餐厅;中餐厅,050100,B0KDPO6EFQ,餐饮服务,中餐厅,中餐厅,
113.54341742504002,22.115674085554776,十里湘私房菜,宝华路与银河街交叉口西北20米,广东省,珠海市,香洲区,横琴,餐饮服务;中餐厅;中餐厅,050100,B0J2U9KBTL,餐饮服务,中餐厅,中餐厅,
113.54346649856015,22.11650653462639,三米粥铺,德政街与宝中路交叉口西南60米,广东省,珠海市,香洲区,横琴,餐饮服务;餐饮相关场所;餐饮相关,050000,B0KDZBLPO9,餐饮服务,餐饮相关场所,餐饮相关,
113.54272565701179,22.115345491781007,风情大排档(长隆店),横琴镇永兴街52号(横琴镇全面健身广场),广东省,珠海市,香洲区,横琴,餐饮服务;中餐厅;中餐厅,050100,B0H3F7AMUL,餐饮服务,中餐厅,中餐厅,
113.54335827364937,22.115659955746217,陈小厨家常菜·砂锅菜,宝华路与银河街交叉口西北20米,广东省,珠海市,香洲区,横琴,餐饮服务;中餐厅;中餐厅,050100,B0KUHRHU00,餐饮服务,中餐厅,中餐厅,
113.5432500242387,22.115192533965608,罗记广式早茶,宝华路与银河街交叉口西南60米,广东省,珠海市,香洲区,横琴,餐饮服务;快餐厅;快餐厅,050300,B0KUSRY4E9,餐饮服务,快餐厅,快餐厅,
113.54331518482013,22.115309719540157,粤广煲仔饭,宝华路与银河街交叉口西南40米,广东省,珠海市,香洲区,横琴,餐饮服务;中餐厅;中餐厅|餐饮服务;快餐厅;快餐厅,050100|050300,B0KRKD9P36,餐饮服务,中餐厅,中餐厅|餐饮服务,快餐厅
113.5431798027878,22.11582765090557,吃货生蚝鸡煲(横琴店),横琴镇宝华路49-51号(中国邮政旁),广东省,珠海市,香洲区,横琴,餐饮服务;中餐厅;中餐厅,050100,B0J1913HRC,餐饮服务,中餐厅,中餐厅,
113.54303245815315,22.115256102758767,花小小新疆炒米粉,永兴街与祥和三巷交叉口东40米,广东省,珠海市,香洲区,横琴,餐饮服务;中餐厅;中餐厅,050100,B0KRCC4PD4,餐饮服务,中餐厅,中餐厅,
113.54303245815315,22.115256102758767,花小小新疆炒米粉,永兴街与祥和三巷交叉口东40米,广东省,珠海市,香洲区,横琴,餐饮服务;中餐厅;中餐厅,050100,B0KRCC4PD4,餐饮服务,中餐厅,中餐厅,
113.54305450695091,22.115386203411333,九记八方,永兴街与祥和三巷交叉口东40米,广东省,珠海市,香洲区,横琴,餐饮服务;中餐厅;中餐厅,050100,B0KRP7MFQ1,餐饮服务,中餐厅,中餐厅,
113.54298131635147,22.115405056979245,桓记茶餐厅,永兴街与祥和三巷交叉口东40米,广东省,珠海市,香洲区,横琴,餐饮服务;快餐厅;快餐厅,050300,B0J24ZXNYQ,餐饮服务,快餐厅,快餐厅,
113.54303245815315,22.115256102758767,春兴祥美食店,永兴街与祥和三巷交叉口东40米,广东省,珠海市,香洲区,横琴,餐饮服务;中餐厅;中餐厅,050100,B0KA71EKTS,餐饮服务,中餐厅,中餐厅,
113.54304448082758,22.115389183528695,渔米猪香食馆,横琴祥和二巷3号101单元,广东省,珠海市,香洲区,横琴,餐饮服务;餐饮相关场所;餐饮相关,050000,B0J0LZPCQE,餐饮服务,餐饮相关场所,餐饮相关,
113.54300237517415,22.11533707307336,港記茶餐厅(横琴店),横琴祥和二巷3号1层101单元,广东省,珠海市,香洲区,横琴,餐饮服务;快餐厅;茶餐厅,050305,B0KRN5GU9F,餐饮服务,快餐厅,茶餐厅,
113.54307856536286,22.11544627910638,陈记顺德农家菜,祥和三巷与永兴街交叉口东60米,广东省,珠海市,香洲区,横琴,餐饮服务;中餐厅;中餐厅,050100,B0KKRUYIZE,餐饮服务,中餐厅,中餐厅,
113.54290011696935,22.11523181342867,琴湾海鲜大排档,横琴祥和二巷4号,广东省,珠海市,香洲区,横琴,餐饮服务;中餐厅;海鲜酒楼,050119,B0JABAQ2M4,餐饮服务,中餐厅,海鲜酒楼,
113.5432439497041,22.11612190814392,横琴烧烤,横琴镇永兴二巷8号,广东省,珠海市,香洲区,横琴,餐饮服务;中餐厅;特色/地方风味餐厅,050118,B0H0U9RVET,餐饮服务,中餐厅,特色/地方风味餐厅,
113.54301740570853,22.11546915977584,临时街亭一品香,横琴镇宝中路商业步行街A21号,广东省,珠海市,香洲区,横琴,餐饮服务;中餐厅;中餐厅,050100,B0KABPSXBV,餐饮服务,中餐厅,中餐厅,
113.54268456631699,22.11509129881454,吉旺角茶餐厅,永兴街与祥和三巷交叉口南40米,广东省,珠海市,香洲区,横琴,餐饮服务;快餐厅;快餐厅,050300,B0JK7RQNWW,餐饮服务,快餐厅,快餐厅,
113.542827900228,22.115696854481993,海上渔家海鲜大排档,祥和路3巷3号,广东省,珠海市,香洲区,横琴,餐饮服务;中餐厅;海鲜酒楼,050119,B0JGMUAIRU,餐饮服务,中餐厅,海鲜酒楼,
113.5427035597925,22.115973706517604,集合茶饮,横琴新区横琴镇永兴一巷29号101,广东省,珠海市,香洲区,横琴,餐饮服务;冷饮店;冷饮店,050700,B0IAL16CXO,餐饮服务,冷饮店,冷饮店,
113.54265847871416,22.115403373518358,御品香大排档,永兴街与祥和三巷交叉口东20米,广东省,珠海市,香洲区,横琴,餐饮服务;中餐厅;中餐厅,050100,B0FFLPDKOM,餐饮服务,中餐厅,中餐厅,
113.54251009541659,22.115356038778977,陈家粥铺,永兴街47号103,广东省,珠海市,香洲区,横琴,餐饮服务;餐饮相关场所;餐饮相关,050000,B0JADMDSZ3,餐饮服务,餐饮相关场所,餐饮相关,
113.54281987827301,22.11571484500732,元气披萨,横琴镇红旗村祥和3巷3号102,广东省,珠海市,香洲区,横琴,餐饮服务;快餐厅;快餐厅,050300,B0JKYHFVYL,餐饮服务,快餐厅,快餐厅,
113.54252213273901,22.115262025200735,祥和美食店,永兴街与祥和三巷交叉口西南20米,广东省,珠海市,香洲区,横琴,餐饮服务;中餐厅;中餐厅,050100,B0JRL6YF81,餐饮服务,中餐厅,中餐厅,
113.54271363578859,22.115187400457028,Hotel&Coffee,永兴街与祥和三巷交叉口东南20米,广东省,珠海市,香洲区,横琴,餐饮服务;咖啡厅;咖啡厅,050500,B0K3VUKF4K,餐饮服务,咖啡厅,咖啡厅,
113.54265645717001,22.11566047629429,粤式早餐,祥和三巷与永兴街交叉口北20米,广东省,珠海市,香洲区,横琴,餐饮服务;中餐厅;中餐厅,050100,B0JDF5SGUI,餐饮服务,中餐厅,中餐厅,
113.54235266940479,22.11559780440968,無事咖啡,横琴镇永兴三巷23号101室,广东省,珠海市,香洲区,横琴,餐饮服务;咖啡厅;咖啡厅,050500,B0KRCSDK87,餐饮服务,咖啡厅,咖啡厅,
113.54250407440242,22.115440060975658,七饱饱,横琴镇红旗村永兴街三巷21号101,广东省,珠海市,香洲区,横琴,餐饮服务;中餐厅;综合酒楼,050101,B0J0GSARKD,餐饮服务,中餐厅,综合酒楼,
113.5422724569646,22.115642652035728,粤港早餐,祥和三巷与永兴街交叉口西北40米,广东省,珠海市,香洲区,横琴,餐饮服务;中餐厅;中餐厅,050100,B0K3USLS2O,餐饮服务,中餐厅,中餐厅,
113.5788113931891,22.214530794156193,豆二机器人饮品站,G94珠三角環線高速与G94珠三角環線高速出口交叉口西北440米,广东省,珠海市,香洲区,,餐饮服务;餐饮相关场所;餐饮相关,050000,B0KAPHN61V,餐饮服务,餐饮相关场所,餐饮相关,
